{"type": "Feature", "properties": {"isim": "Altıntepe Sitesi", "kaynak": "TKGM Parsel Sorgu (CBS) verisine dayalıdır; bilgilendirme amaçlıdır, resmi kadastro belgesi yerine geçmez.", "adalar": ["46434/1"]}, "geometry": {"type": "Polygon", "coordinates": [[[32.61632, 40.00473], [32.61635, 40.00477], [32.61623, 40.00483], [32.61611, 40.00487], [32.61584, 40.00497], [32.61564, 40.005], [32.61508, 40.00508], [32.61501, 40.00496], [32.61431, 40.00446], [32.61429, 40.00443], [32.61489, 40.00386], [32.61632, 40.00473]]]}}