{
 "type": "Feature",
 "properties": {
  "isim": "Concept Eryaman",
  "kaynak": "TKGM Parsel Sorgu (CBS) verisine dayalıdır; bilgilendirme amaçlıdır, resmi kadastro belgesi yerine geçmez.",
  "adalar": [
   "46445/1",
   "46446/1"
  ]
 },
 "geometry": {
  "type": "MultiPolygon",
  "coordinates": [
   [
    [
     [
      32.61776,
      40.00212
     ],
     [
      32.61723,
      40.0026
     ],
     [
      32.61704,
      40.00262
     ],
     [
      32.61644,
      40.00225
     ],
     [
      32.61708,
      40.00165
     ],
     [
      32.61776,
      40.00212
     ]
    ]
   ],
   [
    [
     [
      32.61638,
      40.00221
     ],
     [
      32.61569,
      40.00179
     ],
     [
      32.61637,
      40.00119
     ],
     [
      32.61642,
      40.00119
     ],
     [
      32.61702,
      40.00161
     ],
     [
      32.61638,
      40.00221
     ]
    ]
   ]
  ]
 }
}