{
 "type": "Feature",
 "properties": {
  "isim": "Doğakent Çamlık Sitesi",
  "kaynak": "TKGM Parsel Sorgu (CBS) verisine dayalıdır; bilgilendirme amaçlıdır, resmi kadastro belgesi yerine geçmez.",
  "adalar": [
   "19525/3"
  ]
 },
 "geometry": {
  "type": "MultiPolygon",
  "coordinates": [
   [
    [
     [
      32.61721,
      39.99697
     ],
     [
      32.61676,
      39.99737
     ],
     [
      32.6166,
      39.99722
     ],
     [
      32.61641,
      39.99696
     ],
     [
      32.61626,
      39.99682
     ],
     [
      32.61629,
      39.99679
     ],
     [
      32.61631,
      39.99663
     ],
     [
      32.61612,
      39.99648
     ],
     [
      32.61674,
      39.99604
     ],
     [
      32.61732,
      39.99652
     ],
     [
      32.61727,
      39.99655
     ],
     [
      32.61724,
      39.99658
     ],
     [
      32.6172,
      39.99662
     ],
     [
      32.61717,
      39.99666
     ],
     [
      32.61715,
      39.9967
     ],
     [
      32.61714,
      39.99675
     ],
     [
      32.61714,
      39.99681
     ],
     [
      32.61716,
      39.99689
     ],
     [
      32.61721,
      39.99697
     ]
    ]
   ]
  ]
 }
}
