{
 "type": "Feature",
 "properties": {
  "isim": "Genç Avrasya Sitesi",
  "kaynak": "TKGM Parsel Sorgu (CBS) verisine dayalıdır; bilgilendirme amaçlıdır, resmi kadastro belgesi yerine geçmez.",
  "adalar": [
   "46239/1"
  ]
 },
 "geometry": {
  "type": "MultiPolygon",
  "coordinates": [
   [
    [
     [
      32.61662,
      39.99919
     ],
     [
      32.61576,
      39.99998
     ],
     [
      32.61497,
      39.99944
     ],
     [
      32.61581,
      39.99867
     ],
     [
      32.61586,
      39.99867
     ],
     [
      32.61662,
      39.99919
     ]
    ]
   ]
  ]
 }
}