{
 "type": "Feature",
 "properties": {
  "isim": "İlkiz 2 Sitesi",
  "kaynak": "TKGM Parsel Sorgu (CBS) verisine dayalıdır; bilgilendirme amaçlıdır, resmi kadastro belgesi yerine geçmez.",
  "adalar": [
   "19540/1"
  ]
 },
 "geometry": {
  "type": "MultiPolygon",
  "coordinates": [
   [
    [
     [
      32.61519,
      39.99592
     ],
     [
      32.61524,
      39.99595
     ],
     [
      32.61528,
      39.99599
     ],
     [
      32.6157,
      39.99634
     ],
     [
      32.61519,
      39.9967
     ],
     [
      32.61467,
      39.99627
     ],
     [
      32.61463,
      39.99624
     ],
     [
      32.61457,
      39.99622
     ],
     [
      32.61451,
      39.9962
     ],
     [
      32.61387,
      39.9962
     ],
     [
      32.61382,
      39.99616
     ],
     [
      32.61382,
      39.99596
     ],
     [
      32.6142,
      39.9955
     ],
     [
      32.61426,
      39.9955
     ],
     [
      32.61432,
      39.9955
     ],
     [
      32.61438,
      39.99551
     ],
     [
      32.61443,
      39.99552
     ],
     [
      32.61449,
      39.99553
     ],
     [
      32.61454,
      39.99556
     ],
     [
      32.61476,
      39.99566
     ],
     [
      32.61477,
      39.99567
     ],
     [
      32.61483,
      39.99569
     ],
     [
      32.61488,
      39.99572
     ],
     [
      32.61494,
      39.99575
     ],
     [
      32.61499,
      39.99578
     ],
     [
      32.61503,
      39.99581
     ],
     [
      32.61509,
      39.99585
     ],
     [
      32.61514,
      39.99588
     ],
     [
      32.61519,
      39.99592
     ]
    ]
   ]
  ]
 }
}
