{
 "type": "Feature",
 "properties": {
  "isim": "Kardelen Sitesi",
  "kaynak": "TKGM Parsel Sorgu (CBS) verisine dayalıdır; bilgilendirme amaçlıdır, resmi kadastro belgesi yerine geçmez.",
  "adalar": [
   "19504/1"
  ]
 },
 "geometry": {
  "type": "MultiPolygon",
  "coordinates": [
   [
    [
     [
      32.61041,
      39.99808
     ],
     [
      32.60955,
      39.99809
     ],
     [
      32.60955,
      39.99752
     ],
     [
      32.60968,
      39.99742
     ],
     [
      32.61033,
      39.99742
     ],
     [
      32.61041,
      39.99747
     ],
     [
      32.61041,
      39.99808
     ]
    ]
   ]
  ]
 }
}
