{
 "type": "Feature",
 "properties": {
  "isim": "Korukent Sitesi",
  "kaynak": "TKGM Parsel Sorgu (CBS) verisine dayalıdır; bilgilendirme amaçlıdır, resmi kadastro belgesi yerine geçmez.",
  "adalar": [
   "19508/1"
  ]
 },
 "geometry": {
  "type": "MultiPolygon",
  "coordinates": [
   [
    [
     [
      32.60686,
      39.99821
     ],
     [
      32.60612,
      39.99862
     ],
     [
      32.6054,
      39.99784
     ],
     [
      32.60615,
      39.99744
     ],
     [
      32.60686,
      39.99821
     ]
    ]
   ]
  ]
 }
}