{
 "type": "Feature",
 "properties": {
  "isim": "Özharitacılar Sitesi",
  "kaynak": "TKGM Parsel Sorgu (CBS) verisine dayalıdır; bilgilendirme amaçlıdır, resmi kadastro belgesi yerine geçmez.",
  "adalar": [
   "19501/1",
   "19502/1"
  ]
 },
 "geometry": {
  "type": "MultiPolygon",
  "coordinates": [
   [
    [
     [
      32.60872,
      39.99964
     ],
     [
      32.60705,
      39.99963
     ],
     [
      32.6067,
      39.99925
     ],
     [
      32.60745,
      39.99884
     ],
     [
      32.60746,
      39.99885
     ],
     [
      32.60748,
      39.99886
     ],
     [
      32.6075,
      39.99888
     ],
     [
      32.60752,
      39.99889
     ],
     [
      32.60754,
      39.9989
     ],
     [
      32.60757,
      39.99891
     ],
     [
      32.6076,
      39.99892
     ],
     [
      32.60763,
      39.99892
     ],
     [
      32.60765,
      39.99893
     ],
     [
      32.60768,
      39.99893
     ],
     [
      32.60769,
      39.99893
     ],
     [
      32.60844,
      39.99893
     ],
     [
      32.60872,
      39.99964
     ]
    ]
   ],
   [
    [
     [
      32.61041,
      39.99954
     ],
     [
      32.61024,
      39.99964
     ],
     [
      32.609,
      39.99964
     ],
     [
      32.60872,
      39.99893
     ],
     [
      32.6094,
      39.99894
     ],
     [
      32.60944,
      39.9989
     ],
     [
      32.61041,
      39.99891
     ],
     [
      32.61041,
      39.99954
     ]
    ]
   ]
  ]
 }
}
