{
 "type": "Feature",
 "properties": {
  "isim": "Terasevler Eryaman",
  "kaynak": "TKGM Parsel Sorgu (CBS) verisine dayalıdır; bilgilendirme amaçlıdır, resmi kadastro belgesi yerine geçmez.",
  "adalar": [
   "46437/1"
  ]
 },
 "geometry": {
  "type": "MultiPolygon",
  "coordinates": [
   [
    [
     [
      32.61299,
      40.00292
     ],
     [
      32.61294,
      40.00297
     ],
     [
      32.61146,
      40.00275
     ],
     [
      32.6117,
      40.00195
     ],
     [
      32.61179,
      40.00192
     ],
     [
      32.61333,
      40.00212
     ],
     [
      32.61299,
      40.00292
     ]
    ]
   ]
  ]
 }
}
