{
 "type": "Feature",
 "properties": {
  "isim": "Yükselen Sitesi",
  "kaynak": "TKGM Parsel Sorgu (CBS) verisine dayalıdır; bilgilendirme amaçlıdır, resmi kadastro belgesi yerine geçmez.",
  "adalar": [
   "19524/1"
  ]
 },
 "geometry": {
  "type": "MultiPolygon",
  "coordinates": [
   [
    [
     [
      32.61472,
      39.99923
     ],
     [
      32.61449,
      39.99944
     ],
     [
      32.61444,
      39.99948
     ],
     [
      32.6144,
      39.99951
     ],
     [
      32.61435,
      39.99954
     ],
     [
      32.6143,
      39.99956
     ],
     [
      32.61425,
      39.99958
     ],
     [
      32.61423,
      39.99959
     ],
     [
      32.6142,
      39.9996
     ],
     [
      32.61408,
      39.99963
     ],
     [
      32.61403,
      39.99964
     ],
     [
      32.61397,
      39.99964
     ],
     [
      32.61391,
      39.99965
     ],
     [
      32.61282,
      39.99964
     ],
     [
      32.61283,
      39.999
     ],
     [
      32.61386,
      39.999
     ],
     [
      32.61407,
      39.99881
     ],
     [
      32.61472,
      39.99923
     ]
    ]
   ]
  ]
 }
}