{
 "type": "Feature",
 "properties": {
  "isim": "Age Sitesi",
  "kaynak": "TKGM Parsel Sorgu (CBS) verisine dayalıdır; bilgilendirme amaçlıdır, resmi kadastro belgesi yerine geçmez.",
  "adalar": [
   "46494/2"
  ]
 },
 "geometry": {
  "type": "MultiPolygon",
  "coordinates": [
   [
    [
     [
      32.63207,
      39.98577
     ],
     [
      32.63173,
      39.98445
     ],
     [
      32.63276,
      39.98332
     ],
     [
      32.63391,
      39.98333
     ],
     [
      32.63401,
      39.98339
     ],
     [
      32.63388,
      39.98446
     ],
     [
      32.63334,
      39.98442
     ],
     [
      32.63321,
      39.98442
     ],
     [
      32.63321,
      39.98452
     ],
     [
      32.63334,
      39.98452
     ],
     [
      32.63334,
      39.98446
     ],
     [
      32.63388,
      39.9845
     ],
     [
      32.63386,
      39.98463
     ],
     [
      32.63383,
      39.98474
     ],
     [
      32.63378,
      39.98482
     ],
     [
      32.63371,
      39.98492
     ],
     [
      32.63264,
      39.98601
     ],
     [
      32.63258,
      39.98602
     ],
     [
      32.63253,
      39.98602
     ],
     [
      32.63207,
      39.98577
     ]
    ]
   ]
  ]
 }
}