{
 "type": "Feature",
 "properties": {
  "isim": "Aktürk Sitesi",
  "kaynak": "TKGM Parsel Sorgu (CBS) verisine dayalıdır; bilgilendirme amaçlıdır, resmi kadastro belgesi yerine geçmez.",
  "adalar": [
   "46499/2",
   "46501/2"
  ]
 },
 "geometry": {
  "type": "MultiPolygon",
  "coordinates": [
   [
    [
     [
      32.62033,
      39.9865
     ],
     [
      32.62028,
      39.9865
     ],
     [
      32.62025,
      39.98649
     ],
     [
      32.62023,
      39.98646
     ],
     [
      32.62014,
      39.98571
     ],
     [
      32.62009,
      39.98552
     ],
     [
      32.62026,
      39.98547
     ],
     [
      32.62022,
      39.98538
     ],
     [
      32.62006,
      39.98542
     ],
     [
      32.62006,
      39.98541
     ],
     [
      32.62008,
      39.98537
     ],
     [
      32.62137,
      39.98504
     ],
     [
      32.62146,
      39.98503
     ],
     [
      32.62155,
      39.98503
     ],
     [
      32.62164,
      39.98504
     ],
     [
      32.62174,
      39.98507
     ],
     [
      32.62182,
      39.98509
     ],
     [
      32.62189,
      39.98513
     ],
     [
      32.62271,
      39.98577
     ],
     [
      32.62275,
      39.98584
     ],
     [
      32.62274,
      39.9859
     ],
     [
      32.62269,
      39.98595
     ],
     [
      32.62262,
      39.98599
     ],
     [
      32.62195,
      39.98619
     ],
     [
      32.62191,
      39.9862
     ],
     [
      32.62187,
      39.98619
     ],
     [
      32.6217,
      39.98614
     ],
     [
      32.62167,
      39.98614
     ],
     [
      32.62163,
      39.98614
     ],
     [
      32.62107,
      39.98631
     ],
     [
      32.62033,
      39.9865
     ]
    ]
   ],
   [
    [
     [
      32.62389,
      39.98465
     ],
     [
      32.62449,
      39.98474
     ],
     [
      32.62455,
      39.98476
     ],
     [
      32.62459,
      39.98478
     ],
     [
      32.62464,
      39.98481
     ],
     [
      32.62461,
      39.98492
     ],
     [
      32.62448,
      39.9849
     ],
     [
      32.62446,
      39.985
     ],
     [
      32.62464,
      39.98502
     ],
     [
      32.62469,
      39.98485
     ],
     [
      32.62559,
      39.98551
     ],
     [
      32.62562,
      39.98556
     ],
     [
      32.62563,
      39.9856
     ],
     [
      32.62563,
      39.98563
     ],
     [
      32.62553,
      39.98621
     ],
     [
      32.62416,
      39.98602
     ],
     [
      32.62393,
      39.98595
     ],
     [
      32.62381,
      39.98588
     ],
     [
      32.62368,
      39.98566
     ],
     [
      32.62366,
      39.98561
     ],
     [
      32.62366,
      39.98556
     ],
     [
      32.62378,
      39.98501
     ],
     [
      32.62389,
      39.98465
     ]
    ]
   ]
  ]
 }
}