{
 "type": "Feature",
 "properties": {
  "isim": "Camlı Klima Blokları",
  "kaynak": "TKGM Parsel Sorgu (CBS) verisine dayalıdır; bilgilendirme amaçlıdır, resmi kadastro belgesi yerine geçmez.",
  "adalar": [
   "17621/1",
   "17622/1",
   "17623/1",
   "17629/1",
   "17630/1",
   "17631/1",
   "17632/1"
  ]
 },
 "geometry": {
  "type": "MultiPolygon",
  "coordinates": [
   [
    [
     [
      32.61879,
      39.9916
     ],
     [
      32.61792,
      39.99129
     ],
     [
      32.61791,
      39.99124
     ],
     [
      32.61809,
      39.99094
     ],
     [
      32.61859,
      39.9908
     ],
     [
      32.61915,
      39.99101
     ],
     [
      32.61879,
      39.9916
     ]
    ]
   ],
   [
    [
     [
      32.6197,
      39.99191
     ],
     [
      32.6189,
      39.99163
     ],
     [
      32.61925,
      39.99105
     ],
     [
      32.62004,
      39.99134
     ],
     [
      32.6197,
      39.99191
     ]
    ]
   ],
   [
    [
     [
      32.62101,
      39.99222
     ],
     [
      32.62097,
      39.99225
     ],
     [
      32.62047,
      39.99216
     ],
     [
      32.62028,
      39.99212
     ],
     [
      32.61992,
      39.99199
     ],
     [
      32.62026,
      39.99143
     ],
     [
      32.62087,
      39.99164
     ],
     [
      32.62101,
      39.99222
     ]
    ]
   ],
   [
    [
     [
      32.61801,
      39.98992
     ],
     [
      32.61876,
      39.99021
     ],
     [
      32.61849,
      39.99064
     ],
     [
      32.61801,
      39.99077
     ],
     [
      32.61764,
      39.99064
     ],
     [
      32.61761,
      39.99057
     ],
     [
      32.61801,
      39.98992
     ]
    ]
   ],
   [
    [
     [
      32.61844,
      39.98925
     ],
     [
      32.61856,
      39.98922
     ],
     [
      32.61917,
      39.98944
     ],
     [
      32.6192,
      39.98952
     ],
     [
      32.61885,
      39.99007
     ],
     [
      32.6181,
      39.98979
     ],
     [
      32.61844,
      39.98925
     ]
    ]
   ],
   [
    [
     [
      32.61861,
      39.98898
     ],
     [
      32.61899,
      39.98839
     ],
     [
      32.61974,
      39.98867
     ],
     [
      32.61935,
      39.98929
     ],
     [
      32.61923,
      39.98932
     ],
     [
      32.61867,
      39.98911
     ],
     [
      32.61861,
      39.98898
     ]
    ]
   ],
   [
    [
     [
      32.61953,
      39.98754
     ],
     [
      32.62018,
      39.98799
     ],
     [
      32.61984,
      39.98851
     ],
     [
      32.61909,
      39.98822
     ],
     [
      32.61953,
      39.98754
     ]
    ]
   ]
  ]
 }
}