{
 "type": "Feature",
 "properties": {
  "isim": "Canberk Sitesi",
  "kaynak": "TKGM Parsel Sorgu (CBS) verisine dayalıdır; bilgilendirme amaçlıdır, resmi kadastro belgesi yerine geçmez.",
  "adalar": [
   "46492/1"
  ]
 },
 "geometry": {
  "type": "MultiPolygon",
  "coordinates": [
   [
    [
     [
      32.63337,
      39.99075
     ],
     [
      32.63331,
      39.99073
     ],
     [
      32.63329,
      39.9907
     ],
     [
      32.63324,
      39.98894
     ],
     [
      32.63341,
      39.98794
     ],
     [
      32.63362,
      39.98754
     ],
     [
      32.63364,
      39.98748
     ],
     [
      32.63437,
      39.9876
     ],
     [
      32.63489,
      39.98783
     ],
     [
      32.63484,
      39.98796
     ],
     [
      32.63485,
      39.98811
     ],
     [
      32.63484,
      39.98817
     ],
     [
      32.63494,
      39.98912
     ],
     [
      32.63509,
      39.9892
     ],
     [
      32.63513,
      39.98924
     ],
     [
      32.63515,
      39.98929
     ],
     [
      32.63525,
      39.99032
     ],
     [
      32.63524,
      39.99038
     ],
     [
      32.63522,
      39.99043
     ],
     [
      32.63519,
      39.99049
     ],
     [
      32.63516,
      39.99054
     ],
     [
      32.63513,
      39.99057
     ],
     [
      32.63506,
      39.9906
     ],
     [
      32.63499,
      39.99063
     ],
     [
      32.63492,
      39.99064
     ],
     [
      32.63337,
      39.99075
     ]
    ]
   ]
  ]
 }
}