{
 "type": "Feature",
 "properties": {
  "isim": "Klima Blokları",
  "kaynak": "TKGM Parsel Sorgu (CBS) verisine dayalıdır; bilgilendirme amaçlıdır, resmi kadastro belgesi yerine geçmez.",
  "adalar": [
   "17624/1",
   "17625/1",
   "17644/1",
   "17645/1",
   "17646/1",
   "17647/1",
   "17648/1"
  ]
 },
 "geometry": {
  "type": "MultiPolygon",
  "coordinates": [
   [
    [
     [
      32.62274,
      39.99244
     ],
     [
      32.62269,
      39.99248
     ],
     [
      32.62202,
      39.99244
     ],
     [
      32.62179,
      39.99177
     ],
     [
      32.62182,
      39.99173
     ],
     [
      32.62269,
      39.99178
     ],
     [
      32.62274,
      39.99244
     ]
    ]
   ],
   [
    [
     [
      32.62398,
      39.9924
     ],
     [
      32.62301,
      39.99248
     ],
     [
      32.62297,
      39.99243
     ],
     [
      32.62293,
      39.99183
     ],
     [
      32.623,
      39.99179
     ],
     [
      32.62393,
      39.99185
     ],
     [
      32.62398,
      39.9924
     ]
    ]
   ],
   [
    [
     [
      32.62531,
      39.99102
     ],
     [
      32.62497,
      39.99128
     ],
     [
      32.62479,
      39.99135
     ],
     [
      32.62447,
      39.9913
     ],
     [
      32.6241,
      39.99096
     ],
     [
      32.6241,
      39.99091
     ],
     [
      32.62446,
      39.99064
     ],
     [
      32.6254,
      39.9908
     ],
     [
      32.62538,
      39.99089
     ],
     [
      32.62535,
      39.99094
     ],
     [
      32.62531,
      39.99102
     ]
    ]
   ],
   [
    [
     [
      32.6262,
      39.99157
     ],
     [
      32.62525,
      39.99142
     ],
     [
      32.62521,
      39.99134
     ],
     [
      32.62531,
      39.99128
     ],
     [
      32.62537,
      39.99122
     ],
     [
      32.62543,
      39.99114
     ],
     [
      32.62549,
      39.99105
     ],
     [
      32.62554,
      39.99096
     ],
     [
      32.62557,
      39.99083
     ],
     [
      32.62637,
      39.99096
     ],
     [
      32.6262,
      39.99157
     ]
    ]
   ],
   [
    [
     [
      32.62579,
      39.99006
     ],
     [
      32.62588,
      39.99001
     ],
     [
      32.62654,
      39.99012
     ],
     [
      32.62659,
      39.99019
     ],
     [
      32.62642,
      39.99078
     ],
     [
      32.62562,
      39.99065
     ],
     [
      32.62579,
      39.99006
     ]
    ]
   ],
   [
    [
     [
      32.62545,
      39.99062
     ],
     [
      32.62464,
      39.99049
     ],
     [
      32.62482,
      39.98984
     ],
     [
      32.62556,
      39.98996
     ],
     [
      32.62561,
      39.99003
     ],
     [
      32.62545,
      39.99062
     ]
    ]
   ],
   [
    [
     [
      32.62568,
      39.98978
     ],
     [
      32.62558,
      39.98983
     ],
     [
      32.62485,
      39.98971
     ],
     [
      32.62504,
      39.98904
     ],
     [
      32.62585,
      39.98918
     ],
     [
      32.62568,
      39.98978
     ]
    ]
   ]
  ]
 }
}