{
 "type": "Feature",
 "properties": {
  "isim": "Maviçam Sitesi",
  "kaynak": "TKGM Parsel Sorgu (CBS) verisine dayalıdır; bilgilendirme amaçlıdır, resmi kadastro belgesi yerine geçmez.",
  "adalar": [
   "46514/2"
  ]
 },
 "geometry": {
  "type": "MultiPolygon",
  "coordinates": [
   [
    [
     [
      32.61399,
      39.98932
     ],
     [
      32.61495,
      39.98876
     ],
     [
      32.61508,
      39.98876
     ],
     [
      32.61748,
      39.98935
     ],
     [
      32.61778,
      39.98946
     ],
     [
      32.61781,
      39.98952
     ],
     [
      32.61716,
      39.99056
     ],
     [
      32.61709,
      39.99053
     ],
     [
      32.61705,
      39.99058
     ],
     [
      32.61713,
      39.99062
     ],
     [
      32.61712,
      39.99062
     ],
     [
      32.61653,
      39.9907
     ],
     [
      32.61427,
      39.9895
     ],
     [
      32.61399,
      39.98932
     ]
    ]
   ]
  ]
 }
}