{
 "type": "Feature",
 "properties": {
  "isim": "Neopolitan Eryaman",
  "kaynak": "TKGM Parsel Sorgu (CBS) verisine dayalıdır; bilgilendirme amaçlıdır, resmi kadastro belgesi yerine geçmez.",
  "adalar": [
   "45878/2"
  ]
 },
 "geometry": {
  "type": "MultiPolygon",
  "coordinates": [
   [
    [
     [
      32.61989,
      39.99023
     ],
     [
      32.61983,
      39.99032
     ],
     [
      32.61988,
      39.99045
     ],
     [
      32.6203,
      39.99062
     ],
     [
      32.62053,
      39.9907
     ],
     [
      32.62069,
      39.99105
     ],
     [
      32.62087,
      39.99148
     ],
     [
      32.6207,
      39.99143
     ],
     [
      32.62032,
      39.9913
     ],
     [
      32.61994,
      39.99116
     ],
     [
      32.61941,
      39.99096
     ],
     [
      32.61889,
      39.99076
     ],
     [
      32.61882,
      39.99071
     ],
     [
      32.61877,
      39.99065
     ],
     [
      32.61875,
      39.99058
     ],
     [
      32.61876,
      39.99052
     ],
     [
      32.61893,
      39.99025
     ],
     [
      32.61913,
      39.98994
     ],
     [
      32.61989,
      39.99023
     ]
    ]
   ]
  ]
 }
}