{
 "type": "Feature",
 "properties": {
  "isim": "Özar Sitesi",
  "kaynak": "TKGM Parsel Sorgu (CBS) verisine dayalıdır; bilgilendirme amaçlıdır, resmi kadastro belgesi yerine geçmez.",
  "adalar": [
   "46500/2",
   "46503/2"
  ]
 },
 "geometry": {
  "type": "MultiPolygon",
  "coordinates": [
   [
    [
     [
      32.62225,
      39.98402
     ],
     [
      32.62346,
      39.98421
     ],
     [
      32.62333,
      39.98469
     ],
     [
      32.62337,
      39.985
     ],
     [
      32.62317,
      39.9855
     ],
     [
      32.62313,
      39.98555
     ],
     [
      32.62308,
      39.9856
     ],
     [
      32.62301,
      39.98563
     ],
     [
      32.62289,
      39.98563
     ],
     [
      32.62284,
      39.98561
     ],
     [
      32.62213,
      39.98506
     ],
     [
      32.62209,
      39.98499
     ],
     [
      32.62208,
      39.98458
     ],
     [
      32.6224,
      39.98464
     ],
     [
      32.62244,
      39.98454
     ],
     [
      32.62251,
      39.98455
     ],
     [
      32.62254,
      39.98445
     ],
     [
      32.62241,
      39.98443
     ],
     [
      32.62236,
      39.98459
     ],
     [
      32.62208,
      39.98454
     ],
     [
      32.62225,
      39.98402
     ]
    ]
   ],
   [
    [
     [
      32.62224,
      39.98374
     ],
     [
      32.62228,
      39.98278
     ],
     [
      32.62244,
      39.98278
     ],
     [
      32.62244,
      39.98268
     ],
     [
      32.62228,
      39.98268
     ],
     [
      32.6223,
      39.98218
     ],
     [
      32.6238,
      39.9822
     ],
     [
      32.62382,
      39.9824
     ],
     [
      32.62383,
      39.98253
     ],
     [
      32.62383,
      39.98264
     ],
     [
      32.62382,
      39.98277
     ],
     [
      32.62381,
      39.98287
     ],
     [
      32.62379,
      39.98297
     ],
     [
      32.62376,
      39.98304
     ],
     [
      32.62352,
      39.98395
     ],
     [
      32.62224,
      39.98374
     ]
    ]
   ]
  ]
 }
}