{
 "type": "Feature",
 "properties": {
  "isim": "Soyak Sitesi",
  "kaynak": "TKGM Parsel Sorgu (CBS) verisine dayalıdır; bilgilendirme amaçlıdır, resmi kadastro belgesi yerine geçmez.",
  "adalar": [
   "17655/1",
   "17656/1",
   "17657/1",
   "17658/1",
   "17665/1"
  ]
 },
 "geometry": {
  "type": "MultiPolygon",
  "coordinates": [
   [
    [
     [
      32.63071,
      39.99134
     ],
     [
      32.63056,
      39.99062
     ],
     [
      32.63119,
      39.99054
     ],
     [
      32.63123,
      39.99056
     ],
     [
      32.63138,
      39.99125
     ],
     [
      32.63071,
      39.99134
     ]
    ]
   ],
   [
    [
     [
      32.6314,
      39.99051
     ],
     [
      32.63186,
      39.99046
     ],
     [
      32.63256,
      39.99088
     ],
     [
      32.6323,
      39.99113
     ],
     [
      32.63155,
      39.99123
     ],
     [
      32.6314,
      39.99051
     ]
    ]
   ],
   [
    [
     [
      32.63202,
      39.99032
     ],
     [
      32.63203,
      39.98978
     ],
     [
      32.63291,
      39.98979
     ],
     [
      32.63293,
      39.99052
     ],
     [
      32.63271,
      39.99074
     ],
     [
      32.63202,
      39.99032
     ]
    ]
   ],
   [
    [
     [
      32.63069,
      39.99047
     ],
     [
      32.63059,
      39.98995
     ],
     [
      32.63179,
      39.98979
     ],
     [
      32.63186,
      39.98983
     ],
     [
      32.63184,
      39.9902
     ],
     [
      32.63171,
      39.99034
     ],
     [
      32.63069,
      39.99047
     ]
    ]
   ],
   [
    [
     [
      32.63204,
      39.9896
     ],
     [
      32.63206,
      39.98896
     ],
     [
      32.63213,
      39.98891
     ],
     [
      32.63289,
      39.98893
     ],
     [
      32.63291,
      39.98961
     ],
     [
      32.63204,
      39.9896
     ]
    ]
   ]
  ]
 }
}