{
 "type": "Feature",
 "properties": {
  "isim": "Yardımcı Blokları",
  "kaynak": "TKGM Parsel Sorgu (CBS) verisine dayalıdır; bilgilendirme amaçlıdır, resmi kadastro belgesi yerine geçmez.",
  "adalar": [
   "17688/1",
   "17689/1",
   "17703/1",
   "17704/1",
   "17705/1",
   "17711/1"
  ]
 },
 "geometry": {
  "type": "MultiPolygon",
  "coordinates": [
   [
    [
     [
      32.62994,
      39.98692
     ],
     [
      32.62976,
      39.98627
     ],
     [
      32.63061,
      39.98614
     ],
     [
      32.63079,
      39.98679
     ],
     [
      32.62994,
      39.98692
     ]
    ]
   ],
   [
    [
     [
      32.63102,
      39.98675
     ],
     [
      32.63082,
      39.98601
     ],
     [
      32.63156,
      39.98589
     ],
     [
      32.63176,
      39.98663
     ],
     [
      32.63102,
      39.98675
     ]
    ]
   ],
   [
    [
     [
      32.62918,
      39.98525
     ],
     [
      32.62904,
      39.98472
     ],
     [
      32.62915,
      39.9846
     ],
     [
      32.62992,
      39.98456
     ],
     [
      32.63,
      39.98462
     ],
     [
      32.63012,
      39.9851
     ],
     [
      32.62918,
      39.98525
     ]
    ]
   ],
   [
    [
     [
      32.62938,
      39.986
     ],
     [
      32.62922,
      39.98543
     ],
     [
      32.63017,
      39.98528
     ],
     [
      32.63031,
      39.98586
     ],
     [
      32.62938,
      39.986
     ]
    ]
   ],
   [
    [
     [
      32.63149,
      39.98576
     ],
     [
      32.63091,
      39.98586
     ],
     [
      32.63043,
      39.9856
     ],
     [
      32.63035,
      39.9853
     ],
     [
      32.63133,
      39.98515
     ],
     [
      32.63149,
      39.98576
     ]
    ]
   ],
   [
    [
     [
      32.6303,
      39.98512
     ],
     [
      32.63016,
      39.98455
     ],
     [
      32.63115,
      39.9844
     ],
     [
      32.63129,
      39.98497
     ],
     [
      32.6303,
      39.98512
     ]
    ]
   ]
  ]
 }
}