{
 "type": "Feature",
 "properties": {
  "isim": "Age Blokları",
  "kaynak": "TKGM Parsel Sorgu (CBS) verisine dayalıdır; bilgilendirme amaçlıdır, resmi kadastro belgesi yerine geçmez.",
  "adalar": [
   "17546/1",
   "17538/1",
   "17544/1",
   "17545/1",
   "17547/2",
   "17555/1",
   "17556/1",
   "17557/1",
   "17558/1"
  ]
 },
 "geometry": {
  "type": "MultiPolygon",
  "coordinates": [
   [
    [
     [
      32.63866,
      39.97043
     ],
     [
      32.63864,
      39.97051
     ],
     [
      32.63809,
      39.97083
     ],
     [
      32.63775,
      39.97048
     ],
     [
      32.63741,
      39.97014
     ],
     [
      32.63804,
      39.96979
     ],
     [
      32.63835,
      39.97011
     ],
     [
      32.63866,
      39.97043
     ]
    ]
   ],
   [
    [
     [
      32.6429,
      39.97216
     ],
     [
      32.64218,
      39.9726
     ],
     [
      32.64186,
      39.97228
     ],
     [
      32.64153,
      39.97197
     ],
     [
      32.64223,
      39.97158
     ],
     [
      32.64231,
      39.97157
     ],
     [
      32.64261,
      39.97186
     ],
     [
      32.6429,
      39.97216
     ]
    ]
   ],
   [
    [
     [
      32.64039,
      39.96944
     ],
     [
      32.64036,
      39.96952
     ],
     [
      32.63973,
      39.96988
     ],
     [
      32.63958,
      39.96985
     ],
     [
      32.6393,
      39.96955
     ],
     [
      32.63902,
      39.96926
     ],
     [
      32.63942,
      39.96904
     ],
     [
      32.63982,
      39.96882
     ],
     [
      32.6401,
      39.96913
     ],
     [
      32.64039,
      39.96944
     ]
    ]
   ],
   [
    [
     [
      32.63823,
      39.96969
     ],
     [
      32.63888,
      39.96934
     ],
     [
      32.63916,
      39.96963
     ],
     [
      32.63944,
      39.96993
     ],
     [
      32.6394,
      39.97007
     ],
     [
      32.63895,
      39.97033
     ],
     [
      32.63884,
      39.97031
     ],
     [
      32.63854,
      39.97
     ],
     [
      32.63823,
      39.96969
     ]
    ]
   ],
   [
    [
     [
      32.63791,
      39.97079
     ],
     [
      32.63777,
      39.97088
     ],
     [
      32.63786,
      39.97096
     ],
     [
      32.6375,
      39.97117
     ],
     [
      32.63736,
      39.97115
     ],
     [
      32.63671,
      39.97052
     ],
     [
      32.63731,
      39.97019
     ],
     [
      32.63791,
      39.97079
     ]
    ]
   ],
   [
    [
     [
      32.64214,
      39.97146
     ],
     [
      32.64151,
      39.97181
     ],
     [
      32.64138,
      39.9718
     ],
     [
      32.64088,
      39.97129
     ],
     [
      32.64163,
      39.9709
     ],
     [
      32.64176,
      39.97094
     ],
     [
      32.64215,
      39.97137
     ],
     [
      32.64214,
      39.97146
     ]
    ]
   ],
   [
    [
     [
      32.64075,
      39.97114
     ],
     [
      32.6403,
      39.97067
     ],
     [
      32.6407,
      39.97045
     ],
     [
      32.64111,
      39.97023
     ],
     [
      32.64152,
      39.97068
     ],
     [
      32.6415,
      39.97075
     ],
     [
      32.64075,
      39.97114
     ]
    ]
   ],
   [
    [
     [
      32.64104,
      39.97016
     ],
     [
      32.64028,
      39.97057
     ],
     [
      32.63979,
      39.97006
     ],
     [
      32.63981,
      39.97001
     ],
     [
      32.64047,
      39.96962
     ],
     [
      32.64058,
      39.96965
     ],
     [
      32.64104,
      39.97016
     ]
    ]
   ],
   [
    [
     [
      32.64009,
      39.97068
     ],
     [
      32.63961,
      39.97093
     ],
     [
      32.63913,
      39.97119
     ],
     [
      32.63865,
      39.97067
     ],
     [
      32.63907,
      39.97043
     ],
     [
      32.63953,
      39.97016
     ],
     [
      32.6396,
      39.97017
     ],
     [
      32.64009,
      39.97068
     ]
    ]
   ]
  ]
 }
}