{"type": "Feature", "properties": {"isim": "Aktürk Blokları", "kaynak": "TKGM Parsel Sorgu (CBS) verisine dayalıdır; bilgilendirme amaçlıdır, resmi kadastro belgesi yerine geçmez.", "adalar": ["17314/1", "17315/1", "17533/1", "17534/1", "17535/1", "17536/1", "17537/1"]}, "geometry": {"type": "MultiPolygon", "coordinates": [[[[32.63709, 39.97235], [32.63637, 39.97236], [32.63642, 39.97081], [32.63645, 39.97067], [32.63652, 39.97063], [32.63714, 39.97123], [32.63717, 39.97229], [32.63709, 39.97235]]], [[[32.63782, 39.97115], [32.63784, 39.972], [32.63789, 39.97205], [32.63853, 39.97272], [32.63773, 39.97319], [32.63755, 39.97317], [32.63736, 39.97298], [32.63733, 39.97155], [32.63733, 39.97151], [32.63735, 39.97147], [32.63738, 39.97143], [32.63741, 39.97139], [32.63745, 39.97136], [32.63782, 39.97115]]], [[[32.63789, 39.97428], [32.63756, 39.97425], [32.63769, 39.97338], [32.63797, 39.97322], [32.6386, 39.97387], [32.63789, 39.97428]]], [[[32.63929, 39.97346], [32.63869, 39.97381], [32.63837, 39.97349], [32.63806, 39.97316], [32.63861, 39.97284], [32.6387, 39.97285], [32.63899, 39.97314], [32.63929, 39.97346]]], [[[32.64008, 39.97299], [32.63948, 39.97335], [32.63919, 39.97305], [32.63887, 39.97273], [32.63888, 39.97268], [32.63946, 39.97234], [32.63977, 39.97266], [32.64008, 39.97299]]], [[[32.64091, 39.97292], [32.64027, 39.97296], [32.64006, 39.97259], [32.63986, 39.97223], [32.63987, 39.97218], [32.64075, 39.97212], [32.64081, 39.97216], [32.64086, 39.97256], [32.64091, 39.97292]]], [[[32.64209, 39.97265], [32.64175, 39.97286], [32.64114, 39.9729], [32.6411, 39.97254], [32.64105, 39.97215], [32.64109, 39.9721], [32.64151, 39.97208], [32.6418, 39.97237], [32.64209, 39.97265]]]]}}