{
 "type": "Feature",
 "properties": {
  "isim": "Arya Nüans Residence",
  "kaynak": "TKGM Parsel Sorgu (CBS) verisine dayalıdır; bilgilendirme amaçlıdır, resmi kadastro belgesi yerine geçmez.",
  "adalar": [
   "45898/4"
  ]
 },
 "geometry": {
  "type": "MultiPolygon",
  "coordinates": [
   [
    [
     [
      32.64719,
      39.9662
     ],
     [
      32.64652,
      39.96617
     ],
     [
      32.64656,
      39.96534
     ],
     [
      32.64666,
      39.96533
     ],
     [
      32.64722,
      39.9653
     ],
     [
      32.64719,
      39.9662
     ]
    ]
   ]
  ]
 }
}