{
 "type": "Feature",
 "properties": {
  "isim": "Betontaş Blokları",
  "kaynak": "TKGM Parsel Sorgu (CBS) verisine dayalıdır; bilgilendirme amaçlıdır, resmi kadastro belgesi yerine geçmez.",
  "adalar": [
   "17516/1",
   "17517/1",
   "17518/1",
   "17519/1",
   "17520/2",
   "17521/1",
   "17522/1",
   "17523/1"
  ]
 },
 "geometry": {
  "type": "MultiPolygon",
  "coordinates": [
   [
    [
     [
      32.64666,
      39.97009
     ],
     [
      32.64609,
      39.97015
     ],
     [
      32.64552,
      39.9702
     ],
     [
      32.64542,
      39.96958
     ],
     [
      32.646,
      39.96953
     ],
     [
      32.64656,
      39.96949
     ],
     [
      32.64666,
      39.97009
     ]
    ]
   ],
   [
    [
     [
      32.64653,
      39.96931
     ],
     [
      32.64596,
      39.96936
     ],
     [
      32.6454,
      39.9694
     ],
     [
      32.64531,
      39.96883
     ],
     [
      32.64586,
      39.96878
     ],
     [
      32.64643,
      39.96873
     ],
     [
      32.64653,
      39.96931
     ]
    ]
   ],
   [
    [
     [
      32.64642,
      39.96867
     ],
     [
      32.64586,
      39.96872
     ],
     [
      32.6453,
      39.96877
     ],
     [
      32.64521,
      39.9682
     ],
     [
      32.64527,
      39.96815
     ],
     [
      32.64579,
      39.9681
     ],
     [
      32.64631,
      39.96806
     ],
     [
      32.64642,
      39.96867
     ]
    ]
   ],
   [
    [
     [
      32.64628,
      39.96788
     ],
     [
      32.64576,
      39.96792
     ],
     [
      32.64523,
      39.96797
     ],
     [
      32.64517,
      39.96793
     ],
     [
      32.6451,
      39.9675
     ],
     [
      32.64559,
      39.96734
     ],
     [
      32.64608,
      39.96717
     ],
     [
      32.64619,
      39.96734
     ],
     [
      32.64628,
      39.96788
     ]
    ]
   ],
   [
    [
     [
      32.64501,
      39.9673
     ],
     [
      32.64481,
      39.9673
     ],
     [
      32.64481,
      39.96661
     ],
     [
      32.64571,
      39.9666
     ],
     [
      32.64603,
      39.96709
     ],
     [
      32.64504,
      39.96743
     ],
     [
      32.64501,
      39.96743
     ],
     [
      32.64501,
      39.9673
     ]
    ]
   ],
   [
    [
     [
      32.64458,
      39.9674
     ],
     [
      32.64453,
      39.96743
     ],
     [
      32.64416,
      39.96746
     ],
     [
      32.64386,
      39.96712
     ],
     [
      32.64356,
      39.96678
     ],
     [
      32.64385,
      39.96662
     ],
     [
      32.64457,
      39.96661
     ],
     [
      32.64458,
      39.96702
     ],
     [
      32.64458,
      39.9674
     ]
    ]
   ],
   [
    [
     [
      32.64403,
      39.96754
     ],
     [
      32.64345,
      39.96785
     ],
     [
      32.64337,
      39.96784
     ],
     [
      32.64278,
      39.9672
     ],
     [
      32.64341,
      39.96686
     ],
     [
      32.64373,
      39.96721
     ],
     [
      32.64403,
      39.96754
     ]
    ]
   ],
   [
    [
     [
      32.64317,
      39.96793
     ],
     [
      32.64314,
      39.968
     ],
     [
      32.64254,
      39.96832
     ],
     [
      32.64223,
      39.96799
     ],
     [
      32.64194,
      39.96767
     ],
     [
      32.64259,
      39.96731
     ],
     [
      32.64294,
      39.96763
     ],
     [
      32.64317,
      39.96793
     ]
    ]
   ]
  ]
 }
}
