{
 "type": "Feature",
 "properties": {
  "isim": "Mesa Blokları",
  "kaynak": "TKGM Parsel Sorgu (CBS) verisine dayalıdır; bilgilendirme amaçlıdır, resmi kadastro belgesi yerine geçmez.",
  "adalar": [
   "17312/1",
   "17524/1",
   "17527/1"
  ]
 },
 "geometry": {
  "type": "MultiPolygon",
  "coordinates": [
   [
    [
     [
      32.64175,
      39.96895
     ],
     [
      32.64247,
      39.96858
     ],
     [
      32.64257,
      39.96859
     ],
     [
      32.64358,
      39.96968
     ],
     [
      32.64276,
      39.9701
     ],
     [
      32.64175,
      39.96895
     ]
    ]
   ],
   [
    [
     [
      32.64239,
      39.9684
     ],
     [
      32.64161,
      39.9688
     ],
     [
      32.6412,
      39.96833
     ],
     [
      32.64136,
      39.96798
     ],
     [
      32.64179,
      39.96775
     ],
     [
      32.64209,
      39.96807
     ],
     [
      32.64239,
      39.9684
     ]
    ]
   ],
   [
    [
     [
      32.64342,
      39.97073
     ],
     [
      32.64332,
      39.97073
     ],
     [
      32.6429,
      39.97025
     ],
     [
      32.64333,
      39.97003
     ],
     [
      32.64372,
      39.96983
     ],
     [
      32.64412,
      39.97026
     ],
     [
      32.64412,
      39.97034
     ],
     [
      32.64342,
      39.97073
     ]
    ]
   ]
  ]
 }
}