{
 "type": "Feature",
 "properties": {
  "isim": "Sutek Blokları",
  "kaynak": "TKGM Parsel Sorgu (CBS) verisine dayalıdır; bilgilendirme amaçlıdır, resmi kadastro belgesi yerine geçmez.",
  "adalar": [
   "17541/1",
   "17539/1",
   "17540/1",
   "17542/2",
   "17543/1"
  ]
 },
 "geometry": {
  "type": "MultiPolygon",
  "coordinates": [
   [
    [
     [
      32.64252,
      39.97023
     ],
     [
      32.64179,
      39.9706
     ],
     [
      32.64166,
      39.9706
     ],
     [
      32.64126,
      39.97016
     ],
     [
      32.64207,
      39.96972
     ],
     [
      32.64252,
      39.97023
     ]
    ]
   ],
   [
    [
     [
      32.64377,
      39.97164
     ],
     [
      32.64309,
      39.97205
     ],
     [
      32.64279,
      39.97176
     ],
     [
      32.6425,
      39.97146
     ],
     [
      32.64251,
      39.97142
     ],
     [
      32.64312,
      39.97107
     ],
     [
      32.64328,
      39.97108
     ],
     [
      32.64377,
      39.97164
     ]
    ]
   ],
   [
    [
     [
      32.64303,
      39.97096
     ],
     [
      32.64242,
      39.9713
     ],
     [
      32.64229,
      39.97128
     ],
     [
      32.6419,
      39.97087
     ],
     [
      32.64192,
      39.97075
     ],
     [
      32.64265,
      39.97038
     ],
     [
      32.64306,
      39.97084
     ],
     [
      32.64303,
      39.97096
     ]
    ]
   ],
   [
    [
     [
      32.64201,
      39.96964
     ],
     [
      32.64119,
      39.97008
     ],
     [
      32.64078,
      39.96964
     ],
     [
      32.64092,
      39.96957
     ],
     [
      32.64081,
      39.96944
     ],
     [
      32.6415,
      39.96908
     ],
     [
      32.64201,
      39.96964
     ]
    ]
   ],
   [
    [
     [
      32.64059,
      39.96933
     ],
     [
      32.64049,
      39.96932
     ],
     [
      32.63996,
      39.96874
     ],
     [
      32.64045,
      39.96848
     ],
     [
      32.64096,
      39.96846
     ],
     [
      32.64137,
      39.96893
     ],
     [
      32.64098,
      39.96913
     ],
     [
      32.64059,
      39.96933
     ]
    ]
   ]
  ]
 }
}