{
 "type": "Feature",
 "properties": {
  "isim": "Akasya Evleri",
  "kaynak": "TKGM Parsel Sorgu (CBS) verisine dayalıdır; bilgilendirme amaçlıdır, resmi kadastro belgesi yerine geçmez.",
  "adalar": [
   "45793/15"
  ]
 },
 "geometry": {
  "type": "MultiPolygon",
  "coordinates": [
   [
    [
     [
      32.61788,
      39.97418
     ],
     [
      32.618,
      39.97407
     ],
     [
      32.61811,
      39.97397
     ],
     [
      32.61822,
      39.97386
     ],
     [
      32.61834,
      39.97376
     ],
     [
      32.61845,
      39.97366
     ],
     [
      32.61856,
      39.97355
     ],
     [
      32.61879,
      39.97335
     ],
     [
      32.619,
      39.97354
     ],
     [
      32.61921,
      39.97373
     ],
     [
      32.61921,
      39.97387
     ],
     [
      32.61914,
      39.97393
     ],
     [
      32.61903,
      39.97403
     ],
     [
      32.61892,
      39.97414
     ],
     [
      32.6188,
      39.97424
     ],
     [
      32.61869,
      39.97434
     ],
     [
      32.61858,
      39.97445
     ],
     [
      32.61842,
      39.97459
     ],
     [
      32.61811,
      39.97436
     ],
     [
      32.61788,
      39.97418
     ]
    ]
   ]
  ]
 }
}