{
 "type": "Feature",
 "properties": {
  "isim": "Akkonaklar Sitesi",
  "kaynak": "TKGM Parsel Sorgu (CBS) verisine dayalıdır; bilgilendirme amaçlıdır, resmi kadastro belgesi yerine geçmez.",
  "adalar": [
   "46532/1"
  ]
 },
 "geometry": {
  "type": "MultiPolygon",
  "coordinates": [
   [
    [
     [
      32.61999,
      39.97665
     ],
     [
      32.62043,
      39.97571
     ],
     [
      32.62068,
      39.97565
     ],
     [
      32.62208,
      39.97598
     ],
     [
      32.62216,
      39.976
     ],
     [
      32.62222,
      39.97603
     ],
     [
      32.62264,
      39.97627
     ],
     [
      32.62267,
      39.97629
     ],
     [
      32.62268,
      39.97632
     ],
     [
      32.62268,
      39.97635
     ],
     [
      32.62183,
      39.97741
     ],
     [
      32.62178,
      39.97743
     ],
     [
      32.62175,
      39.97742
     ],
     [
      32.62164,
      39.97737
     ],
     [
      32.6215,
      39.97729
     ],
     [
      32.62133,
      39.9772
     ],
     [
      32.62113,
      39.9771
     ],
     [
      32.62087,
      39.97699
     ],
     [
      32.62065,
      39.97689
     ],
     [
      32.62038,
      39.97678
     ],
     [
      32.61999,
      39.97665
     ]
    ]
   ]
  ]
 }
}
