{"type": "Feature", "properties": {"isim": "ASM Gold Konutları (Urhal Sitesi)", "kaynak": "TKGM Parsel Sorgu (CBS) verisine dayalıdır; bilgilendirme amaçlıdır, resmi kadastro belgesi yerine geçmez.", "adalar": ["45926/2", "45926/3"]}, "geometry": {"type": "MultiPolygon", "coordinates": [[[[32.60924, 39.97241], [32.60984, 39.97241], [32.60983, 39.97286], [32.60968, 39.97295], [32.60922, 39.97294], [32.60924, 39.97241]]], [[[32.60863, 39.9724], [32.60863, 39.97238], [32.60865, 39.97183], [32.60995, 39.9722], [32.6099, 39.97225], [32.60986, 39.97232], [32.60984, 39.97239], [32.60984, 39.97241], [32.60924, 39.97241], [32.60863, 39.9724]]]]}}