{
 "type": "Feature",
 "properties": {
  "isim": "Atakent 1 Aşiyan Sitesi",
  "kaynak": "TKGM Parsel Sorgu (CBS) verisine dayalıdır; bilgilendirme amaçlıdır, resmi kadastro belgesi yerine geçmez.",
  "adalar": [
   "46534/2"
  ]
 },
 "geometry": {
  "type": "MultiPolygon",
  "coordinates": [
   [
    [
     [
      32.62761,
      39.97754
     ],
     [
      32.62753,
      39.97754
     ],
     [
      32.62748,
      39.97749
     ],
     [
      32.62713,
      39.97677
     ],
     [
      32.627,
      39.97634
     ],
     [
      32.62697,
      39.97625
     ],
     [
      32.62693,
      39.9761
     ],
     [
      32.6269,
      39.97598
     ],
     [
      32.62689,
      39.97587
     ],
     [
      32.62689,
      39.97576
     ],
     [
      32.62689,
      39.97566
     ],
     [
      32.6269,
      39.97555
     ],
     [
      32.62692,
      39.97544
     ],
     [
      32.62701,
      39.97522
     ],
     [
      32.62705,
      39.97509
     ],
     [
      32.6271,
      39.97507
     ],
     [
      32.62714,
      39.97506
     ],
     [
      32.62799,
      39.97531
     ],
     [
      32.62803,
      39.97533
     ],
     [
      32.62806,
      39.97536
     ],
     [
      32.62807,
      39.97541
     ],
     [
      32.62807,
      39.97546
     ],
     [
      32.62807,
      39.97551
     ],
     [
      32.62808,
      39.97555
     ],
     [
      32.62811,
      39.9756
     ],
     [
      32.62833,
      39.97601
     ],
     [
      32.62842,
      39.97608
     ],
     [
      32.62851,
      39.97614
     ],
     [
      32.62848,
      39.97619
     ],
     [
      32.62856,
      39.97622
     ],
     [
      32.62859,
      39.97616
     ],
     [
      32.62862,
      39.97617
     ],
     [
      32.62872,
      39.97619
     ],
     [
      32.62884,
      39.9762
     ],
     [
      32.62895,
      39.9762
     ],
     [
      32.63004,
      39.97611
     ],
     [
      32.63008,
      39.97612
     ],
     [
      32.63012,
      39.97614
     ],
     [
      32.63014,
      39.97617
     ],
     [
      32.63046,
      39.97694
     ],
     [
      32.63044,
      39.97698
     ],
     [
      32.63022,
      39.97701
     ],
     [
      32.62998,
      39.97706
     ],
     [
      32.62761,
      39.97754
     ]
    ]
   ]
  ]
 }
}