{
 "type": "Feature",
 "properties": {
  "isim": "Atakent Vadi Sitesi",
  "kaynak": "TKGM Parsel Sorgu (CBS) verisine dayalıdır; bilgilendirme amaçlıdır, resmi kadastro belgesi yerine geçmez.",
  "adalar": [
   "46535/2"
  ]
 },
 "geometry": {
  "type": "MultiPolygon",
  "coordinates": [
   [
    [
     [
      32.63301,
      39.97492
     ],
     [
      32.63303,
      39.97496
     ],
     [
      32.63355,
      39.97675
     ],
     [
      32.63342,
      39.97688
     ],
     [
      32.63339,
      39.97689
     ],
     [
      32.63336,
      39.97689
     ],
     [
      32.63153,
      39.97653
     ],
     [
      32.63138,
      39.97651
     ],
     [
      32.63129,
      39.97648
     ],
     [
      32.63122,
      39.97645
     ],
     [
      32.63116,
      39.97643
     ],
     [
      32.63109,
      39.9764
     ],
     [
      32.63104,
      39.97636
     ],
     [
      32.63099,
      39.97632
     ],
     [
      32.63097,
      39.97627
     ],
     [
      32.63075,
      39.97582
     ],
     [
      32.63055,
      39.97538
     ],
     [
      32.63055,
      39.97535
     ],
     [
      32.63059,
      39.97532
     ],
     [
      32.63292,
      39.97488
     ],
     [
      32.63296,
      39.9749
     ],
     [
      32.63301,
      39.97492
     ]
    ],
    [
     [
      32.63287,
      39.97491
     ],
     [
      32.63297,
      39.97494
     ],
     [
      32.63294,
      39.97499
     ],
     [
      32.63284,
      39.97497
     ],
     [
      32.63287,
      39.97491
     ]
    ]
   ]
  ]
 }
}
