{
 "type": "Feature",
 "properties": {
  "isim": "Beyaz Residence",
  "kaynak": "TKGM Parsel Sorgu (CBS) verisine dayalıdır; bilgilendirme amaçlıdır, resmi kadastro belgesi yerine geçmez.",
  "adalar": [
   "45794/15"
  ]
 },
 "geometry": {
  "type": "MultiPolygon",
  "coordinates": [
   [
    [
     [
      32.6203,
      39.97287
     ],
     [
      32.62018,
      39.97298
     ],
     [
      32.62006,
      39.97309
     ],
     [
      32.61995,
      39.97319
     ],
     [
      32.61983,
      39.9733
     ],
     [
      32.61971,
      39.97341
     ],
     [
      32.61938,
      39.97319
     ],
     [
      32.61915,
      39.97304
     ],
     [
      32.61928,
      39.97293
     ],
     [
      32.61941,
      39.97282
     ],
     [
      32.61954,
      39.97271
     ],
     [
      32.61965,
      39.97261
     ],
     [
      32.61979,
      39.97249
     ],
     [
      32.62001,
      39.97266
     ],
     [
      32.6203,
      39.97287
     ]
    ]
   ]
  ]
 }
}
