{
 "type": "Feature",
 "properties": {
  "isim": "Doğakent Konutları",
  "kaynak": "TKGM Parsel Sorgu (CBS) verisine dayalıdır; bilgilendirme amaçlıdır, resmi kadastro belgesi yerine geçmez.",
  "adalar": [
   "48298/1"
  ]
 },
 "geometry": {
  "type": "MultiPolygon",
  "coordinates": [
   [
    [
     [
      32.62587,
      39.96906
     ],
     [
      32.62578,
      39.9687
     ],
     [
      32.62576,
      39.96862
     ],
     [
      32.62575,
      39.96853
     ],
     [
      32.62574,
      39.96848
     ],
     [
      32.62575,
      39.96846
     ],
     [
      32.62576,
      39.96841
     ],
     [
      32.62581,
      39.96835
     ],
     [
      32.62583,
      39.96833
     ],
     [
      32.62586,
      39.96831
     ],
     [
      32.6259,
      39.96829
     ],
     [
      32.62641,
      39.96807
     ],
     [
      32.62649,
      39.96804
     ],
     [
      32.62671,
      39.96796
     ],
     [
      32.62682,
      39.96792
     ],
     [
      32.62689,
      39.9679
     ],
     [
      32.62722,
      39.96781
     ],
     [
      32.62866,
      39.96796
     ],
     [
      32.62922,
      39.96874
     ],
     [
      32.62915,
      39.96875
     ],
     [
      32.62595,
      39.9691
     ],
     [
      32.62587,
      39.96906
     ]
    ]
   ]
  ]
 }
}
