{
 "type": "Feature",
 "properties": {
  "isim": "Elif Özgen Sitesi",
  "kaynak": "TKGM Parsel Sorgu (CBS) verisine dayalıdır; bilgilendirme amaçlıdır, resmi kadastro belgesi yerine geçmez.",
  "adalar": [
   "48297/1"
  ]
 },
 "geometry": {
  "type": "MultiPolygon",
  "coordinates": [
   [
    [
     [
      32.62375,
      39.96939
     ],
     [
      32.62356,
      39.96878
     ],
     [
      32.62356,
      39.96876
     ],
     [
      32.62362,
      39.96876
     ],
     [
      32.62383,
      39.96874
     ],
     [
      32.6239,
      39.96874
     ],
     [
      32.62413,
      39.9687
     ],
     [
      32.62425,
      39.96868
     ],
     [
      32.62436,
      39.96866
     ],
     [
      32.62446,
      39.96862
     ],
     [
      32.62458,
      39.96858
     ],
     [
      32.62473,
      39.96854
     ],
     [
      32.62484,
      39.96852
     ],
     [
      32.62496,
      39.9685
     ],
     [
      32.62508,
      39.96851
     ],
     [
      32.62517,
      39.96854
     ],
     [
      32.62524,
      39.96858
     ],
     [
      32.6253,
      39.96862
     ],
     [
      32.62536,
      39.96868
     ],
     [
      32.6254,
      39.96874
     ],
     [
      32.62543,
      39.9688
     ],
     [
      32.62549,
      39.96903
     ],
     [
      32.62552,
      39.96913
     ],
     [
      32.6239,
      39.96937
     ],
     [
      32.62384,
      39.96937
     ],
     [
      32.62375,
      39.96939
     ]
    ]
   ]
  ]
 }
}
