{
 "type": "Feature",
 "properties": {
  "isim": "Güzel Ankara Evleri Sitesi",
  "kaynak": "TKGM Parsel Sorgu (CBS) verisine dayalıdır; bilgilendirme amaçlıdır, resmi kadastro belgesi yerine geçmez.",
  "adalar": [
   "46540/1"
  ]
 },
 "geometry": {
  "type": "MultiPolygon",
  "coordinates": [
   [
    [
     [
      32.62262,
      39.97164
     ],
     [
      32.62275,
      39.97154
     ],
     [
      32.62289,
      39.97145
     ],
     [
      32.62304,
      39.97136
     ],
     [
      32.62319,
      39.97128
     ],
     [
      32.62339,
      39.97121
     ],
     [
      32.62366,
      39.97111
     ],
     [
      32.62396,
      39.97102
     ],
     [
      32.62401,
      39.97103
     ],
     [
      32.62404,
      39.97105
     ],
     [
      32.62446,
      39.97202
     ],
     [
      32.62446,
      39.97206
     ],
     [
      32.62443,
      39.97208
     ],
     [
      32.62423,
      39.97216
     ],
     [
      32.62406,
      39.97224
     ],
     [
      32.62394,
      39.97232
     ],
     [
      32.62386,
      39.9724
     ],
     [
      32.62301,
      39.97323
     ],
     [
      32.6229,
      39.97331
     ],
     [
      32.62279,
      39.97338
     ],
     [
      32.62275,
      39.97339
     ],
     [
      32.6227,
      39.97337
     ],
     [
      32.62184,
      39.97261
     ],
     [
      32.62182,
      39.97256
     ],
     [
      32.62182,
      39.97253
     ],
     [
      32.62199,
      39.97218
     ],
     [
      32.62203,
      39.97213
     ],
     [
      32.62208,
      39.97208
     ],
     [
      32.62262,
      39.97164
     ]
    ]
   ]
  ]
 }
}
