{"type": "Feature", "properties": {"isim": "İntes Doğakent Konutları", "kaynak": "TKGM Parsel Sorgu (CBS) verisine dayalıdır; bilgilendirme amaçlıdır, resmi kadastro belgesi yerine geçmez.", "adalar": ["16414/1", "16415/1", "16418/1"]}, "geometry": {"type": "MultiPolygon", "coordinates": [[[[32.62755, 39.97051], [32.62756, 39.97127], [32.62654, 39.97123], [32.62634, 39.97064], [32.62755, 39.97051]]], [[[32.62873, 39.97124], [32.6277, 39.97124], [32.62767, 39.97123], [32.62767, 39.97051], [32.62873, 39.97051], [32.62873, 39.97124]]], [[[32.63034, 39.97119], [32.62929, 39.97124], [32.62929, 39.97051], [32.63035, 39.9705], [32.63034, 39.97119]]]]}}