{"type": "Feature", "properties": {"isim": "Kent Konakları Sitesi", "kaynak": "TKGM Parsel Sorgu (CBS) verisine dayalıdır; bilgilendirme amaçlıdır, resmi kadastro belgesi yerine geçmez.", "adalar": ["46531/1"]}, "geometry": {"type": "Polygon", "coordinates": [[[32.61793, 39.97634], [32.61787, 39.97632], [32.61781, 39.97629], [32.61777, 39.97625], [32.6176, 39.976], [32.61759, 39.97596], [32.61761, 39.97591], [32.6178, 39.97565], [32.61798, 39.97549], [32.61839, 39.97512], [32.61842, 39.9751], [32.61847, 39.9751], [32.62001, 39.97553], [32.62005, 39.97557], [32.62005, 39.97559], [32.61954, 39.97667], [32.61951, 39.97669], [32.61946, 39.9767], [32.61939, 39.97669], [32.61793, 39.97634]]]}}