{
 "type": "Feature",
 "properties": {
  "isim": "Oyak 555 Konut Sitesi",
  "kaynak": "TKGM Parsel Sorgu (CBS) verisine dayalıdır; bilgilendirme amaçlıdır, resmi kadastro belgesi yerine geçmez.",
  "adalar": [
   "46523/8"
  ]
 },
 "geometry": {
  "type": "MultiPolygon",
  "coordinates": [
   [
    [
     [
      32.62696,
      39.97948
     ],
     [
      32.62696,
      39.98055
     ],
     [
      32.62695,
      39.98056
     ],
     [
      32.62692,
      39.98054
     ],
     [
      32.62685,
      39.98059
     ],
     [
      32.62689,
      39.98061
     ],
     [
      32.62687,
      39.98062
     ],
     [
      32.62612,
      39.98063
     ],
     [
      32.62574,
      39.98072
     ],
     [
      32.62558,
      39.98082
     ],
     [
      32.62432,
      39.98085
     ],
     [
      32.62432,
      39.98085
     ],
     [
      32.62435,
      39.98082
     ],
     [
      32.62428,
      39.98077
     ],
     [
      32.62425,
      39.98079
     ],
     [
      32.62424,
      39.98079
     ],
     [
      32.62388,
      39.97979
     ],
     [
      32.62379,
      39.97936
     ],
     [
      32.62376,
      39.97895
     ],
     [
      32.62398,
      39.97867
     ],
     [
      32.62438,
      39.97854
     ],
     [
      32.62453,
      39.97856
     ],
     [
      32.62464,
      39.9786
     ],
     [
      32.62464,
      39.97889
     ],
     [
      32.62573,
      39.97933
     ],
     [
      32.62598,
      39.97924
     ],
     [
      32.62614,
      39.97949
     ],
     [
      32.62696,
      39.97948
     ]
    ]
   ]
  ]
 }
}
