{
 "type": "Feature",
 "properties": {
  "isim": "Özgün İpek Sitesi",
  "kaynak": "TKGM Parsel Sorgu (CBS) verisine dayalıdır; bilgilendirme amaçlıdır, resmi kadastro belgesi yerine geçmez.",
  "adalar": [
   "46544/1"
  ]
 },
 "geometry": {
  "type": "MultiPolygon",
  "coordinates": [
   [
    [
     [
      32.62433,
      39.9748
     ],
     [
      32.62467,
      39.97492
     ],
     [
      32.62517,
      39.97485
     ],
     [
      32.62525,
      39.97485
     ],
     [
      32.62603,
      39.975
     ],
     [
      32.62606,
      39.97502
     ],
     [
      32.62608,
      39.97518
     ],
     [
      32.62608,
      39.97535
     ],
     [
      32.62609,
      39.97557
     ],
     [
      32.62612,
      39.97576
     ],
     [
      32.62621,
      39.97618
     ],
     [
      32.6262,
      39.9762
     ],
     [
      32.62616,
      39.97621
     ],
     [
      32.62576,
      39.97621
     ],
     [
      32.62409,
      39.97617
     ],
     [
      32.62397,
      39.97616
     ],
     [
      32.62391,
      39.97614
     ],
     [
      32.62357,
      39.97596
     ],
     [
      32.62355,
      39.97594
     ],
     [
      32.62355,
      39.97591
     ],
     [
      32.62433,
      39.9748
     ]
    ]
   ]
  ]
 }
}
