{"type": "Feature", "properties": {"isim": "Türk Konut Çalışanlar Sitesi", "kaynak": "TKGM Parsel Sorgu (CBS) verisine dayalıdır; bilgilendirme amaçlıdır, resmi kadastro belgesi yerine geçmez.", "adalar": ["46512/9"]}, "geometry": {"type": "Polygon", "coordinates": [[[32.61324, 39.98609], [32.61187, 39.98681], [32.61122, 39.98605], [32.61121, 39.98601], [32.6113, 39.98572], [32.61139, 39.98564], [32.6129, 39.98476], [32.61417, 39.98578], [32.61426, 39.98586], [32.61431, 39.98591], [32.61435, 39.98596], [32.61438, 39.98602], [32.61442, 39.98608], [32.61445, 39.98616], [32.61447, 39.98623], [32.61448, 39.98632], [32.61453, 39.98672], [32.61451, 39.98677], [32.61447, 39.98681], [32.61397, 39.98703], [32.61352, 39.98637], [32.61324, 39.98609]]]}}