{
 "type": "Feature",
 "properties": {
  "isim": "Yeni Yayıklı Sitesi",
  "kaynak": "TKGM Parsel Sorgu (CBS) verisine dayalıdır; bilgilendirme amaçlıdır, resmi kadastro belgesi yerine geçmez.",
  "adalar": [
   "46541/1"
  ]
 },
 "geometry": {
  "type": "MultiPolygon",
  "coordinates": [
   [
    [
     [
      32.62089,
      39.97304
     ],
     [
      32.62102,
      39.97294
     ],
     [
      32.62113,
      39.97287
     ],
     [
      32.62126,
      39.97281
     ],
     [
      32.62138,
      39.97276
     ],
     [
      32.6215,
      39.97271
     ],
     [
      32.62156,
      39.97272
     ],
     [
      32.6216,
      39.97274
     ],
     [
      32.62252,
      39.97354
     ],
     [
      32.62252,
      39.97359
     ],
     [
      32.62249,
      39.97362
     ],
     [
      32.62137,
      39.97437
     ],
     [
      32.62132,
      39.97438
     ],
     [
      32.62129,
      39.97437
     ],
     [
      32.62023,
      39.97367
     ],
     [
      32.62089,
      39.97304
     ]
    ]
   ]
  ]
 }
}
