{
 "type": "Feature",
 "properties": {
  "isim": "Dastarlı Sitesi",
  "kaynak": "TKGM Parsel Sorgu (CBS) verisine dayalıdır; bilgilendirme amaçlıdır, resmi kadastro belgesi yerine geçmez.",
  "adalar": [
   "46519/1"
  ],
  "paylasimli": true
 },
 "geometry": {
  "type": "MultiPolygon",
  "coordinates": [
   [
    [
     [
      32.61715,
      39.97676
     ],
     [
      32.61748,
      39.97668
     ],
     [
      32.61758,
      39.97666
     ],
     [
      32.61769,
      39.97665
     ],
     [
      32.6178,
      39.97666
     ],
     [
      32.61794,
      39.97668
     ],
     [
      32.61804,
      39.9767
     ],
     [
      32.61973,
      39.97711
     ],
     [
      32.61977,
      39.97715
     ],
     [
      32.61975,
      39.97726
     ],
     [
      32.61936,
      39.97786
     ],
     [
      32.61741,
      39.97765
     ],
     [
      32.61723,
      39.97732
     ],
     [
      32.6172,
      39.97725
     ],
     [
      32.61719,
      39.97718
     ],
     [
      32.61715,
      39.97676
     ]
    ]
   ]
  ]
 }
}