{
 "type": "Feature",
 "properties": {
  "isim": "Mavi Köy Sitesi",
  "kaynak": "TKGM Parsel Sorgu (CBS) verisine dayalıdır; bilgilendirme amaçlıdır, resmi kadastro belgesi yerine geçmez.",
  "adalar": [
   "18689/1"
  ]
 },
 "geometry": {
  "type": "MultiPolygon",
  "coordinates": [
   [
    [
     [
      32.60776,
      39.97896
     ],
     [
      32.60682,
      39.97891
     ],
     [
      32.60682,
      39.97752
     ],
     [
      32.60776,
      39.97752
     ],
     [
      32.60776,
      39.97896
     ]
    ]
   ]
  ]
 }
}