{
 "type": "Feature",
 "properties": {
  "isim": "Sedirkent Sitesi",
  "kaynak": "TKGM Parsel Sorgu (CBS) verisine dayalıdır; bilgilendirme amaçlıdır, resmi kadastro belgesi yerine geçmez.",
  "adalar": [
   "46518/1"
  ],
  "paylasimli": true
 },
 "geometry": {
  "type": "MultiPolygon",
  "coordinates": [
   [
    [
     [
      32.62226,
      39.97889
     ],
     [
      32.62224,
      39.97892
     ],
     [
      32.62165,
      39.97922
     ],
     [
      32.62117,
      39.9793
     ],
     [
      32.61988,
      39.9782
     ],
     [
      32.6197,
      39.97809
     ],
     [
      32.61969,
      39.97805
     ],
     [
      32.62009,
      39.97745
     ],
     [
      32.62016,
      39.97743
     ],
     [
      32.62058,
      39.97762
     ],
     [
      32.62076,
      39.97772
     ],
     [
      32.62093,
      39.97781
     ],
     [
      32.62109,
      39.9779
     ],
     [
      32.62125,
      39.97799
     ],
     [
      32.62141,
      39.9781
     ],
     [
      32.62158,
      39.97821
     ],
     [
      32.62172,
      39.97833
     ],
     [
      32.62183,
      39.97842
     ],
     [
      32.62196,
      39.97855
     ],
     [
      32.62226,
      39.97889
     ]
    ]
   ]
  ]
 }
}