{
 "type": "Feature",
 "properties": {
  "isim": "Tes-İş Blokları",
  "kaynak": "TKGM Parsel Sorgu (CBS) verisine dayalıdır; bilgilendirme amaçlıdır, resmi kadastro belgesi yerine geçmez.",
  "adalar": [
   "46520/1"
  ],
  "paylasimli": true
 },
 "geometry": {
  "type": "MultiPolygon",
  "coordinates": [
   [
    [
     [
      32.61463,
      39.97649
     ],
     [
      32.61528,
      39.97647
     ],
     [
      32.61548,
      39.97648
     ],
     [
      32.61582,
      39.9765
     ],
     [
      32.61602,
      39.97653
     ],
     [
      32.61661,
      39.97667
     ],
     [
      32.61661,
      39.97678
     ],
     [
      32.61661,
      39.97687
     ],
     [
      32.61663,
      39.97699
     ],
     [
      32.61665,
      39.97707
     ],
     [
      32.61667,
      39.97715
     ],
     [
      32.61674,
      39.97733
     ],
     [
      32.61679,
      39.97745
     ],
     [
      32.61688,
      39.97762
     ],
     [
      32.61697,
      39.97778
     ],
     [
      32.61709,
      39.97796
     ],
     [
      32.61715,
      39.97806
     ],
     [
      32.61713,
      39.97809
     ],
     [
      32.61524,
      39.97876
     ],
     [
      32.61519,
      39.97875
     ],
     [
      32.61469,
      39.97812
     ],
     [
      32.61466,
      39.97805
     ],
     [
      32.61465,
      39.97798
     ],
     [
      32.61463,
      39.97649
     ]
    ]
   ]
  ]
 }
}