{
 "type": "Feature",
 "properties": {
  "isim": "Akkonak Sitesi",
  "kaynak": "TKGM Parsel Sorgu (CBS) verisine dayalıdır; bilgilendirme amaçlıdır, resmi kadastro belgesi yerine geçmez.",
  "adalar": [
   "18466/1"
  ]
 },
 "geometry": {
  "type": "MultiPolygon",
  "coordinates": [
   [
    [
     [
      32.61654,
      39.99261
     ],
     [
      32.61724,
      39.99283
     ],
     [
      32.61728,
      39.99289
     ],
     [
      32.61699,
      39.99344
     ],
     [
      32.61692,
      39.99346
     ],
     [
      32.61621,
      39.99324
     ],
     [
      32.61654,
      39.99261
     ]
    ]
   ]
  ]
 }
}
