{
 "type": "Feature",
 "properties": {
  "isim": "Anadolu Sitesi",
  "kaynak": "TKGM Parsel Sorgu (CBS) verisine dayalıdır; bilgilendirme amaçlıdır, resmi kadastro belgesi yerine geçmez.",
  "adalar": [
   "18493/1"
  ]
 },
 "geometry": {
  "type": "MultiPolygon",
  "coordinates": [
   [
    [
     [
      32.61429,
      39.99274
     ],
     [
      32.61412,
      39.9927
     ],
     [
      32.61387,
      39.99269
     ],
     [
      32.61378,
      39.99262
     ],
     [
      32.61377,
      39.99217
     ],
     [
      32.61388,
      39.99209
     ],
     [
      32.61387,
      39.99204
     ],
     [
      32.61396,
      39.99197
     ],
     [
      32.61413,
      39.99192
     ],
     [
      32.6143,
      39.99192
     ],
     [
      32.61437,
      39.99202
     ],
     [
      32.6142,
      39.99239
     ],
     [
      32.61423,
      39.99246
     ],
     [
      32.61435,
      39.9925
     ],
     [
      32.61438,
      39.99256
     ],
     [
      32.61429,
      39.99274
     ]
    ]
   ]
  ]
 }
}