{
 "type": "Feature",
 "properties": {
  "isim": "Çağdaş Sistem Sitesi",
  "kaynak": "TKGM Parsel Sorgu (CBS) verisine dayalıdır; bilgilendirme amaçlıdır, resmi kadastro belgesi yerine geçmez.",
  "adalar": [
   "18472/1"
  ]
 },
 "geometry": {
  "type": "MultiPolygon",
  "coordinates": [
   [
    [
     [
      32.61847,
      39.99329
     ],
     [
      32.6177,
      39.99305
     ],
     [
      32.61762,
      39.99308
     ],
     [
      32.61744,
      39.99296
     ],
     [
      32.61763,
      39.99261
     ],
     [
      32.61767,
      39.99257
     ],
     [
      32.61772,
      39.99255
     ],
     [
      32.61778,
      39.99254
     ],
     [
      32.61784,
      39.99254
     ],
     [
      32.61789,
      39.99254
     ],
     [
      32.61868,
      39.99282
     ],
     [
      32.61871,
      39.99288
     ],
     [
      32.61847,
      39.99329
     ]
    ]
   ]
  ]
 }
}