{"type": "Feature", "properties": {"isim": "Eczacılar Sitesi", "kaynak": "TKGM Parsel Sorgu (CBS) verisine dayalıdır; bilgilendirme amaçlıdır, resmi kadastro belgesi yerine geçmez.", "adalar": ["19516/6"]}, "geometry": {"type": "Polygon", "coordinates": [[[32.60449, 39.99601], [32.60397, 39.99629], [32.60338, 39.99566], [32.60326, 39.99564], [32.60318, 39.99562], [32.60316, 39.99562], [32.60292, 39.99551], [32.60313, 39.99526], [32.60333, 39.99514], [32.60346, 39.99526], [32.60351, 39.9953], [32.60353, 39.99532], [32.60357, 39.99535], [32.60362, 39.99537], [32.60367, 39.99539], [32.60372, 39.9954], [32.60377, 39.99541], [32.60383, 39.99542], [32.60388, 39.99542], [32.60394, 39.99541], [32.60396, 39.9954], [32.60397, 39.99546], [32.60449, 39.99601]]]}}