{
 "type": "Feature",
 "properties": {
  "isim": "Er - Ay 3 Sitesi",
  "kaynak": "TKGM Parsel Sorgu (CBS) verisine dayalıdır; bilgilendirme amaçlıdır, resmi kadastro belgesi yerine geçmez.",
  "adalar": [
   "18645/1"
  ]
 },
 "geometry": {
  "type": "MultiPolygon",
  "coordinates": [
   [
    [
     [
      32.60358,
      39.98558
     ],
     [
      32.60261,
      39.98564
     ],
     [
      32.60256,
      39.98563
     ],
     [
      32.60247,
      39.9852
     ],
     [
      32.6025,
      39.98515
     ],
     [
      32.60348,
      39.98509
     ],
     [
      32.60353,
      39.98512
     ],
     [
      32.60358,
      39.98558
     ]
    ]
   ]
  ]
 }
}