{
 "type": "Feature",
 "properties": {
  "isim": "Gördoğu Şen Sitesi",
  "kaynak": "TKGM Parsel Sorgu (CBS) verisine dayalıdır; bilgilendirme amaçlıdır, resmi kadastro belgesi yerine geçmez.",
  "adalar": [
   "18646/1"
  ]
 },
 "geometry": {
  "type": "MultiPolygon",
  "coordinates": [
   [
    [
     [
      32.60448,
      39.98568
     ],
     [
      32.60389,
      39.98587
     ],
     [
      32.60379,
      39.98584
     ],
     [
      32.6037,
      39.98511
     ],
     [
      32.60375,
      39.98507
     ],
     [
      32.60441,
      39.98503
     ],
     [
      32.60448,
      39.98568
     ]
    ]
   ]
  ]
 }
}