{
 "type": "Feature",
 "properties": {
  "isim": "Gözde 91 Sitesi",
  "kaynak": "TKGM Parsel Sorgu (CBS) verisine dayalıdır; bilgilendirme amaçlıdır, resmi kadastro belgesi yerine geçmez.",
  "adalar": [
   "18641/1",
   "18642/1"
  ]
 },
 "geometry": {
  "type": "MultiPolygon",
  "coordinates": [
   [
    [
     [
      32.6058,
      39.98678
     ],
     [
      32.60512,
      39.98707
     ],
     [
      32.60495,
      39.98707
     ],
     [
      32.60459,
      39.98672
     ],
     [
      32.6046,
      39.98668
     ],
     [
      32.60539,
      39.98632
     ],
     [
      32.60546,
      39.98633
     ],
     [
      32.6058,
      39.98678
     ]
    ]
   ],
   [
    [
     [
      32.60515,
      39.98622
     ],
     [
      32.60444,
      39.98654
     ],
     [
      32.60439,
      39.98653
     ],
     [
      32.60395,
      39.98611
     ],
     [
      32.60398,
      39.98604
     ],
     [
      32.60484,
      39.98576
     ],
     [
      32.60515,
      39.98622
     ]
    ]
   ]
  ]
 }
}
