{"type": "Feature", "properties": {"isim": "Mesa Sitesi", "kaynak": "TKGM Parsel Sorgu (CBS) verisine dayalıdır; bilgilendirme amaçlıdır, resmi kadastro belgesi yerine geçmez.", "adalar": ["18659/1", "18660/1", "18661/1", "18662/1"]}, "geometry": {"type": "MultiPolygon", "coordinates": [[[[32.60936, 39.98619], [32.60864, 39.98651], [32.60824, 39.98596], [32.60825, 39.98591], [32.60889, 39.98563], [32.60895, 39.98565], [32.60936, 39.98619]]], [[[32.6099, 39.98595], [32.60951, 39.98613], [32.6091, 39.98557], [32.60912, 39.98553], [32.60917, 39.9855], [32.60921, 39.98547], [32.60925, 39.98543], [32.60928, 39.98539], [32.60932, 39.98538], [32.61005, 39.98556], [32.6099, 39.98595]]], [[[32.61017, 39.98526], [32.61007, 39.98552], [32.60932, 39.98533], [32.60915, 39.98505], [32.60918, 39.985], [32.60988, 39.98476], [32.61017, 39.98526]]], [[[32.60978, 39.98459], [32.60908, 39.98484], [32.60902, 39.98482], [32.60869, 39.98426], [32.60871, 39.98422], [32.60942, 39.98397], [32.60978, 39.98459]]]]}}