{"type": "Feature", "properties": {"isim": "Portakal Çiçeği", "kaynak": "TKGM Parsel Sorgu (CBS) verisine dayalıdır; bilgilendirme amaçlıdır, resmi kadastro belgesi yerine geçmez.", "adalar": ["19517/2"]}, "geometry": {"type": "Polygon", "coordinates": [[[32.60686, 39.99473], [32.60613, 39.99513], [32.60605, 39.99504], [32.60598, 39.99472], [32.60575, 39.99446], [32.60581, 39.99443], [32.60585, 39.9944], [32.60589, 39.99436], [32.60592, 39.99432], [32.60593, 39.99428], [32.60595, 39.99424], [32.60595, 39.9942], [32.60595, 39.99416], [32.60594, 39.99412], [32.60593, 39.99408], [32.60591, 39.99405], [32.60591, 39.99405], [32.6059, 39.99404], [32.6066, 39.99356], [32.60704, 39.99409], [32.60686, 39.99473]]]}}