{
 "type": "Feature",
 "properties": {
  "isim": "Ulaş Sitesi",
  "kaynak": "TKGM Parsel Sorgu (CBS) verisine dayalıdır; bilgilendirme amaçlıdır, resmi kadastro belgesi yerine geçmez.",
  "adalar": [
   "18502/1",
   "18503/1"
  ]
 },
 "geometry": {
  "type": "MultiPolygon",
  "coordinates": [
   [
    [
     [
      32.61179,
      39.98763
     ],
     [
      32.61104,
      39.98801
     ],
     [
      32.61066,
      39.98757
     ],
     [
      32.61067,
      39.98752
     ],
     [
      32.61139,
      39.98715
     ],
     [
      32.61179,
      39.98763
     ]
    ]
   ],
   [
    [
     [
      32.61238,
      39.98832
     ],
     [
      32.61169,
      39.98867
     ],
     [
      32.6116,
      39.98866
     ],
     [
      32.61131,
      39.98832
     ],
     [
      32.61139,
      39.98816
     ],
     [
      32.61199,
      39.98786
     ],
     [
      32.61238,
      39.98832
     ]
    ]
   ]
  ]
 }
}
