{
 "type": "Feature",
 "properties": {
  "isim": "Yenigün Işığı Sitesi",
  "kaynak": "TKGM Parsel Sorgu (CBS) verisine dayalıdır; bilgilendirme amaçlıdır, resmi kadastro belgesi yerine geçmez.",
  "adalar": [
   "18465/1"
  ]
 },
 "geometry": {
  "type": "MultiPolygon",
  "coordinates": [
   [
    [
     [
      32.61658,
      39.99253
     ],
     [
      32.61693,
      39.99187
     ],
     [
      32.61743,
      39.99202
     ],
     [
      32.61754,
      39.99241
     ],
     [
      32.61737,
      39.99273
     ],
     [
      32.6173,
      39.99275
     ],
     [
      32.61658,
      39.99253
     ]
    ]
   ]
  ]
 }
}
