{
 "type": "Feature",
 "properties": {
  "isim": "Doğa Konutları",
  "kaynak": "TKGM Parsel Sorgu (CBS) verisine dayalıdır; bilgilendirme amaçlıdır, resmi kadastro belgesi yerine geçmez.",
  "adalar": [
   "63381/1"
  ]
 },
 "geometry": {
  "type": "MultiPolygon",
  "coordinates": [
   [
    [
     [
      32.64312,
      40.00241
     ],
     [
      32.64346,
      40.00222
     ],
     [
      32.64347,
      40.00221
     ],
     [
      32.64383,
      40.00304
     ],
     [
      32.64376,
      40.00306
     ],
     [
      32.64369,
      40.00309
     ],
     [
      32.64363,
      40.00311
     ],
     [
      32.64356,
      40.00315
     ],
     [
      32.64289,
      40.00256
     ],
     [
      32.64296,
      40.00251
     ],
     [
      32.64299,
      40.00249
     ],
     [
      32.64301,
      40.00247
     ],
     [
      32.64304,
      40.00246
     ],
     [
      32.64307,
      40.00244
     ],
     [
      32.6431,
      40.00242
     ],
     [
      32.64312,
      40.00241
     ]
    ]
   ]
  ]
 }
}