{"type": "Feature", "properties": {"isim": "Eceser Sitesi", "kaynak": "TKGM Parsel Sorgu (CBS) verisine dayalıdır; bilgilendirme amaçlıdır, resmi kadastro belgesi yerine geçmez.", "adalar": ["46453/1"]}, "geometry": {"type": "Polygon", "coordinates": [[[32.6403, 39.99588], [32.6402, 39.99663], [32.64016, 39.99665], [32.6401, 39.99666], [32.63896, 39.99625], [32.63909, 39.99492], [32.6391, 39.99489], [32.63915, 39.99488], [32.64012, 39.9949], [32.64017, 39.99491], [32.64019, 39.99493], [32.6403, 39.99522], [32.6403, 39.99588]]]}}