{
 "type": "Feature",
 "properties": {
  "isim": "Endora Göksu",
  "kaynak": "TKGM Parsel Sorgu (CBS) verisine dayalıdır; bilgilendirme amaçlıdır, resmi kadastro belgesi yerine geçmez.",
  "adalar": [
   "63391/1"
  ]
 },
 "geometry": {
  "type": "MultiPolygon",
  "coordinates": [
   [
    [
     [
      32.63901,
      40.00116
     ],
     [
      32.63901,
      40.00113
     ],
     [
      32.63901,
      40.00107
     ],
     [
      32.63901,
      40.00102
     ],
     [
      32.63901,
      40.00096
     ],
     [
      32.63899,
      40.00091
     ],
     [
      32.63898,
      40.00085
     ],
     [
      32.63896,
      40.0008
     ],
     [
      32.63894,
      40.00074
     ],
     [
      32.63865,
      40.00019
     ],
     [
      32.63873,
      40.00004
     ],
     [
      32.63926,
      39.99992
     ],
     [
      32.64008,
      40.00053
     ],
     [
      32.64023,
      40.00066
     ],
     [
      32.6409,
      40.00121
     ],
     [
      32.64081,
      40.00131
     ],
     [
      32.64071,
      40.00141
     ],
     [
      32.64066,
      40.00148
     ],
     [
      32.64063,
      40.00151
     ],
     [
      32.64054,
      40.00162
     ],
     [
      32.6405,
      40.00168
     ],
     [
      32.64021,
      40.00175
     ],
     [
      32.63914,
      40.00134
     ],
     [
      32.63901,
      40.00116
     ]
    ]
   ]
  ]
 }
}