{
 "type": "Feature",
 "properties": {
  "isim": "Evinora Sitesi",
  "kaynak": "TKGM Parsel Sorgu (CBS) verisine dayalıdır; bilgilendirme amaçlıdır, resmi kadastro belgesi yerine geçmez.",
  "adalar": [
   "63379/5"
  ]
 },
 "geometry": {
  "type": "MultiPolygon",
  "coordinates": [
   [
    [
     [
      32.64737,
      40.00285
     ],
     [
      32.6472,
      40.00234
     ],
     [
      32.64807,
      40.00203
     ],
     [
      32.64819,
      40.00207
     ],
     [
      32.64822,
      40.0022
     ],
     [
      32.64824,
      40.00231
     ],
     [
      32.64825,
      40.00243
     ],
     [
      32.64826,
      40.00254
     ],
     [
      32.64827,
      40.00266
     ],
     [
      32.64827,
      40.00277
     ],
     [
      32.64827,
      40.00289
     ],
     [
      32.64826,
      40.00293
     ],
     [
      32.64741,
      40.00296
     ],
     [
      32.64737,
      40.00285
     ]
    ]
   ]
  ]
 }
}