{
 "type": "Feature",
 "properties": {
  "isim": "Göksu Evleri Sitesi",
  "kaynak": "TKGM Parsel Sorgu (CBS) verisine dayalıdır; bilgilendirme amaçlıdır, resmi kadastro belgesi yerine geçmez.",
  "adalar": [
   "46454/1"
  ]
 },
 "geometry": {
  "type": "MultiPolygon",
  "coordinates": [
   [
    [
     [
      32.64196,
      39.99455
     ],
     [
      32.64212,
      39.99457
     ],
     [
      32.64251,
      39.99466
     ],
     [
      32.64258,
      39.99473
     ],
     [
      32.64313,
      39.99616
     ],
     [
      32.64338,
      39.99697
     ],
     [
      32.64331,
      39.99705
     ],
     [
      32.64234,
      39.99732
     ],
     [
      32.64226,
      39.99729
     ],
     [
      32.64178,
      39.99654
     ],
     [
      32.64175,
      39.99647
     ],
     [
      32.64146,
      39.99466
     ],
     [
      32.64196,
      39.99455
     ]
    ]
   ]
  ]
 }
}