{"type": "Feature", "properties": {"isim": "Göksu Park Vadi Konutları", "kaynak": "TKGM Parsel Sorgu (CBS) verisine dayalıdır; bilgilendirme amaçlıdır, resmi kadastro belgesi yerine geçmez.", "adalar": ["63404/3"]}, "geometry": {"type": "Polygon", "coordinates": [[[32.64609, 40.00084], [32.64605, 40.00085], [32.64601, 40.00084], [32.64597, 40.00084], [32.64593, 40.00083], [32.64589, 40.00082], [32.64586, 40.0008], [32.64583, 40.00078], [32.6458, 40.00076], [32.64578, 40.00073], [32.64576, 40.00071], [32.64558, 40.00042], [32.64673, 39.99982], [32.6474, 40.00057], [32.64749, 40.00067], [32.64609, 40.00084]]]}}