{
 "type": "Feature",
 "properties": {
  "isim": "Göksu Metrokent Sitesi",
  "kaynak": "TKGM Parsel Sorgu (CBS) verisine dayalıdır; bilgilendirme amaçlıdır, resmi kadastro belgesi yerine geçmez.",
  "adalar": [
   "46477/1",
   "46480/1"
  ]
 },
 "geometry": {
  "type": "MultiPolygon",
  "coordinates": [
   [
    [
     [
      32.6458,
      39.98227
     ],
     [
      32.64578,
      39.98088
     ],
     [
      32.64578,
      39.98075
     ],
     [
      32.64801,
      39.98069
     ],
     [
      32.64801,
      39.98105
     ],
     [
      32.64799,
      39.98136
     ],
     [
      32.64771,
      39.98194
     ],
     [
      32.64745,
      39.98224
     ],
     [
      32.64721,
      39.98226
     ],
     [
      32.64658,
      39.98226
     ],
     [
      32.64635,
      39.98226
     ],
     [
      32.6458,
      39.98227
     ]
    ]
   ],
   [
    [
     [
      32.64501,
      39.97979
     ],
     [
      32.64504,
      39.97975
     ],
     [
      32.64699,
      39.97974
     ],
     [
      32.64701,
      39.97977
     ],
     [
      32.64702,
      39.98037
     ],
     [
      32.64501,
      39.98042
     ],
     [
      32.64501,
      39.98035
     ],
     [
      32.64501,
      39.97979
     ]
    ]
   ]
  ]
 }
}