{"type": "Feature", "properties": {"isim": "Gölkent Sitesi", "kaynak": "TKGM Parsel Sorgu (CBS) verisine dayalıdır; bilgilendirme amaçlıdır, resmi kadastro belgesi yerine geçmez.", "adalar": ["46457/1"]}, "geometry": {"type": "Polygon", "coordinates": [[[32.64001, 39.99373], [32.64016, 39.99418], [32.64015, 39.99455], [32.64011, 39.99458], [32.63967, 39.99458], [32.63868, 39.99454], [32.63859, 39.99302], [32.6386, 39.99296], [32.63864, 39.99288], [32.6387, 39.99279], [32.63876, 39.99271], [32.63883, 39.99264], [32.6389, 39.99258], [32.63898, 39.99253], [32.63906, 39.9925], [32.63916, 39.99248], [32.6392, 39.9925], [32.63922, 39.99252], [32.63926, 39.99299], [32.64001, 39.99373]]]}}