{
 "type": "Feature",
 "properties": {
  "isim": "Havacılar Sitesi",
  "kaynak": "TKGM Parsel Sorgu (CBS) verisine dayalıdır; bilgilendirme amaçlıdır, resmi kadastro belgesi yerine geçmez.",
  "adalar": [
   "46455/1",
   "46457/1"
  ]
 },
 "geometry": {
  "type": "MultiPolygon",
  "coordinates": [
   [
    [
     [
      32.642,
      39.99423
     ],
     [
      32.64194,
      39.99418
     ],
     [
      32.64193,
      39.99411
     ],
     [
      32.64194,
      39.99403
     ],
     [
      32.64196,
      39.99395
     ],
     [
      32.64196,
      39.99385
     ],
     [
      32.64195,
      39.99372
     ],
     [
      32.64188,
      39.99324
     ],
     [
      32.64184,
      39.99309
     ],
     [
      32.64184,
      39.99292
     ],
     [
      32.64186,
      39.99279
     ],
     [
      32.64187,
      39.99267
     ],
     [
      32.64192,
      39.99236
     ],
     [
      32.64259,
      39.99189
     ],
     [
      32.64289,
      39.99229
     ],
     [
      32.64297,
      39.99245
     ],
     [
      32.64302,
      39.9926
     ],
     [
      32.64307,
      39.99277
     ],
     [
      32.64311,
      39.9929
     ],
     [
      32.64313,
      39.99303
     ],
     [
      32.64315,
      39.99318
     ],
     [
      32.64315,
      39.99339
     ],
     [
      32.64313,
      39.99357
     ],
     [
      32.64302,
      39.99419
     ],
     [
      32.64294,
      39.99422
     ],
     [
      32.642,
      39.99423
     ]
    ]
   ],
   [
    [
     [
      32.64001,
      39.99373
     ],
     [
      32.64016,
      39.99418
     ],
     [
      32.64015,
      39.99455
     ],
     [
      32.64011,
      39.99458
     ],
     [
      32.63967,
      39.99458
     ],
     [
      32.63868,
      39.99454
     ],
     [
      32.63859,
      39.99302
     ],
     [
      32.6386,
      39.99296
     ],
     [
      32.63864,
      39.99288
     ],
     [
      32.6387,
      39.99279
     ],
     [
      32.63876,
      39.99271
     ],
     [
      32.63883,
      39.99264
     ],
     [
      32.6389,
      39.99258
     ],
     [
      32.63898,
      39.99253
     ],
     [
      32.63906,
      39.9925
     ],
     [
      32.63916,
      39.99248
     ],
     [
      32.6392,
      39.9925
     ],
     [
      32.63922,
      39.99252
     ],
     [
      32.63926,
      39.99299
     ],
     [
      32.64001,
      39.99373
     ]
    ]
   ]
  ]
 }
}
