{
 "type": "Feature",
 "properties": {
  "isim": "Kaşmir Mavi Orkide Sitesi",
  "kaynak": "TKGM Parsel Sorgu (CBS) verisine dayalıdır; bilgilendirme amaçlıdır, resmi kadastro belgesi yerine geçmez.",
  "adalar": [
   "63933/2"
  ]
 },
 "geometry": {
  "type": "MultiPolygon",
  "coordinates": [
   [
    [
     [
      32.64377,
      39.99134
     ],
     [
      32.64342,
      39.99024
     ],
     [
      32.64317,
      39.99028
     ],
     [
      32.64316,
      39.99025
     ],
     [
      32.6418,
      39.9905
     ],
     [
      32.64155,
      39.99024
     ],
     [
      32.64161,
      39.99005
     ],
     [
      32.64371,
      39.98898
     ],
     [
      32.6438,
      39.98899
     ],
     [
      32.64427,
      39.98954
     ],
     [
      32.64429,
      39.98962
     ],
     [
      32.6441,
      39.99021
     ],
     [
      32.64409,
      39.99023
     ],
     [
      32.64409,
      39.99026
     ],
     [
      32.64408,
      39.99028
     ],
     [
      32.64408,
      39.9903
     ],
     [
      32.64408,
      39.99032
     ],
     [
      32.64409,
      39.99034
     ],
     [
      32.64409,
      39.99037
     ],
     [
      32.6441,
      39.99039
     ],
     [
      32.6442,
      39.99068
     ],
     [
      32.64441,
      39.99122
     ],
     [
      32.64377,
      39.99134
     ]
    ]
   ]
  ]
 }
}