{
 "type": "Feature",
 "properties": {
  "isim": "Konum Eryaman",
  "kaynak": "TKGM Parsel Sorgu (CBS) verisine dayalıdır; bilgilendirme amaçlıdır, resmi kadastro belgesi yerine geçmez.",
  "adalar": [
   "63407/2"
  ]
 },
 "geometry": {
  "type": "MultiPolygon",
  "coordinates": [
   [
    [
     [
      32.63971,
      39.99906
     ],
     [
      32.63968,
      39.99969
     ],
     [
      32.63868,
      39.99991
     ],
     [
      32.6385,
      39.99986
     ],
     [
      32.63848,
      39.99979
     ],
     [
      32.63846,
      39.99971
     ],
     [
      32.63844,
      39.99963
     ],
     [
      32.63843,
      39.99955
     ],
     [
      32.63842,
      39.99948
     ],
     [
      32.63842,
      39.9994
     ],
     [
      32.63842,
      39.99932
     ],
     [
      32.63842,
      39.99924
     ],
     [
      32.6385,
      39.9982
     ],
     [
      32.6385,
      39.99818
     ],
     [
      32.63851,
      39.99815
     ],
     [
      32.63853,
      39.99812
     ],
     [
      32.63854,
      39.9981
     ],
     [
      32.63856,
      39.99808
     ],
     [
      32.63859,
      39.99806
     ],
     [
      32.63862,
      39.99804
     ],
     [
      32.63865,
      39.99803
     ],
     [
      32.63868,
      39.99802
     ],
     [
      32.63871,
      39.99801
     ],
     [
      32.63875,
      39.99801
     ],
     [
      32.63878,
      39.99801
     ],
     [
      32.63898,
      39.99802
     ],
     [
      32.63904,
      39.99802
     ],
     [
      32.6391,
      39.99802
     ],
     [
      32.63916,
      39.99801
     ],
     [
      32.63922,
      39.99801
     ],
     [
      32.63927,
      39.998
     ],
     [
      32.63933,
      39.99798
     ],
     [
      32.63939,
      39.99797
     ],
     [
      32.63944,
      39.99795
     ],
     [
      32.63978,
      39.99784
     ],
     [
      32.63973,
      39.99872
     ],
     [
      32.63971,
      39.99906
     ]
    ]
   ]
  ]
 }
}