{
 "type": "Feature",
 "properties": {
  "isim": "Merkez Sitesi",
  "kaynak": "TKGM Parsel Sorgu (CBS) verisine dayalıdır; bilgilendirme amaçlıdır, resmi kadastro belgesi yerine geçmez.",
  "adalar": [
   "46456/1"
  ]
 },
 "geometry": {
  "type": "MultiPolygon",
  "coordinates": [
   [
    [
     [
      32.64107,
      39.99221
     ],
     [
      32.64056,
      39.99257
     ],
     [
      32.64052,
      39.99259
     ],
     [
      32.64047,
      39.99258
     ],
     [
      32.63981,
      39.99241
     ],
     [
      32.63962,
      39.99237
     ],
     [
      32.63946,
      39.99235
     ],
     [
      32.63932,
      39.99233
     ],
     [
      32.63927,
      39.99232
     ],
     [
      32.63925,
      39.9923
     ],
     [
      32.63894,
      39.99127
     ],
     [
      32.63895,
      39.99124
     ],
     [
      32.6406,
      39.99048
     ],
     [
      32.64076,
      39.99042
     ],
     [
      32.64091,
      39.99039
     ],
     [
      32.64124,
      39.99046
     ],
     [
      32.64221,
      39.99145
     ],
     [
      32.64107,
      39.99221
     ]
    ]
   ]
  ]
 }
}
