{
 "type": "Feature",
 "properties": {
  "isim": "Park İnci Konutları",
  "kaynak": "TKGM Parsel Sorgu (CBS) verisine dayalıdır; bilgilendirme amaçlıdır, resmi kadastro belgesi yerine geçmez.",
  "adalar": [
   "46467/1"
  ]
 },
 "geometry": {
  "type": "MultiPolygon",
  "coordinates": [
   [
    [
     [
      32.63988,
      39.98287
     ],
     [
      32.64029,
      39.98366
     ],
     [
      32.64003,
      39.98392
     ],
     [
      32.63967,
      39.98494
     ],
     [
      32.63966,
      39.98496
     ],
     [
      32.63963,
      39.98497
     ],
     [
      32.63837,
      39.98468
     ],
     [
      32.6384,
      39.98455
     ],
     [
      32.63843,
      39.98443
     ],
     [
      32.6385,
      39.98424
     ],
     [
      32.63858,
      39.98406
     ],
     [
      32.63864,
      39.98396
     ],
     [
      32.63904,
      39.98344
     ],
     [
      32.63914,
      39.98333
     ],
     [
      32.63924,
      39.98322
     ],
     [
      32.63939,
      39.98308
     ],
     [
      32.63955,
      39.98296
     ],
     [
      32.6397,
      39.98285
     ],
     [
      32.63975,
      39.98283
     ],
     [
      32.6398,
      39.98283
     ],
     [
      32.63988,
      39.98287
     ]
    ]
   ]
  ]
 }
}
