{
 "type": "Feature",
 "properties": {
  "isim": "SERGöksu Konutları",
  "kaynak": "TKGM Parsel Sorgu (CBS) verisine dayalıdır; bilgilendirme amaçlıdır, resmi kadastro belgesi yerine geçmez.",
  "adalar": [
   "46458/11"
  ]
 },
 "geometry": {
  "type": "MultiPolygon",
  "coordinates": [
   [
    [
     [
      32.63937,
      39.99296
     ],
     [
      32.63934,
      39.99255
     ],
     [
      32.63936,
      39.99252
     ],
     [
      32.63939,
      39.9925
     ],
     [
      32.63945,
      39.99248
     ],
     [
      32.63958,
      39.9925
     ],
     [
      32.63976,
      39.99254
     ],
     [
      32.64007,
      39.99262
     ],
     [
      32.64027,
      39.99267
     ],
     [
      32.64024,
      39.99316
     ],
     [
      32.64004,
      39.99311
     ],
     [
      32.63959,
      39.99317
     ],
     [
      32.63937,
      39.99296
     ]
    ]
   ]
  ]
 }
}