{
 "type": "Feature",
 "properties": {
  "isim": "Seyirtepe Başpınar",
  "kaynak": "TKGM Parsel Sorgu (CBS) verisine dayalıdır; bilgilendirme amaçlıdır, resmi kadastro belgesi yerine geçmez.",
  "adalar": [
   "63400/2"
  ]
 },
 "geometry": {
  "type": "MultiPolygon",
  "coordinates": [
   [
    [
     [
      32.65307,
      40.00139
     ],
     [
      32.65187,
      40.00183
     ],
     [
      32.65151,
      40.001
     ],
     [
      32.65148,
      40.00094
     ],
     [
      32.65146,
      40.00087
     ],
     [
      32.65145,
      40.00081
     ],
     [
      32.65144,
      40.00075
     ],
     [
      32.65143,
      40.00068
     ],
     [
      32.65143,
      40.00062
     ],
     [
      32.65143,
      40.00055
     ],
     [
      32.65144,
      40.00049
     ],
     [
      32.65145,
      40.00042
     ],
     [
      32.65147,
      40.00036
     ],
     [
      32.65149,
      40.0003
     ],
     [
      32.65152,
      40.00024
     ],
     [
      32.65154,
      40.0002
     ],
     [
      32.65243,
      40.00005
     ],
     [
      32.65324,
      40.00103
     ],
     [
      32.65307,
      40.00139
     ]
    ]
   ]
  ]
 }
}