{
 "type": "Feature",
 "properties": {
  "isim": "Utkan Sitesi",
  "kaynak": "TKGM Parsel Sorgu (CBS) verisine dayalıdır; bilgilendirme amaçlıdır, resmi kadastro belgesi yerine geçmez.",
  "adalar": [
   "46456/1",
   "46457/1"
  ]
 },
 "geometry": {
  "type": "MultiPolygon",
  "coordinates": [
   [
    [
     [
      32.64001,
      39.99373
     ],
     [
      32.64016,
      39.99418
     ],
     [
      32.64015,
      39.99455
     ],
     [
      32.64011,
      39.99458
     ],
     [
      32.63967,
      39.99458
     ],
     [
      32.63868,
      39.99454
     ],
     [
      32.63859,
      39.99302
     ],
     [
      32.6386,
      39.99296
     ],
     [
      32.63864,
      39.99288
     ],
     [
      32.6387,
      39.99279
     ],
     [
      32.63876,
      39.99271
     ],
     [
      32.63883,
      39.99264
     ],
     [
      32.6389,
      39.99258
     ],
     [
      32.63898,
      39.99253
     ],
     [
      32.63906,
      39.9925
     ],
     [
      32.63916,
      39.99248
     ],
     [
      32.6392,
      39.9925
     ],
     [
      32.63922,
      39.99252
     ],
     [
      32.63926,
      39.99299
     ],
     [
      32.64001,
      39.99373
     ]
    ]
   ],
   [
    [
     [
      32.64107,
      39.99221
     ],
     [
      32.64056,
      39.99257
     ],
     [
      32.64052,
      39.99259
     ],
     [
      32.64047,
      39.99258
     ],
     [
      32.63981,
      39.99241
     ],
     [
      32.63962,
      39.99237
     ],
     [
      32.63946,
      39.99235
     ],
     [
      32.63932,
      39.99233
     ],
     [
      32.63927,
      39.99232
     ],
     [
      32.63925,
      39.9923
     ],
     [
      32.63894,
      39.99127
     ],
     [
      32.63895,
      39.99124
     ],
     [
      32.6406,
      39.99048
     ],
     [
      32.64076,
      39.99042
     ],
     [
      32.64091,
      39.99039
     ],
     [
      32.64124,
      39.99046
     ],
     [
      32.64221,
      39.99145
     ],
     [
      32.64107,
      39.99221
     ]
    ]
   ]
  ]
 }
}
