{
 "type": "Feature",
 "properties": {
  "isim": "Vaditepe Başpınar",
  "kaynak": "TKGM Parsel Sorgu (CBS) verisine dayalıdır; bilgilendirme amaçlıdır, resmi kadastro belgesi yerine geçmez.",
  "adalar": [
   "63380/1"
  ]
 },
 "geometry": {
  "type": "MultiPolygon",
  "coordinates": [
   [
    [
     [
      32.64502,
      40.00325
     ],
     [
      32.64497,
      40.00321
     ],
     [
      32.64492,
      40.00317
     ],
     [
      32.64487,
      40.00314
     ],
     [
      32.64481,
      40.00311
     ],
     [
      32.64475,
      40.00308
     ],
     [
      32.64468,
      40.00305
     ],
     [
      32.64462,
      40.00303
     ],
     [
      32.64455,
      40.00302
     ],
     [
      32.64448,
      40.003
     ],
     [
      32.64442,
      40.00299
     ],
     [
      32.64435,
      40.00298
     ],
     [
      32.64428,
      40.00298
     ],
     [
      32.64419,
      40.00298
     ],
     [
      32.6442,
      40.00198
     ],
     [
      32.6443,
      40.00197
     ],
     [
      32.64438,
      40.00196
     ],
     [
      32.64447,
      40.00196
     ],
     [
      32.64456,
      40.00196
     ],
     [
      32.64464,
      40.00197
     ],
     [
      32.64473,
      40.00198
     ],
     [
      32.64482,
      40.00199
     ],
     [
      32.6449,
      40.00201
     ],
     [
      32.64499,
      40.00202
     ],
     [
      32.64507,
      40.00205
     ],
     [
      32.64515,
      40.00207
     ],
     [
      32.64523,
      40.0021
     ],
     [
      32.6453,
      40.00213
     ],
     [
      32.64537,
      40.00216
     ],
     [
      32.64545,
      40.0022
     ],
     [
      32.64553,
      40.00224
     ],
     [
      32.6456,
      40.00228
     ],
     [
      32.64567,
      40.00232
     ],
     [
      32.64574,
      40.00237
     ],
     [
      32.64581,
      40.00242
     ],
     [
      32.64587,
      40.00247
     ],
     [
      32.64593,
      40.00253
     ],
     [
      32.64598,
      40.00259
     ],
     [
      32.64603,
      40.00265
     ],
     [
      32.64608,
      40.00271
     ],
     [
      32.64612,
      40.00277
     ],
     [
      32.64616,
      40.00283
     ],
     [
      32.64619,
      40.00288
     ],
     [
      32.6462,
      40.0029
     ],
     [
      32.6462,
      40.00291
     ],
     [
      32.64505,
      40.00329
     ],
     [
      32.64502,
      40.00325
     ]
    ]
   ]
  ]
 }
}