{
 "type": "Feature",
 "properties": {
  "isim": "Anka Vega",
  "kaynak": "TKGM Parsel Sorgu (CBS) verisine dayalıdır; bilgilendirme amaçlıdır, resmi kadastro belgesi yerine geçmez.",
  "adalar": [
   "47542/5"
  ]
 },
 "geometry": {
  "type": "MultiPolygon",
  "coordinates": [
   [
    [
     [
      32.6122,
      39.96534
     ],
     [
      32.61156,
      39.96546
     ],
     [
      32.61117,
      39.96552
     ],
     [
      32.61103,
      39.96505
     ],
     [
      32.61192,
      39.9649
     ],
     [
      32.61198,
      39.96497
     ],
     [
      32.61204,
      39.96504
     ],
     [
      32.6121,
      39.96512
     ],
     [
      32.61216,
      39.96519
     ],
     [
      32.61222,
      39.96526
     ],
     [
      32.61221,
      39.96531
     ],
     [
      32.6122,
      39.96534
     ]
    ]
   ]
  ]
 }
}
