{
 "type": "Feature",
 "properties": {
  "isim": "Alarko Sitesi",
  "kaynak": "TKGM Parsel Sorgu (CBS) verisine dayalıdır; bilgilendirme amaçlıdır, resmi kadastro belgesi yerine geçmez.",
  "adalar": [
   "17367/1"
  ]
 },
 "geometry": {
  "type": "MultiPolygon",
  "coordinates": [
   [
    [
     [
      32.63192,
      39.99787
     ],
     [
      32.63138,
      39.99766
     ],
     [
      32.63114,
      39.9974
     ],
     [
      32.63179,
      39.99705
     ],
     [
      32.63196,
      39.99711
     ],
     [
      32.63213,
      39.99716
     ],
     [
      32.63231,
      39.99721
     ],
     [
      32.63192,
      39.99787
     ]
    ]
   ]
  ]
 }
}
