{
 "type": "Feature",
 "properties": {
  "isim": "Gül Sitesi",
  "kaynak": "TKGM Parsel Sorgu (CBS) verisine dayalıdır; bilgilendirme amaçlıdır, resmi kadastro belgesi yerine geçmez.",
  "adalar": [
   "46486/2"
  ]
 },
 "geometry": {
  "type": "MultiPolygon",
  "coordinates": [
   [
    [
     [
      32.63186,
      39.99564
     ],
     [
      32.63397,
      39.99581
     ],
     [
      32.63478,
      39.99539
     ],
     [
      32.63482,
      39.9954
     ],
     [
      32.63491,
      39.99551
     ],
     [
      32.63496,
      39.99558
     ],
     [
      32.63499,
      39.99566
     ],
     [
      32.635,
      39.99575
     ],
     [
      32.635,
      39.99583
     ],
     [
      32.63499,
      39.9959
     ],
     [
      32.63493,
      39.99611
     ],
     [
      32.6349,
      39.99617
     ],
     [
      32.63486,
      39.99623
     ],
     [
      32.6348,
      39.9963
     ],
     [
      32.63475,
      39.99636
     ],
     [
      32.63414,
      39.99668
     ],
     [
      32.63375,
      39.99689
     ],
     [
      32.6335,
      39.99702
     ],
     [
      32.63342,
      39.99706
     ],
     [
      32.63333,
      39.9971
     ],
     [
      32.63323,
      39.99713
     ],
     [
      32.63314,
      39.99715
     ],
     [
      32.63298,
      39.99718
     ],
     [
      32.63288,
      39.99717
     ],
     [
      32.63273,
      39.99715
     ],
     [
      32.6326,
      39.99713
     ],
     [
      32.63244,
      39.9971
     ],
     [
      32.63237,
      39.99708
     ],
     [
      32.63219,
      39.99703
     ],
     [
      32.63203,
      39.99699
     ],
     [
      32.63189,
      39.99694
     ],
     [
      32.63176,
      39.99684
     ],
     [
      32.63125,
      39.99624
     ],
     [
      32.63186,
      39.99564
     ]
    ]
   ]
  ]
 }
}
