{
 "type": "Feature",
 "properties": {
  "isim": "Lider Yaşam Evleri",
  "kaynak": "TKGM Parsel Sorgu (CBS) verisine dayalıdır; bilgilendirme amaçlıdır, resmi kadastro belgesi yerine geçmez.",
  "adalar": [
   "46263/2"
  ]
 },
 "geometry": {
  "type": "MultiPolygon",
  "coordinates": [
   [
    [
     [
      32.62614,
      40.003
     ],
     [
      32.62661,
      40.00249
     ],
     [
      32.62751,
      40.003
     ],
     [
      32.62693,
      40.00344
     ],
     [
      32.62614,
      40.003
     ]
    ]
   ]
  ]
 }
}
