{
 "type": "Feature",
 "properties": {
  "isim": "Özahikent",
  "kaynak": "TKGM Parsel Sorgu (CBS) verisine dayalıdır; bilgilendirme amaçlıdır, resmi kadastro belgesi yerine geçmez.",
  "adalar": [
   "46219/1",
   "46220/1",
   "46221/1",
   "46241/1",
   "46277/1",
   "46278/1",
   "46280/1",
   "46281/1",
   "48062/1",
   "48063/1",
   "48064/1",
   "48065/1"
  ]
 },
 "geometry": {
  "type": "MultiPolygon",
  "coordinates": [
   [
    [
     [
      32.62384,
      40.00305
     ],
     [
      32.62321,
      40.00268
     ],
     [
      32.6226,
      40.00233
     ],
     [
      32.62257,
      40.00221
     ],
     [
      32.62287,
      40.00182
     ],
     [
      32.62314,
      40.00147
     ],
     [
      32.62322,
      40.00146
     ],
     [
      32.6236,
      40.00168
     ],
     [
      32.62407,
      40.00195
     ],
     [
      32.62455,
      40.00221
     ],
     [
      32.62416,
      40.00267
     ],
     [
      32.62384,
      40.00305
     ]
    ]
   ],
   [
    [
     [
      32.62301,
      40.00135
     ],
     [
      32.62303,
      40.0014
     ],
     [
      32.62275,
      40.00176
     ],
     [
      32.62246,
      40.00215
     ],
     [
      32.62234,
      40.00218
     ],
     [
      32.62188,
      40.00192
     ],
     [
      32.62127,
      40.00157
     ],
     [
      32.6212,
      40.00147
     ],
     [
      32.62118,
      40.0014
     ],
     [
      32.62117,
      40.00134
     ],
     [
      32.62118,
      40.00126
     ],
     [
      32.6212,
      40.00119
     ],
     [
      32.62125,
      40.00109
     ],
     [
      32.62153,
      40.00058
     ],
     [
      32.62163,
      40.00057
     ],
     [
      32.62211,
      40.00084
     ],
     [
      32.62258,
      40.00111
     ],
     [
      32.62301,
      40.00135
     ]
    ]
   ],
   [
    [
     [
      32.62192,
      39.99999
     ],
     [
      32.62258,
      40.0
     ],
     [
      32.62328,
      40.00002
     ],
     [
      32.62399,
      40.00003
     ],
     [
      32.62403,
      40.0001
     ],
     [
      32.62371,
      40.00052
     ],
     [
      32.62341,
      40.00091
     ],
     [
      32.62314,
      40.00126
     ],
     [
      32.62307,
      40.00127
     ],
     [
      32.62262,
      40.00102
     ],
     [
      32.62214,
      40.00075
     ],
     [
      32.62167,
      40.00048
     ],
     [
      32.62163,
      40.00039
     ],
     [
      32.62182,
      40.00005
     ],
     [
      32.62192,
      39.99999
     ]
    ]
   ],
   [
    [
     [
      32.62421,
      39.99915
     ],
     [
      32.62232,
      39.99911
     ],
     [
      32.62256,
      39.99866
     ],
     [
      32.62294,
      39.99846
     ],
     [
      32.62415,
      39.99847
     ],
     [
      32.62422,
      39.99852
     ],
     [
      32.62421,
      39.99915
     ]
    ]
   ],
   [
    [
     [
      32.6283,
      39.99852
     ],
     [
      32.62946,
      39.99853
     ],
     [
      32.62945,
      40.0
     ],
     [
      32.62828,
      39.99998
     ],
     [
      32.6283,
      39.99852
     ]
    ]
   ],
   [
    [
     [
      32.62821,
      39.99921
     ],
     [
      32.62633,
      39.99918
     ],
     [
      32.62636,
      39.99854
     ],
     [
      32.62644,
      39.9985
     ],
     [
      32.62822,
      39.99852
     ],
     [
      32.62821,
      39.99921
     ]
    ]
   ],
   [
    [
     [
      32.62616,
      39.99991
     ],
     [
      32.6261,
      39.99995
     ],
     [
      32.62523,
      39.99994
     ],
     [
      32.62527,
      39.99848
     ],
     [
      32.62615,
      39.99849
     ],
     [
      32.62622,
      39.99854
     ],
     [
      32.62616,
      39.99991
     ]
    ]
   ],
   [
    [
     [
      32.62515,
      39.99994
     ],
     [
      32.62439,
      39.99992
     ],
     [
      32.62433,
      39.99987
     ],
     [
      32.62436,
      39.99852
     ],
     [
      32.62443,
      39.99847
     ],
     [
      32.62518,
      39.99848
     ],
     [
      32.62515,
      39.99994
     ]
    ]
   ],
   [
    [
     [
      32.62006,
      39.99887
     ],
     [
      32.6194,
      39.9986
     ],
     [
      32.6195,
      39.99845
     ],
     [
      32.6194,
      39.99841
     ],
     [
      32.61929,
      39.99856
     ],
     [
      32.61916,
      39.99851
     ],
     [
      32.61974,
      39.99786
     ],
     [
      32.6198,
      39.99784
     ],
     [
      32.62041,
      39.99813
     ],
     [
      32.62054,
      39.99818
     ],
     [
      32.6208,
      39.99824
     ],
     [
      32.62085,
      39.99825
     ],
     [
      32.62072,
      39.99864
     ],
     [
      32.62028,
      39.99854
     ],
     [
      32.62006,
      39.99887
     ]
    ]
   ],
   [
    [
     [
      32.62421,
      39.99921
     ],
     [
      32.62419,
      39.99985
     ],
     [
      32.62409,
      39.99992
     ],
     [
      32.62346,
      39.99991
     ],
     [
      32.62202,
      39.99989
     ],
     [
      32.62194,
      39.99981
     ],
     [
      32.62228,
      39.99918
     ],
     [
      32.62347,
      39.9992
     ],
     [
      32.62397,
      39.99921
     ],
     [
      32.62397,
      39.99933
     ],
     [
      32.62409,
      39.99934
     ],
     [
      32.62409,
      39.99921
     ],
     [
      32.62421,
      39.99921
     ]
    ]
   ],
   [
    [
     [
      32.62955,
      39.99853
     ],
     [
      32.63053,
      39.99854
     ],
     [
      32.63052,
      39.99984
     ],
     [
      32.63036,
      39.99984
     ],
     [
      32.63036,
      39.99993
     ],
     [
      32.63052,
      39.99993
     ],
     [
      32.63052,
      40.00002
     ],
     [
      32.62958,
      40.0
     ],
     [
      32.62955,
      39.99853
     ]
    ]
   ],
   [
    [
     [
      32.6282,
      39.99998
     ],
     [
      32.62752,
      39.99997
     ],
     [
      32.62753,
      39.9998
     ],
     [
      32.62741,
      39.9998
     ],
     [
      32.6274,
      39.99997
     ],
     [
      32.62636,
      39.99995
     ],
     [
      32.6263,
      39.99991
     ],
     [
      32.62633,
      39.99924
     ],
     [
      32.62821,
      39.99927
     ],
     [
      32.6282,
      39.99998
     ]
    ]
   ]
  ]
 }
}
