{
 "type": "Feature",
 "properties": {
  "isim": "Tepe Blokları",
  "kaynak": "TKGM Parsel Sorgu (CBS) verisine dayalıdır; bilgilendirme amaçlıdır, resmi kadastro belgesi yerine geçmez.",
  "adalar": [
   "17333/1",
   "17334/1",
   "17335/1",
   "17336/1",
   "17337/1"
  ]
 },
 "geometry": {
  "type": "MultiPolygon",
  "coordinates": [
   [
    [
     [
      32.62719,
      39.99404
     ],
     [
      32.62675,
      39.99427
     ],
     [
      32.62635,
      39.99382
     ],
     [
      32.62679,
      39.99359
     ],
     [
      32.62723,
      39.99336
     ],
     [
      32.62763,
      39.99381
     ],
     [
      32.62719,
      39.99404
     ]
    ]
   ],
   [
    [
     [
      32.62854,
      39.99502
     ],
     [
      32.62786,
      39.99538
     ],
     [
      32.62771,
      39.99536
     ],
     [
      32.62737,
      39.99498
     ],
     [
      32.62781,
      39.99475
     ],
     [
      32.62825,
      39.99452
     ],
     [
      32.62858,
      39.99489
     ],
     [
      32.62854,
      39.99502
     ]
    ]
   ],
   [
    [
     [
      32.62771,
      39.99464
     ],
     [
      32.62728,
      39.99487
     ],
     [
      32.62688,
      39.99442
     ],
     [
      32.62732,
      39.99419
     ],
     [
      32.62776,
      39.99396
     ],
     [
      32.62815,
      39.99441
     ],
     [
      32.62771,
      39.99464
     ]
    ]
   ],
   [
    [
     [
      32.62674,
      39.99354
     ],
     [
      32.6263,
      39.99377
     ],
     [
      32.62603,
      39.99346
     ],
     [
      32.62625,
      39.9931
     ],
     [
      32.62648,
      39.99274
     ],
     [
      32.62678,
      39.99286
     ],
     [
      32.62718,
      39.99331
     ],
     [
      32.62674,
      39.99354
     ]
    ]
   ],
   [
    [
     [
      32.62582,
      39.99339
     ],
     [
      32.62533,
      39.99342
     ],
     [
      32.62529,
      39.99303
     ],
     [
      32.62525,
      39.99263
     ],
     [
      32.62601,
      39.99257
     ],
     [
      32.62627,
      39.99267
     ],
     [
      32.62604,
      39.99303
     ],
     [
      32.62582,
      39.99339
     ]
    ]
   ]
  ]
 }
}
