{
 "type": "Feature",
 "properties": {
  "isim": "Ünsal Rezidans",
  "kaynak": "TKGM Parsel Sorgu (CBS) verisine dayalıdır; bilgilendirme amaçlıdır, resmi kadastro belgesi yerine geçmez.",
  "adalar": [
   "46491/2"
  ]
 },
 "geometry": {
  "type": "MultiPolygon",
  "coordinates": [
   [
    [
     [
      32.6311,
      39.99518
     ],
     [
      32.63069,
      39.99475
     ],
     [
      32.63066,
      39.99471
     ],
     [
      32.63074,
      39.99469
     ],
     [
      32.63072,
      39.99463
     ],
     [
      32.63064,
      39.99465
     ],
     [
      32.63053,
      39.99424
     ],
     [
      32.63152,
      39.99365
     ],
     [
      32.63213,
      39.99381
     ],
     [
      32.63213,
      39.99398
     ],
     [
      32.63154,
      39.99532
     ],
     [
      32.63148,
      39.99539
     ],
     [
      32.63144,
      39.99541
     ],
     [
      32.6311,
      39.99518
     ]
    ]
   ]
  ]
 }
}
