{
 "type": "Feature",
 "properties": {
  "isim": "Alya Park",
  "kaynak": "TKGM Parsel Sorgu (CBS) verisine dayalıdır; bilgilendirme amaçlıdır, resmi kadastro belgesi yerine geçmez.",
  "adalar": [
   "64515/1"
  ]
 },
 "geometry": {
  "type": "MultiPolygon",
  "coordinates": [
   [
    [
     [
      32.63742,
      40.00576
     ],
     [
      32.63705,
      40.00657
     ],
     [
      32.63682,
      40.0065
     ],
     [
      32.63678,
      40.00649
     ],
     [
      32.63675,
      40.00648
     ],
     [
      32.63671,
      40.00646
     ],
     [
      32.63668,
      40.00644
     ],
     [
      32.63665,
      40.00641
     ],
     [
      32.63662,
      40.00639
     ],
     [
      32.6366,
      40.00636
     ],
     [
      32.63658,
      40.00633
     ],
     [
      32.63657,
      40.0063
     ],
     [
      32.63656,
      40.00626
     ],
     [
      32.63655,
      40.00623
     ],
     [
      32.63655,
      40.0062
     ],
     [
      32.63656,
      40.00617
     ],
     [
      32.63656,
      40.00613
     ],
     [
      32.63658,
      40.0061
     ],
     [
      32.63668,
      40.00589
     ],
     [
      32.63669,
      40.00586
     ],
     [
      32.63671,
      40.00583
     ],
     [
      32.63674,
      40.0058
     ],
     [
      32.63677,
      40.00577
     ],
     [
      32.6368,
      40.00575
     ],
     [
      32.63683,
      40.00573
     ],
     [
      32.63687,
      40.00571
     ],
     [
      32.63691,
      40.0057
     ],
     [
      32.63695,
      40.00569
     ],
     [
      32.63699,
      40.00568
     ],
     [
      32.63703,
      40.00568
     ],
     [
      32.63707,
      40.00568
     ],
     [
      32.63712,
      40.00568
     ],
     [
      32.63716,
      40.00569
     ],
     [
      32.6372,
      40.0057
     ],
     [
      32.63742,
      40.00576
     ]
    ]
   ]
  ]
 }
}