{
 "type": "Feature",
 "properties": {
  "isim": "Ap Forest Gate",
  "kaynak": "TKGM Parsel Sorgu (CBS) verisine dayalıdır; bilgilendirme amaçlıdır, resmi kadastro belgesi yerine geçmez.",
  "adalar": [
   "63285/5"
  ]
 },
 "geometry": {
  "type": "MultiPolygon",
  "coordinates": [
   [
    [
     [
      32.65846,
      40.00595
     ],
     [
      32.65908,
      40.00548
     ],
     [
      32.65924,
      40.00542
     ],
     [
      32.65962,
      40.0054
     ],
     [
      32.66006,
      40.00579
     ],
     [
      32.65901,
      40.0065
     ],
     [
      32.65846,
      40.00602
     ],
     [
      32.65846,
      40.00595
     ]
    ]
   ]
  ]
 }
}