{
 "type": "Feature",
 "properties": {
  "isim": "Başak Life",
  "kaynak": "TKGM Parsel Sorgu (CBS) verisine dayalıdır; bilgilendirme amaçlıdır, resmi kadastro belgesi yerine geçmez.",
  "adalar": [
   "63355/1"
  ]
 },
 "geometry": {
  "type": "MultiPolygon",
  "coordinates": [
   [
    [
     [
      32.65315,
      40.00511
     ],
     [
      32.65304,
      40.00599
     ],
     [
      32.65265,
      40.00596
     ],
     [
      32.65256,
      40.00588
     ],
     [
      32.65265,
      40.00517
     ],
     [
      32.65278,
      40.00509
     ],
     [
      32.65315,
      40.00511
     ]
    ]
   ]
  ]
 }
}