{
 "type": "Feature",
 "properties": {
  "isim": "Başkent Göksu",
  "kaynak": "TKGM Parsel Sorgu (CBS) verisine dayalıdır; bilgilendirme amaçlıdır, resmi kadastro belgesi yerine geçmez.",
  "adalar": [
   "63332/3"
  ]
 },
 "geometry": {
  "type": "MultiPolygon",
  "coordinates": [
   [
    [
     [
      32.64601,
      40.01099
     ],
     [
      32.64693,
      40.01086
     ],
     [
      32.64693,
      40.01089
     ],
     [
      32.64694,
      40.01096
     ],
     [
      32.64695,
      40.01103
     ],
     [
      32.64696,
      40.0111
     ],
     [
      32.64698,
      40.01117
     ],
     [
      32.64701,
      40.01124
     ],
     [
      32.64707,
      40.01136
     ],
     [
      32.64647,
      40.01162
     ],
     [
      32.64601,
      40.01099
     ]
    ]
   ]
  ]
 }
}
