{
 "type": "Feature",
 "properties": {
  "isim": "Bulut Kule",
  "kaynak": "TKGM Parsel Sorgu (CBS) verisine dayalıdır; bilgilendirme amaçlıdır, resmi kadastro belgesi yerine geçmez.",
  "adalar": [
   "63384/1"
  ]
 },
 "geometry": {
  "type": "MultiPolygon",
  "coordinates": [
   [
    [
     [
      32.64129,
      40.00612
     ],
     [
      32.64095,
      40.00569
     ],
     [
      32.64087,
      40.00559
     ],
     [
      32.6408,
      40.00549
     ],
     [
      32.64073,
      40.00539
     ],
     [
      32.64067,
      40.00529
     ],
     [
      32.64061,
      40.00519
     ],
     [
      32.64056,
      40.00509
     ],
     [
      32.6405,
      40.00498
     ],
     [
      32.64046,
      40.00487
     ],
     [
      32.64055,
      40.00472
     ],
     [
      32.64189,
      40.00441
     ],
     [
      32.64202,
      40.00446
     ],
     [
      32.64205,
      40.00453
     ],
     [
      32.64208,
      40.0046
     ],
     [
      32.64211,
      40.00467
     ],
     [
      32.64215,
      40.00475
     ],
     [
      32.64219,
      40.00481
     ],
     [
      32.64224,
      40.00488
     ],
     [
      32.64228,
      40.00495
     ],
     [
      32.64233,
      40.00502
     ],
     [
      32.64269,
      40.00546
     ],
     [
      32.64129,
      40.00612
     ]
    ]
   ]
  ]
 }
}