{
 "type": "Feature",
 "properties": {
  "isim": "Ende Yaşam",
  "kaynak": "TKGM Parsel Sorgu (CBS) verisine dayalıdır; bilgilendirme amaçlıdır, resmi kadastro belgesi yerine geçmez.",
  "adalar": [
   "63340/6"
  ]
 },
 "geometry": {
  "type": "MultiPolygon",
  "coordinates": [
   [
    [
     [
      32.65249,
      40.0116
     ],
     [
      32.65177,
      40.01196
     ],
     [
      32.65113,
      40.0112
     ],
     [
      32.65165,
      40.01094
     ],
     [
      32.65167,
      40.01092
     ],
     [
      32.65171,
      40.01091
     ],
     [
      32.65174,
      40.01091
     ],
     [
      32.65178,
      40.01091
     ],
     [
      32.65181,
      40.01091
     ],
     [
      32.65184,
      40.01091
     ],
     [
      32.65188,
      40.01092
     ],
     [
      32.6519,
      40.01093
     ],
     [
      32.65193,
      40.01095
     ],
     [
      32.65195,
      40.01097
     ],
     [
      32.65197,
      40.01099
     ],
     [
      32.65249,
      40.0116
     ]
    ]
   ]
  ]
 }
}