{
 "type": "Feature",
 "properties": {
  "isim": "Koruçam Sitesi",
  "kaynak": "TKGM Parsel Sorgu (CBS) verisine dayalıdır; bilgilendirme amaçlıdır, resmi kadastro belgesi yerine geçmez.",
  "adalar": [
   "64515/3"
  ]
 },
 "geometry": {
  "type": "MultiPolygon",
  "coordinates": [
   [
    [
     [
      32.63952,
      40.00686
     ],
     [
      32.63832,
      40.00732
     ],
     [
      32.63832,
      40.00731
     ],
     [
      32.63831,
      40.00727
     ],
     [
      32.6383,
      40.00723
     ],
     [
      32.63829,
      40.00719
     ],
     [
      32.63827,
      40.00715
     ],
     [
      32.63825,
      40.00711
     ],
     [
      32.63822,
      40.00706
     ],
     [
      32.63819,
      40.00702
     ],
     [
      32.63815,
      40.00698
     ],
     [
      32.63811,
      40.00695
     ],
     [
      32.63807,
      40.00691
     ],
     [
      32.63803,
      40.00688
     ],
     [
      32.63798,
      40.00685
     ],
     [
      32.63793,
      40.00682
     ],
     [
      32.63787,
      40.0068
     ],
     [
      32.63825,
      40.00598
     ],
     [
      32.63892,
      40.00617
     ],
     [
      32.63897,
      40.00618
     ],
     [
      32.63901,
      40.0062
     ],
     [
      32.63905,
      40.00622
     ],
     [
      32.6391,
      40.00625
     ],
     [
      32.63913,
      40.00627
     ],
     [
      32.63916,
      40.0063
     ],
     [
      32.63919,
      40.00633
     ],
     [
      32.63921,
      40.00637
     ],
     [
      32.63948,
      40.00677
     ],
     [
      32.6395,
      40.0068
     ],
     [
      32.63951,
      40.00683
     ],
     [
      32.63952,
      40.00686
     ]
    ]
   ]
  ]
 }
}