{
 "type": "Feature",
 "properties": {
  "isim": "Majör Göksu",
  "kaynak": "TKGM Parsel Sorgu (CBS) verisine dayalıdır; bilgilendirme amaçlıdır, resmi kadastro belgesi yerine geçmez.",
  "adalar": [
   "63377/5"
  ]
 },
 "geometry": {
  "type": "MultiPolygon",
  "coordinates": [
   [
    [
     [
      32.64865,
      40.00622
     ],
     [
      32.64952,
      40.0058
     ],
     [
      32.64986,
      40.00621
     ],
     [
      32.64989,
      40.00625
     ],
     [
      32.64991,
      40.00628
     ],
     [
      32.64993,
      40.00632
     ],
     [
      32.64994,
      40.00636
     ],
     [
      32.64995,
      40.0064
     ],
     [
      32.64995,
      40.00644
     ],
     [
      32.64995,
      40.00648
     ],
     [
      32.64994,
      40.00652
     ],
     [
      32.64993,
      40.00656
     ],
     [
      32.64992,
      40.0066
     ],
     [
      32.64989,
      40.00663
     ],
     [
      32.64987,
      40.00667
     ],
     [
      32.64984,
      40.0067
     ],
     [
      32.64981,
      40.00673
     ],
     [
      32.64977,
      40.00676
     ],
     [
      32.64973,
      40.00679
     ],
     [
      32.64969,
      40.00681
     ],
     [
      32.6493,
      40.007
     ],
     [
      32.64865,
      40.00622
     ]
    ]
   ]
  ]
 }
}