{
 "type": "Feature",
 "properties": {
  "isim": "Mira Göksu Konutları",
  "kaynak": "TKGM Parsel Sorgu (CBS) verisine dayalıdır; bilgilendirme amaçlıdır, resmi kadastro belgesi yerine geçmez.",
  "adalar": [
   "64526/3"
  ]
 },
 "geometry": {
  "type": "MultiPolygon",
  "coordinates": [
   [
    [
     [
      32.64175,
      40.01049
     ],
     [
      32.64128,
      40.0099
     ],
     [
      32.64223,
      40.00945
     ],
     [
      32.6427,
      40.01004
     ],
     [
      32.64175,
      40.01049
     ]
    ]
   ]
  ]
 }
}