{
 "type": "Feature",
 "properties": {
  "isim": "Mood Altınok",
  "kaynak": "TKGM Parsel Sorgu (CBS) verisine dayalıdır; bilgilendirme amaçlıdır, resmi kadastro belgesi yerine geçmez.",
  "adalar": [
   "64527/10"
  ]
 },
 "geometry": {
  "type": "MultiPolygon",
  "coordinates": [
   [
    [
     [
      32.64374,
      40.01274
     ],
     [
      32.64374,
      40.01247
     ],
     [
      32.64372,
      40.01194
     ],
     [
      32.64372,
      40.01184
     ],
     [
      32.64372,
      40.01173
     ],
     [
      32.64347,
      40.0114
     ],
     [
      32.64461,
      40.01085
     ],
     [
      32.64488,
      40.0112
     ],
     [
      32.64491,
      40.01124
     ],
     [
      32.64495,
      40.01128
     ],
     [
      32.64499,
      40.01134
     ],
     [
      32.64499,
      40.01135
     ],
     [
      32.64504,
      40.01143
     ],
     [
      32.64509,
      40.01151
     ],
     [
      32.64513,
      40.01159
     ],
     [
      32.64516,
      40.01167
     ],
     [
      32.64519,
      40.01175
     ],
     [
      32.6452,
      40.01177
     ],
     [
      32.64522,
      40.01184
     ],
     [
      32.64524,
      40.01192
     ],
     [
      32.64526,
      40.01201
     ],
     [
      32.64528,
      40.0121
     ],
     [
      32.64528,
      40.01218
     ],
     [
      32.64529,
      40.01223
     ],
     [
      32.64529,
      40.01224
     ],
     [
      32.64398,
      40.01286
     ],
     [
      32.64374,
      40.01274
     ]
    ]
   ]
  ]
 }
}