{
 "type": "Feature",
 "properties": {
  "isim": "Neva Palas",
  "kaynak": "TKGM Parsel Sorgu (CBS) verisine dayalıdır; bilgilendirme amaçlıdır, resmi kadastro belgesi yerine geçmez.",
  "adalar": [
   "64515/2"
  ]
 },
 "geometry": {
  "type": "MultiPolygon",
  "coordinates": [
   [
    [
     [
      32.63787,
      40.0068
     ],
     [
      32.63782,
      40.00678
     ],
     [
      32.63776,
      40.00676
     ],
     [
      32.63705,
      40.00657
     ],
     [
      32.63742,
      40.00576
     ],
     [
      32.63825,
      40.00598
     ],
     [
      32.63787,
      40.0068
     ]
    ]
   ]
  ]
 }
}