{
 "type": "Feature",
 "properties": {
  "isim": "Perla Life",
  "kaynak": "TKGM Parsel Sorgu (CBS) verisine dayalıdır; bilgilendirme amaçlıdır, resmi kadastro belgesi yerine geçmez.",
  "adalar": [
   "63380/3"
  ]
 },
 "geometry": {
  "type": "MultiPolygon",
  "coordinates": [
   [
    [
     [
      32.64619,
      40.00396
     ],
     [
      32.64599,
      40.00443
     ],
     [
      32.64506,
      40.00432
     ],
     [
      32.64519,
      40.00399
     ],
     [
      32.64521,
      40.00394
     ],
     [
      32.64522,
      40.00388
     ],
     [
      32.64523,
      40.00385
     ],
     [
      32.64523,
      40.00383
     ],
     [
      32.64523,
      40.00377
     ],
     [
      32.64523,
      40.00372
     ],
     [
      32.64523,
      40.0037
     ],
     [
      32.64626,
      40.00378
     ],
     [
      32.64625,
      40.0038
     ],
     [
      32.64623,
      40.00387
     ],
     [
      32.64619,
      40.00396
     ]
    ]
   ]
  ]
 }
}