{
 "type": "Feature",
 "properties": {
  "isim": "Sarıtaş Seyir Evleri",
  "kaynak": "TKGM Parsel Sorgu (CBS) verisine dayalıdır; bilgilendirme amaçlıdır, resmi kadastro belgesi yerine geçmez.",
  "adalar": [
   "63343/2"
  ]
 },
 "geometry": {
  "type": "MultiPolygon",
  "coordinates": [
   [
    [
     [
      32.65333,
      40.0109
     ],
     [
      32.652,
      40.01075
     ],
     [
      32.65198,
      40.01069
     ],
     [
      32.65196,
      40.01064
     ],
     [
      32.65195,
      40.0106
     ],
     [
      32.65195,
      40.01055
     ],
     [
      32.65195,
      40.0105
     ],
     [
      32.65195,
      40.01045
     ],
     [
      32.65199,
      40.01012
     ],
     [
      32.65342,
      40.01029
     ],
     [
      32.65333,
      40.0109
     ]
    ]
   ]
  ]
 }
}
