{"type": "Feature", "properties": {"isim": "Şirin Ana Villaları", "kaynak": "TKGM Parsel Sorgu (CBS) verisine dayalıdır; bilgilendirme amaçlıdır, resmi kadastro belgesi yerine geçmez.", "adalar": ["46185/1", "46186/1", "46187/1", "46188/1"]}, "geometry": {"type": "MultiPolygon", "coordinates": [[[[32.61772, 40.01167], [32.6177, 40.01212], [32.61724, 40.01212], [32.61726, 40.01167], [32.61728, 40.01122], [32.6173, 40.01094], [32.61734, 40.01091], [32.61777, 40.01091], [32.61772, 40.01167]]], [[[32.61828, 40.01166], [32.61825, 40.01211], [32.61778, 40.01212], [32.6178, 40.01167], [32.61783, 40.01122], [32.61785, 40.01091], [32.61832, 40.0109], [32.6183, 40.01121], [32.61828, 40.01166]]], [[[32.62042, 40.0121], [32.6195, 40.0121], [32.61892, 40.01211], [32.61833, 40.01211], [32.61835, 40.01174], [32.61894, 40.01174], [32.61952, 40.01174], [32.62028, 40.01174], [32.62042, 40.0121]]], [[[32.62025, 40.01167], [32.61953, 40.01168], [32.61894, 40.01168], [32.61836, 40.01168], [32.61838, 40.01132], [32.61896, 40.01132], [32.61955, 40.01131], [32.6201, 40.01131], [32.62025, 40.01167]]]]}}