{
 "type": "Feature",
 "properties": {
  "isim": "Vera Life Göksu",
  "kaynak": "TKGM Parsel Sorgu (CBS) verisine dayalıdır; bilgilendirme amaçlıdır, resmi kadastro belgesi yerine geçmez.",
  "adalar": [
   "63340/5"
  ]
 },
 "geometry": {
  "type": "MultiPolygon",
  "coordinates": [
   [
    [
     [
      32.64954,
      40.01203
     ],
     [
      32.64961,
      40.01199
     ],
     [
      32.64969,
      40.01195
     ],
     [
      32.65113,
      40.0112
     ],
     [
      32.65177,
      40.01196
     ],
     [
      32.65088,
      40.0124
     ],
     [
      32.65084,
      40.01242
     ],
     [
      32.6508,
      40.01245
     ],
     [
      32.65076,
      40.01248
     ],
     [
      32.65072,
      40.01251
     ],
     [
      32.65069,
      40.01255
     ],
     [
      32.65066,
      40.01258
     ],
     [
      32.6502,
      40.01236
     ],
     [
      32.64978,
      40.01215
     ],
     [
      32.64954,
      40.01203
     ]
    ]
   ]
  ]
 }
}