{
 "type": "Feature",
 "properties": {
  "isim": "Yıldız Life",
  "kaynak": "TKGM Parsel Sorgu (CBS) verisine dayalıdır; bilgilendirme amaçlıdır, resmi kadastro belgesi yerine geçmez.",
  "adalar": [
   "63316/2"
  ]
 },
 "geometry": {
  "type": "MultiPolygon",
  "coordinates": [
   [
    [
     [
      32.63764,
      40.01615
     ],
     [
      32.63812,
      40.01574
     ],
     [
      32.63816,
      40.01575
     ],
     [
      32.63828,
      40.0158
     ],
     [
      32.63836,
      40.01584
     ],
     [
      32.63845,
      40.01588
     ],
     [
      32.6385,
      40.0159
     ],
     [
      32.63856,
      40.01593
     ],
     [
      32.63861,
      40.01596
     ],
     [
      32.63866,
      40.01599
     ],
     [
      32.63872,
      40.01602
     ],
     [
      32.63877,
      40.01605
     ],
     [
      32.63882,
      40.01608
     ],
     [
      32.63887,
      40.01612
     ],
     [
      32.63895,
      40.01617
     ],
     [
      32.63897,
      40.01632
     ],
     [
      32.63849,
      40.01674
     ],
     [
      32.63764,
      40.01615
     ]
    ]
   ]
  ]
 }
}
