{
 "type": "Feature",
 "properties": {
  "isim": "Arkadya Göksu Evleri",
  "kaynak": "TKGM Parsel Sorgu (CBS) verisine dayalıdır; bilgilendirme amaçlıdır, resmi kadastro belgesi yerine geçmez.",
  "adalar": [
   "46623/4"
  ]
 },
 "geometry": {
  "type": "MultiPolygon",
  "coordinates": [
   [
    [
     [
      32.65321,
      39.98614
     ],
     [
      32.65398,
      39.98619
     ],
     [
      32.65399,
      39.98551
     ],
     [
      32.6543,
      39.98534
     ],
     [
      32.65508,
      39.98531
     ],
     [
      32.65509,
      39.98626
     ],
     [
      32.65509,
      39.98684
     ],
     [
      32.65507,
      39.98694
     ],
     [
      32.65503,
      39.98703
     ],
     [
      32.65496,
      39.98708
     ],
     [
      32.65491,
      39.98709
     ],
     [
      32.65321,
      39.98703
     ],
     [
      32.65316,
      39.98697
     ],
     [
      32.65317,
      39.98678
     ],
     [
      32.65321,
      39.98614
     ]
    ]
   ]
  ]
 }
}
