{
 "type": "Feature",
 "properties": {
  "isim": "Atalay Sitesi",
  "kaynak": "TKGM Parsel Sorgu (CBS) verisine dayalıdır; bilgilendirme amaçlıdır, resmi kadastro belgesi yerine geçmez.",
  "adalar": [
   "46648/4"
  ]
 },
 "geometry": {
  "type": "MultiPolygon",
  "coordinates": [
   [
    [
     [
      32.65627,
      39.97487
     ],
     [
      32.6557,
      39.97486
     ],
     [
      32.65557,
      39.97486
     ],
     [
      32.6556,
      39.97418
     ],
     [
      32.65619,
      39.97415
     ],
     [
      32.65624,
      39.97418
     ],
     [
      32.65627,
      39.97487
     ]
    ]
   ]
  ]
 }
}