{
 "type": "Feature",
 "properties": {
  "isim": "Cumhuriyet Sitesi",
  "kaynak": "TKGM Parsel Sorgu (CBS) verisine dayalıdır; bilgilendirme amaçlıdır, resmi kadastro belgesi yerine geçmez.",
  "adalar": [
   "17491/1"
  ]
 },
 "geometry": {
  "type": "MultiPolygon",
  "coordinates": [
   [
    [
     [
      32.64979,
      39.97315
     ],
     [
      32.65031,
      39.97331
     ],
     [
      32.65084,
      39.97348
     ],
     [
      32.65055,
      39.97403
     ],
     [
      32.65005,
      39.97385
     ],
     [
      32.64954,
      39.97368
     ],
     [
      32.64965,
      39.97342
     ],
     [
      32.64979,
      39.97315
     ]
    ]
   ]
  ]
 }
}