{
 "type": "Feature",
 "properties": {
  "isim": "Eston Sitesi",
  "kaynak": "TKGM Parsel Sorgu (CBS) verisine dayalıdır; bilgilendirme amaçlıdır, resmi kadastro belgesi yerine geçmez.",
  "adalar": [
   "17487/1",
   "17488/1",
   "17489/1",
   "17490/1"
  ]
 },
 "geometry": {
  "type": "MultiPolygon",
  "coordinates": [
   [
    [
     [
      32.65288,
      39.97262
     ],
     [
      32.65254,
      39.97296
     ],
     [
      32.652,
      39.97279
     ],
     [
      32.6515,
      39.97263
     ],
     [
      32.65185,
      39.972
     ],
     [
      32.65235,
      39.97216
     ],
     [
      32.65284,
      39.97232
     ],
     [
      32.65288,
      39.97262
     ]
    ]
   ],
   [
    [
     [
      32.65108,
      39.9734
     ],
     [
      32.65141,
      39.97279
     ],
     [
      32.65195,
      39.97297
     ],
     [
      32.65245,
      39.97313
     ],
     [
      32.65227,
      39.97364
     ],
     [
      32.65136,
      39.97361
     ],
     [
      32.65108,
      39.9734
     ]
    ]
   ],
   [
    [
     [
      32.65063,
      39.97175
     ],
     [
      32.65116,
      39.97192
     ],
     [
      32.65153,
      39.97204
     ],
     [
      32.65158,
      39.97214
     ],
     [
      32.6513,
      39.97265
     ],
     [
      32.65076,
      39.97248
     ],
     [
      32.65022,
      39.97231
     ],
     [
      32.65048,
      39.9718
     ],
     [
      32.65063,
      39.97175
     ]
    ]
   ],
   [
    [
     [
      32.65016,
      39.97243
     ],
     [
      32.65069,
      39.9726
     ],
     [
      32.65123,
      39.97278
     ],
     [
      32.65094,
      39.97332
     ],
     [
      32.65041,
      39.97315
     ],
     [
      32.64988,
      39.97298
     ],
     [
      32.65016,
      39.97243
     ]
    ]
   ]
  ]
 }
}
