{
 "type": "Feature",
 "properties": {
  "isim": "Gökdemirler Suit",
  "kaynak": "TKGM Parsel Sorgu (CBS) verisine dayalıdır; bilgilendirme amaçlıdır, resmi kadastro belgesi yerine geçmez.",
  "adalar": [
   "48581/3"
  ]
 },
 "geometry": {
  "type": "MultiPolygon",
  "coordinates": [
   [
    [
     [
      32.65637,
      39.98494
     ],
     [
      32.65537,
      39.98494
     ],
     [
      32.65537,
      39.98439
     ],
     [
      32.65596,
      39.98439
     ],
     [
      32.65635,
      39.98439
     ],
     [
      32.65637,
      39.98494
     ]
    ]
   ]
  ]
 }
}
