{
 "type": "Feature",
 "properties": {
  "isim": "Göldekent Sitesi",
  "kaynak": "TKGM Parsel Sorgu (CBS) verisine dayalıdır; bilgilendirme amaçlıdır, resmi kadastro belgesi yerine geçmez.",
  "adalar": [
   "48150/1"
  ]
 },
 "geometry": {
  "type": "MultiPolygon",
  "coordinates": [
   [
    [
     [
      32.65095,
      39.98569
     ],
     [
      32.65094,
      39.98681
     ],
     [
      32.65091,
      39.98685
     ],
     [
      32.65086,
      39.98688
     ],
     [
      32.6504,
      39.98686
     ],
     [
      32.6503,
      39.98687
     ],
     [
      32.6502,
      39.98689
     ],
     [
      32.64979,
      39.98706
     ],
     [
      32.64858,
      39.98755
     ],
     [
      32.64856,
      39.98755
     ],
     [
      32.64852,
      39.98704
     ],
     [
      32.64856,
      39.98544
     ],
     [
      32.6486,
      39.98545
     ],
     [
      32.64861,
      39.98538
     ],
     [
      32.64856,
      39.98537
     ],
     [
      32.64856,
      39.98532
     ],
     [
      32.64856,
      39.98531
     ],
     [
      32.64878,
      39.98532
     ],
     [
      32.64999,
      39.9856
     ],
     [
      32.65015,
      39.98563
     ],
     [
      32.65029,
      39.98565
     ],
     [
      32.65039,
      39.98566
     ],
     [
      32.65095,
      39.98569
     ]
    ]
   ]
  ]
 }
}
