{"type": "Feature", "properties": {"isim": "İçtaş", "kaynak": "TKGM Parsel Sorgu (CBS) verisine dayalıdır; bilgilendirme amaçlıdır, resmi kadastro belgesi yerine geçmez.", "adalar": ["17498/1", "17480/1", "17481/1", "17482/1"]}, "geometry": {"type": "MultiPolygon", "coordinates": [[[[32.64916, 39.97907], [32.64915, 39.97858], [32.64973, 39.97857], [32.65031, 39.97856], [32.65033, 39.97908], [32.65024, 39.97917], [32.64977, 39.97917], [32.64928, 39.97918], [32.64916, 39.97907]]], [[[32.64917, 39.97945], [32.64967, 39.97945], [32.65014, 39.97944], [32.65015, 39.97984], [32.65016, 39.98026], [32.64969, 39.98027], [32.64921, 39.98029], [32.64916, 39.98026], [32.64917, 39.98005], [32.64918, 39.97985], [32.64917, 39.97945]]], [[[32.65037, 39.97944], [32.6509, 39.97943], [32.65141, 39.97942], [32.65144, 39.97983], [32.65147, 39.98022], [32.65094, 39.98024], [32.6504, 39.98025], [32.65038, 39.97984], [32.65037, 39.97944]]], [[[32.6517, 39.98021], [32.65167, 39.97976], [32.65164, 39.97931], [32.65213, 39.97903], [32.65247, 39.97948], [32.6528, 39.9799], [32.65255, 39.98019], [32.6517, 39.98021]]]]}}