{
 "type": "Feature",
 "properties": {
  "isim": "İntes Sitesi",
  "kaynak": "TKGM Parsel Sorgu (CBS) verisine dayalıdır; bilgilendirme amaçlıdır, resmi kadastro belgesi yerine geçmez.",
  "adalar": [
   "17468/1",
   "17469/1"
  ]
 },
 "geometry": {
  "type": "MultiPolygon",
  "coordinates": [
   [
    [
     [
      32.65032,
      39.98193
     ],
     [
      32.64959,
      39.98194
     ],
     [
      32.64909,
      39.98141
     ],
     [
      32.64953,
      39.98114
     ],
     [
      32.65028,
      39.98112
     ],
     [
      32.65032,
      39.98193
     ]
    ]
   ],
   [
    [
     [
      32.64952,
      39.98212
     ],
     [
      32.64947,
      39.98257
     ],
     [
      32.64889,
      39.98254
     ],
     [
      32.64825,
      39.98249
     ],
     [
      32.64828,
      39.98232
     ],
     [
      32.64833,
      39.98217
     ],
     [
      32.64839,
      39.98201
     ],
     [
      32.64855,
      39.98173
     ],
     [
      32.64883,
      39.98156
     ],
     [
      32.64952,
      39.98212
     ]
    ]
   ]
  ]
 }
}
