{
 "type": "Feature",
 "properties": {
  "isim": "Karma Modern",
  "kaynak": "TKGM Parsel Sorgu (CBS) verisine dayalıdır; bilgilendirme amaçlıdır, resmi kadastro belgesi yerine geçmez.",
  "adalar": [
   "46657/5"
  ]
 },
 "geometry": {
  "type": "MultiPolygon",
  "coordinates": [
   [
    [
     [
      32.65795,
      39.96967
     ],
     [
      32.65787,
      39.96969
     ],
     [
      32.65744,
      39.9698
     ],
     [
      32.65743,
      39.96889
     ],
     [
      32.65794,
      39.96878
     ],
     [
      32.65848,
      39.96867
     ],
     [
      32.65848,
      39.96959
     ],
     [
      32.65795,
      39.96967
     ]
    ]
   ]
  ]
 }
}