{
 "type": "Feature",
 "properties": {
  "isim": "KC Lale Evleri",
  "kaynak": "TKGM Parsel Sorgu (CBS) verisine dayalıdır; bilgilendirme amaçlıdır, resmi kadastro belgesi yerine geçmez.",
  "adalar": [
   "46638/1",
   "46639/1",
   "46641/1",
   "46644/1",
   "46645/1",
   "46646/1"
  ]
 },
 "geometry": {
  "type": "MultiPolygon",
  "coordinates": [
   [
    [
     [
      32.65482,
      39.97828
     ],
     [
      32.65477,
      39.97836
     ],
     [
      32.65365,
      39.97859
     ],
     [
      32.65354,
      39.97856
     ],
     [
      32.65301,
      39.97768
     ],
     [
      32.65281,
      39.97729
     ],
     [
      32.65279,
      39.97721
     ],
     [
      32.65278,
      39.97699
     ],
     [
      32.65451,
      39.97697
     ],
     [
      32.65482,
      39.97828
     ]
    ]
   ],
   [
    [
     [
      32.65449,
      39.97688
     ],
     [
      32.6528,
      39.9769
     ],
     [
      32.6528,
      39.9768
     ],
     [
      32.65292,
      39.97652
     ],
     [
      32.65298,
      39.97639
     ],
     [
      32.65306,
      39.97626
     ],
     [
      32.65313,
      39.97614
     ],
     [
      32.6532,
      39.97599
     ],
     [
      32.65325,
      39.97586
     ],
     [
      32.65327,
      39.97564
     ],
     [
      32.65449,
      39.97568
     ],
     [
      32.65449,
      39.97688
     ]
    ]
   ],
   [
    [
     [
      32.65567,
      39.97662
     ],
     [
      32.65472,
      39.9766
     ],
     [
      32.65472,
      39.97569
     ],
     [
      32.65567,
      39.97572
     ],
     [
      32.65567,
      39.97613
     ],
     [
      32.65567,
      39.97662
     ]
    ]
   ],
   [
    [
     [
      32.65449,
      39.97529
     ],
     [
      32.65327,
      39.97526
     ],
     [
      32.65329,
      39.97425
     ],
     [
      32.65333,
      39.9742
     ],
     [
      32.65444,
      39.9742
     ],
     [
      32.65449,
      39.97423
     ],
     [
      32.65449,
      39.97529
     ]
    ]
   ],
   [
    [
     [
      32.65276,
      39.97289
     ],
     [
      32.65314,
      39.9729
     ],
     [
      32.65314,
      39.97466
     ],
     [
      32.6529,
      39.97466
     ],
     [
      32.65249,
      39.97435
     ],
     [
      32.65262,
      39.97303
     ],
     [
      32.65276,
      39.97289
     ]
    ]
   ],
   [
    [
     [
      32.65329,
      39.97262
     ],
     [
      32.65408,
      39.97259
     ],
     [
      32.65448,
      39.97406
     ],
     [
      32.65445,
      39.97409
     ],
     [
      32.65333,
      39.9741
     ],
     [
      32.65329,
      39.97404
     ],
     [
      32.65329,
      39.97262
     ]
    ]
   ]
  ]
 }
}