{"type": "Feature", "properties": {"isim": "Kutlutaş 1 Blokları", "kaynak": "TKGM Parsel Sorgu (CBS) verisine dayalıdır; bilgilendirme amaçlıdır, resmi kadastro belgesi yerine geçmez.", "adalar": ["17494/1", "17495/1", "17496/1", "17497/1"]}, "geometry": {"type": "MultiPolygon", "coordinates": [[[[32.64909, 39.97611], [32.64909, 39.9757], [32.64909, 39.97553], [32.64965, 39.97552], [32.65021, 39.9755], [32.65023, 39.97609], [32.64967, 39.9761], [32.64909, 39.97611]]], [[[32.6491, 39.97629], [32.64966, 39.97628], [32.65024, 39.97627], [32.65026, 39.97694], [32.64969, 39.97695], [32.64911, 39.97696], [32.6491, 39.97629]]], [[[32.64913, 39.97773], [32.64912, 39.97714], [32.64969, 39.97713], [32.65027, 39.97712], [32.65029, 39.97771], [32.6497, 39.97772], [32.64913, 39.97773]]], [[[32.64913, 39.97782], [32.6497, 39.97781], [32.65029, 39.9778], [32.65031, 39.97838], [32.64972, 39.97839], [32.64914, 39.9784], [32.64913, 39.97782]]]]}}