{"type": "Feature", "properties": {"isim": "Kutlutaş 2 Blokları", "kaynak": "TKGM Parsel Sorgu (CBS) verisine dayalıdır; bilgilendirme amaçlıdır, resmi kadastro belgesi yerine geçmez.", "adalar": ["17491/1", "17492/1", "17493/1"]}, "geometry": {"type": "MultiPolygon", "coordinates": [[[[32.64979, 39.97315], [32.65031, 39.97331], [32.65084, 39.97348], [32.65055, 39.97403], [32.65005, 39.97385], [32.64954, 39.97368], [32.64965, 39.97342], [32.64979, 39.97315]]], [[[32.64922, 39.97462], [32.64932, 39.97427], [32.64943, 39.97396], [32.64993, 39.97411], [32.65042, 39.97425], [32.65031, 39.97448], [32.65025, 39.97465], [32.65022, 39.97472], [32.64922, 39.97462]]], [[[32.64909, 39.97544], [32.64912, 39.97521], [32.64915, 39.97502], [32.64918, 39.9748], [32.65019, 39.9749], [32.65021, 39.97541], [32.64966, 39.97543], [32.64909, 39.97544]]]]}}