{
 "type": "Feature",
 "properties": {
  "isim": "Nefeskent Sitesi",
  "kaynak": "TKGM Parsel Sorgu (CBS) verisine dayalıdır; bilgilendirme amaçlıdır, resmi kadastro belgesi yerine geçmez.",
  "adalar": [
   "46667/4"
  ]
 },
 "geometry": {
  "type": "MultiPolygon",
  "coordinates": [
   [
    [
     [
      32.65157,
      39.97124
     ],
     [
      32.65131,
      39.9717
     ],
     [
      32.65075,
      39.97151
     ],
     [
      32.65071,
      39.97136
     ],
     [
      32.65076,
      39.97129
     ],
     [
      32.6508,
      39.97124
     ],
     [
      32.65085,
      39.97118
     ],
     [
      32.6509,
      39.97112
     ],
     [
      32.65095,
      39.97107
     ],
     [
      32.651,
      39.97101
     ],
     [
      32.65113,
      39.97089
     ],
     [
      32.65123,
      39.97078
     ],
     [
      32.6513,
      39.97073
     ],
     [
      32.65138,
      39.97068
     ],
     [
      32.65174,
      39.97113
     ],
     [
      32.65157,
      39.97124
     ]
    ]
   ]
  ]
 }
}