{
 "type": "Feature",
 "properties": {
  "isim": "Soyak Sitesi",
  "kaynak": "TKGM Parsel Sorgu (CBS) verisine dayalıdır; bilgilendirme amaçlıdır, resmi kadastro belgesi yerine geçmez.",
  "adalar": [
   "17462/1",
   "17463/1",
   "17477/1"
  ]
 },
 "geometry": {
  "type": "MultiPolygon",
  "coordinates": [
   [
    [
     [
      32.65275,
      39.984
     ],
     [
      32.65219,
      39.98346
     ],
     [
      32.65262,
      39.98319
     ],
     [
      32.65307,
      39.9829
     ],
     [
      32.65344,
      39.98326
     ],
     [
      32.65314,
      39.98365
     ],
     [
      32.65289,
      39.98399
     ],
     [
      32.65275,
      39.984
     ]
    ]
   ],
   [
    [
     [
      32.65202,
      39.98472
     ],
     [
      32.65166,
      39.98439
     ],
     [
      32.65129,
      39.98405
     ],
     [
      32.65163,
      39.98382
     ],
     [
      32.65197,
      39.98361
     ],
     [
      32.65232,
      39.98394
     ],
     [
      32.65266,
      39.98427
     ],
     [
      32.65262,
      39.98433
     ],
     [
      32.65202,
      39.98472
     ]
    ]
   ],
   [
    [
     [
      32.65256,
      39.98305
     ],
     [
      32.65217,
      39.98271
     ],
     [
      32.65178,
      39.98238
     ],
     [
      32.6523,
      39.98203
     ],
     [
      32.65235,
      39.98201
     ],
     [
      32.65242,
      39.98201
     ],
     [
      32.65247,
      39.98203
     ],
     [
      32.65253,
      39.98207
     ],
     [
      32.65309,
      39.98265
     ],
     [
      32.65309,
      39.98271
     ],
     [
      32.65256,
      39.98305
     ]
    ]
   ]
  ]
 }
}
