{
 "type": "Feature",
 "properties": {
  "isim": "Dört Mevsim Eryaman Konutları",
  "kaynak": "TKGM Parsel Sorgu (CBS) verisine dayalıdır; bilgilendirme amaçlıdır, resmi kadastro belgesi yerine geçmez.",
  "adalar": [
   "48305/6"
  ]
 },
 "geometry": {
  "type": "MultiPolygon",
  "coordinates": [
   [
    [
     [
      32.65838,
      39.96562
     ],
     [
      32.65824,
      39.96503
     ],
     [
      32.65927,
      39.9649
     ],
     [
      32.65928,
      39.96497
     ],
     [
      32.65932,
      39.96524
     ],
     [
      32.65935,
      39.96543
     ],
     [
      32.65935,
      39.96548
     ],
     [
      32.65936,
      39.96549
     ],
     [
      32.65953,
      39.96561
     ],
     [
      32.65953,
      39.96563
     ],
     [
      32.6595,
      39.96591
     ],
     [
      32.65942,
      39.96681
     ],
     [
      32.65869,
      39.96685
     ],
     [
      32.65749,
      39.96692
     ],
     [
      32.65744,
      39.96689
     ],
     [
      32.65729,
      39.96622
     ],
     [
      32.65735,
      39.96618
     ],
     [
      32.65842,
      39.96604
     ],
     [
      32.65846,
      39.96599
     ],
     [
      32.65838,
      39.96562
     ]
    ]
   ]
  ]
 }
}