{
 "type": "Feature",
 "properties": {
  "isim": "Oasis Rezidans",
  "kaynak": "TKGM Parsel Sorgu (CBS) verisine dayalıdır; bilgilendirme amaçlıdır, resmi kadastro belgesi yerine geçmez.",
  "adalar": [
   "46368/4"
  ]
 },
 "geometry": {
  "type": "MultiPolygon",
  "coordinates": [
   [
    [
     [
      32.65528,
      39.96477
     ],
     [
      32.65399,
      39.96491
     ],
     [
      32.6539,
      39.9645
     ],
     [
      32.65449,
      39.96444
     ],
     [
      32.65519,
      39.96436
     ],
     [
      32.65528,
      39.96477
     ]
    ]
   ]
  ]
 }
}