{
 "type": "Feature",
 "properties": {
  "isim": "Address Yeşilova",
  "kaynak": "TKGM Parsel Sorgu (CBS) verisine dayalıdır; bilgilendirme amaçlıdır, resmi kadastro belgesi yerine geçmez.",
  "adalar": [
   "47542/6"
  ]
 },
 "geometry": {
  "type": "MultiPolygon",
  "coordinates": [
   [
    [
     [
      32.6105,
      39.96564
     ],
     [
      32.61036,
      39.96517
     ],
     [
      32.61103,
      39.96505
     ],
     [
      32.61117,
      39.96552
     ],
     [
      32.611,
      39.96555
     ],
     [
      32.61053,
      39.96563
     ],
     [
      32.6105,
      39.96564
     ]
    ]
   ]
  ]
 }
}