{
 "type": "Feature",
 "properties": {
  "isim": "Anka Vega",
  "kaynak": "TKGM Parsel Sorgu (CBS) verisine dayalıdır; bilgilendirme amaçlıdır, resmi kadastro belgesi yerine geçmez.",
  "adalar": [
   "47544/2"
  ]
 },
 "geometry": {
  "type": "MultiPolygon",
  "coordinates": [
   [
    [
     [
      32.6106,
      39.96487
     ],
     [
      32.61035,
      39.96402
     ],
     [
      32.61134,
      39.96384
     ],
     [
      32.61138,
      39.96394
     ],
     [
      32.61143,
      39.96406
     ],
     [
      32.61148,
      39.96419
     ],
     [
      32.61155,
      39.96431
     ],
     [
      32.61161,
      39.96443
     ],
     [
      32.61168,
      39.96455
     ],
     [
      32.61175,
      39.96466
     ],
     [
      32.6118,
      39.96473
     ],
     [
      32.61127,
      39.96483
     ],
     [
      32.61127,
      39.96482
     ],
     [
      32.61126,
      39.96481
     ],
     [
      32.61126,
      39.9648
     ],
     [
      32.61125,
      39.9648
     ],
     [
      32.61125,
      39.96479
     ],
     [
      32.61124,
      39.96478
     ],
     [
      32.61124,
      39.96477
     ],
     [
      32.61123,
      39.96476
     ],
     [
      32.6106,
      39.96487
     ]
    ]
   ]
  ]
 }
}
