{
 "type": "Feature",
 "properties": {
  "isim": "Meva Şehir",
  "kaynak": "TKGM Parsel Sorgu (CBS) verisine dayalıdır; bilgilendirme amaçlıdır, resmi kadastro belgesi yerine geçmez.",
  "adalar": [
   "49152/1"
  ]
 },
 "geometry": {
  "type": "MultiPolygon",
  "coordinates": [
   [
    [
     [
      32.62245,
      39.96426
     ],
     [
      32.6225,
      39.96414
     ],
     [
      32.62251,
      39.96413
     ],
     [
      32.62255,
      39.96403
     ],
     [
      32.62255,
      39.96403
     ],
     [
      32.62261,
      39.96387
     ],
     [
      32.62266,
      39.96374
     ],
     [
      32.6227,
      39.9636
     ],
     [
      32.62271,
      39.96356
     ],
     [
      32.62272,
      39.96353
     ],
     [
      32.62275,
      39.96343
     ],
     [
      32.62307,
      39.96336
     ],
     [
      32.62297,
      39.96303
     ],
     [
      32.62281,
      39.96306
     ],
     [
      32.62283,
      39.96277
     ],
     [
      32.62283,
      39.96262
     ],
     [
      32.62283,
      39.96252
     ],
     [
      32.62281,
      39.96231
     ],
     [
      32.6228,
      39.96219
     ],
     [
      32.62279,
      39.96209
     ],
     [
      32.62294,
      39.96206
     ],
     [
      32.62301,
      39.96206
     ],
     [
      32.62309,
      39.96205
     ],
     [
      32.62315,
      39.96205
     ],
     [
      32.62322,
      39.96205
     ],
     [
      32.62329,
      39.96206
     ],
     [
      32.62335,
      39.96207
     ],
     [
      32.62343,
      39.96209
     ],
     [
      32.6236,
      39.96214
     ],
     [
      32.6238,
      39.9622
     ],
     [
      32.62398,
      39.96227
     ],
     [
      32.62418,
      39.96236
     ],
     [
      32.62432,
      39.96243
     ],
     [
      32.62453,
      39.96255
     ],
     [
      32.62471,
      39.96268
     ],
     [
      32.62489,
      39.96283
     ],
     [
      32.62507,
      39.96301
     ],
     [
      32.62522,
      39.96321
     ],
     [
      32.62534,
      39.96339
     ],
     [
      32.62544,
      39.96361
     ],
     [
      32.6255,
      39.96375
     ],
     [
      32.62554,
      39.96391
     ],
     [
      32.62557,
      39.96407
     ],
     [
      32.62558,
      39.96423
     ],
     [
      32.62557,
      39.96441
     ],
     [
      32.62554,
      39.96459
     ],
     [
      32.62548,
      39.9648
     ],
     [
      32.62538,
      39.96501
     ],
     [
      32.62526,
      39.96521
     ],
     [
      32.62512,
      39.96538
     ],
     [
      32.62494,
      39.96557
     ],
     [
      32.62466,
      39.9658
     ],
     [
      32.6244,
      39.96596
     ],
     [
      32.6241,
      39.9661
     ],
     [
      32.62384,
      39.96618
     ],
     [
      32.62355,
      39.96625
     ],
     [
      32.62327,
      39.96628
     ],
     [
      32.62301,
      39.96629
     ],
     [
      32.62277,
      39.96627
     ],
     [
      32.6224,
      39.96625
     ],
     [
      32.62222,
      39.96623
     ],
     [
      32.62194,
      39.96619
     ],
     [
      32.62188,
      39.96617
     ],
     [
      32.62157,
      39.96603
     ],
     [
      32.62117,
      39.96584
     ],
     [
      32.62117,
      39.96579
     ],
     [
      32.62127,
      39.96571
     ],
     [
      32.62134,
      39.96565
     ],
     [
      32.62141,
      39.96558
     ],
     [
      32.62147,
      39.96553
     ],
     [
      32.6215,
      39.9655
     ],
     [
      32.62154,
      39.96546
     ],
     [
      32.62172,
      39.96528
     ],
     [
      32.62176,
      39.96524
     ],
     [
      32.62179,
      39.96521
     ],
     [
      32.6219,
      39.96508
     ],
     [
      32.62199,
      39.96497
     ],
     [
      32.62209,
      39.96483
     ],
     [
      32.6222,
      39.96468
     ],
     [
      32.62228,
      39.96456
     ],
     [
      32.62232,
      39.96448
     ],
     [
      32.62235,
      39.96443
     ],
     [
      32.62245,
      39.96426
     ]
    ]
   ]
  ]
 }
}