{
 "type": "Feature",
 "properties": {
  "isim": "Sakalar Tower",
  "kaynak": "TKGM Parsel Sorgu (CBS) verisine dayalıdır; bilgilendirme amaçlıdır, resmi kadastro belgesi yerine geçmez.",
  "adalar": [
   "47549/5"
  ]
 },
 "geometry": {
  "type": "MultiPolygon",
  "coordinates": [
   [
    [
     [
      32.61104,
      39.96039
     ],
     [
      32.61097,
      39.96051
     ],
     [
      32.6109,
      39.96063
     ],
     [
      32.61084,
      39.96074
     ],
     [
      32.61077,
      39.96088
     ],
     [
      32.61071,
      39.96101
     ],
     [
      32.61067,
      39.96111
     ],
     [
      32.6098,
      39.9608
     ],
     [
      32.61028,
      39.96001
     ],
     [
      32.61148,
      39.9598
     ],
     [
      32.61138,
      39.95992
     ],
     [
      32.61129,
      39.96003
     ],
     [
      32.6112,
      39.96015
     ],
     [
      32.61112,
      39.96027
     ],
     [
      32.61104,
      39.96039
     ]
    ]
   ]
  ]
 }
}
