{
 "type": "Feature",
 "properties": {
  "isim": "Ap İst Port",
  "kaynak": "TKGM Parsel Sorgu (CBS) verisine dayalıdır; bilgilendirme amaçlıdır, resmi kadastro belgesi yerine geçmez.",
  "adalar": [
   "62687/1"
  ]
 },
 "geometry": {
  "type": "MultiPolygon",
  "coordinates": [
   [
    [
     [
      32.65901,
      39.98092
     ],
     [
      32.65897,
      39.98086
     ],
     [
      32.65907,
      39.98053
     ],
     [
      32.65911,
      39.9805
     ],
     [
      32.66144,
      39.98033
     ],
     [
      32.66165,
      39.98045
     ],
     [
      32.66165,
      39.98063
     ],
     [
      32.66155,
      39.98146
     ],
     [
      32.66145,
      39.98151
     ],
     [
      32.65901,
      39.98092
     ]
    ]
   ]
  ]
 }
}
