{
 "type": "Feature",
 "properties": {
  "isim": "Astim Flora Evleri",
  "kaynak": "TKGM Parsel Sorgu (CBS) verisine dayalıdır; bilgilendirme amaçlıdır, resmi kadastro belgesi yerine geçmez.",
  "adalar": [
   "43267/1"
  ]
 },
 "geometry": {
  "type": "MultiPolygon",
  "coordinates": [
   [
    [
     [
      32.68844,
      39.9866
     ],
     [
      32.6884,
      39.98659
     ],
     [
      32.68828,
      39.98598
     ],
     [
      32.68925,
      39.9859
     ],
     [
      32.68936,
      39.98642
     ],
     [
      32.68934,
      39.98645
     ],
     [
      32.68844,
      39.9866
     ]
    ]
   ]
  ]
 }
}