{
 "type": "Feature",
 "properties": {
  "isim": "Ata Yıldız Batı Konutları",
  "kaynak": "TKGM Parsel Sorgu (CBS) verisine dayalıdır; bilgilendirme amaçlıdır, resmi kadastro belgesi yerine geçmez.",
  "adalar": [
   "62660/1"
  ]
 },
 "geometry": {
  "type": "MultiPolygon",
  "coordinates": [
   [
    [
     [
      32.66599,
      39.98859
     ],
     [
      32.66604,
      39.98871
     ],
     [
      32.66617,
      39.98917
     ],
     [
      32.66582,
      39.9895
     ],
     [
      32.66514,
      39.98966
     ],
     [
      32.66503,
      39.9888
     ],
     [
      32.66599,
      39.98859
     ]
    ]
   ]
  ]
 }
}