{
 "type": "Feature",
 "properties": {
  "isim": "Başakşehir Ankara Konutları",
  "kaynak": "TKGM Parsel Sorgu (CBS) verisine dayalıdır; bilgilendirme amaçlıdır, resmi kadastro belgesi yerine geçmez.",
  "adalar": [
   "62673/1"
  ]
 },
 "geometry": {
  "type": "MultiPolygon",
  "coordinates": [
   [
    [
     [
      32.65825,
      39.9867
     ],
     [
      32.65818,
      39.98673
     ],
     [
      32.65732,
      39.98657
     ],
     [
      32.65725,
      39.98649
     ],
     [
      32.65754,
      39.98554
     ],
     [
      32.65755,
      39.98551
     ],
     [
      32.65757,
      39.98548
     ],
     [
      32.65759,
      39.98546
     ],
     [
      32.65761,
      39.98543
     ],
     [
      32.65763,
      39.98541
     ],
     [
      32.65766,
      39.98539
     ],
     [
      32.65769,
      39.98537
     ],
     [
      32.65772,
      39.98535
     ],
     [
      32.65795,
      39.98524
     ],
     [
      32.65798,
      39.98523
     ],
     [
      32.65801,
      39.98522
     ],
     [
      32.65804,
      39.98521
     ],
     [
      32.65807,
      39.98521
     ],
     [
      32.6581,
      39.98521
     ],
     [
      32.65813,
      39.98521
     ],
     [
      32.65816,
      39.98521
     ],
     [
      32.65819,
      39.98521
     ],
     [
      32.6588,
      39.98533
     ],
     [
      32.65895,
      39.98544
     ],
     [
      32.65895,
      39.98558
     ],
     [
      32.65847,
      39.98602
     ],
     [
      32.65842,
      39.98609
     ],
     [
      32.65825,
      39.9867
     ]
    ]
   ]
  ]
 }
}