{
 "type": "Feature",
 "properties": {
  "isim": "Batıhan Konutları",
  "kaynak": "TKGM Parsel Sorgu (CBS) verisine dayalıdır; bilgilendirme amaçlıdır, resmi kadastro belgesi yerine geçmez.",
  "adalar": [
   "43255/2"
  ]
 },
 "geometry": {
  "type": "MultiPolygon",
  "coordinates": [
   [
    [
     [
      32.68922,
      39.98306
     ],
     [
      32.68859,
      39.98305
     ],
     [
      32.68861,
      39.9823
     ],
     [
      32.68889,
      39.98231
     ],
     [
      32.6895,
      39.98287
     ],
     [
      32.68949,
      39.98292
     ],
     [
      32.68922,
      39.98306
     ]
    ]
   ]
  ]
 }
}
