{
 "type": "Feature",
 "properties": {
  "isim": "Botanik Evleri",
  "kaynak": "TKGM Parsel Sorgu (CBS) verisine dayalıdır; bilgilendirme amaçlıdır, resmi kadastro belgesi yerine geçmez.",
  "adalar": [
   "43253/6"
  ]
 },
 "geometry": {
  "type": "MultiPolygon",
  "coordinates": [
   [
    [
     [
      32.68953,
      39.98616
     ],
     [
      32.6906,
      39.98607
     ],
     [
      32.69076,
      39.98678
     ],
     [
      32.69053,
      39.98677
     ],
     [
      32.68957,
      39.98673
     ],
     [
      32.68956,
      39.98652
     ],
     [
      32.6895,
      39.9862
     ],
     [
      32.68953,
      39.98616
     ]
    ]
   ]
  ]
 }
}
