{
 "type": "Feature",
 "properties": {
  "isim": "Çakırpark",
  "kaynak": "TKGM Parsel Sorgu (CBS) verisine dayalıdır; bilgilendirme amaçlıdır, resmi kadastro belgesi yerine geçmez.",
  "adalar": [
   "43264/5"
  ]
 },
 "geometry": {
  "type": "MultiPolygon",
  "coordinates": [
   [
    [
     [
      32.68583,
      39.98797
     ],
     [
      32.68577,
      39.9879
     ],
     [
      32.68575,
      39.98785
     ],
     [
      32.6857,
      39.98774
     ],
     [
      32.68559,
      39.98755
     ],
     [
      32.68601,
      39.98743
     ],
     [
      32.68678,
      39.98721
     ],
     [
      32.68688,
      39.98767
     ],
     [
      32.68583,
      39.98797
     ]
    ]
   ]
  ]
 }
}
