{
 "type": "Feature",
 "properties": {
  "isim": "Gülbaran Residence",
  "kaynak": "TKGM Parsel Sorgu (CBS) verisine dayalıdır; bilgilendirme amaçlıdır, resmi kadastro belgesi yerine geçmez.",
  "adalar": [
   "62655/1"
  ]
 },
 "geometry": {
  "type": "MultiPolygon",
  "coordinates": [
   [
    [
     [
      32.65691,
      39.99066
     ],
     [
      32.6568,
      39.99062
     ],
     [
      32.65671,
      39.99058
     ],
     [
      32.65662,
      39.99053
     ],
     [
      32.65654,
      39.99047
     ],
     [
      32.65646,
      39.99041
     ],
     [
      32.65639,
      39.99035
     ],
     [
      32.65628,
      39.99022
     ],
     [
      32.65622,
      39.99004
     ],
     [
      32.6563,
      39.98957
     ],
     [
      32.65665,
      39.98933
     ],
     [
      32.65671,
      39.98937
     ],
     [
      32.65678,
      39.98941
     ],
     [
      32.65686,
      39.98944
     ],
     [
      32.65694,
      39.98947
     ],
     [
      32.65702,
      39.98949
     ],
     [
      32.65711,
      39.98951
     ],
     [
      32.65715,
      39.98951
     ],
     [
      32.65727,
      39.99064
     ],
     [
      32.65691,
      39.99066
     ]
    ]
   ]
  ]
 }
}