{
 "type": "Feature",
 "properties": {
  "isim": "Güney Park Evleri",
  "kaynak": "TKGM Parsel Sorgu (CBS) verisine dayalıdır; bilgilendirme amaçlıdır, resmi kadastro belgesi yerine geçmez.",
  "adalar": [
   "43268/2"
  ]
 },
 "geometry": {
  "type": "MultiPolygon",
  "coordinates": [
   [
    [
     [
      32.68828,
      39.98776
     ],
     [
      32.68804,
      39.98673
     ],
     [
      32.68873,
      39.98662
     ],
     [
      32.68894,
      39.98756
     ],
     [
      32.68888,
      39.98759
     ],
     [
      32.68877,
      39.98763
     ],
     [
      32.68828,
      39.98776
     ]
    ]
   ]
  ]
 }
}
