{
 "type": "Feature",
 "properties": {
  "isim": "Kaşmir Yonca",
  "kaynak": "TKGM Parsel Sorgu (CBS) verisine dayalıdır; bilgilendirme amaçlıdır, resmi kadastro belgesi yerine geçmez.",
  "adalar": [
   "63271/2"
  ]
 },
 "geometry": {
  "type": "MultiPolygon",
  "coordinates": [
   [
    [
     [
      32.6575,
      39.99584
     ],
     [
      32.65613,
      39.99587
     ],
     [
      32.65602,
      39.99579
     ],
     [
      32.65584,
      39.99406
     ],
     [
      32.65585,
      39.99394
     ],
     [
      32.65588,
      39.99383
     ],
     [
      32.65592,
      39.99372
     ],
     [
      32.65599,
      39.99362
     ],
     [
      32.65608,
      39.99352
     ],
     [
      32.65633,
      39.99328
     ],
     [
      32.65752,
      39.99371
     ],
     [
      32.6575,
      39.99584
     ]
    ]
   ]
  ]
 }
}