{
 "type": "Feature",
 "properties": {
  "isim": "Motto Göksu",
  "kaynak": "TKGM Parsel Sorgu (CBS) verisine dayalıdır; bilgilendirme amaçlıdır, resmi kadastro belgesi yerine geçmez.",
  "adalar": [
   "62656/1"
  ]
 },
 "geometry": {
  "type": "MultiPolygon",
  "coordinates": [
   [
    [
     [
      32.65912,
      39.98954
     ],
     [
      32.65929,
      39.98938
     ],
     [
      32.65986,
      39.98934
     ],
     [
      32.65998,
      39.99045
     ],
     [
      32.65922,
      39.9905
     ],
     [
      32.65912,
      39.98954
     ]
    ]
   ]
  ]
 }
}