{
 "type": "Feature",
 "properties": {
  "isim": "Natura Göksu",
  "kaynak": "TKGM Parsel Sorgu (CBS) verisine dayalıdır; bilgilendirme amaçlıdır, resmi kadastro belgesi yerine geçmez.",
  "adalar": [
   "63262/3"
  ]
 },
 "geometry": {
  "type": "MultiPolygon",
  "coordinates": [
   [
    [
     [
      32.66213,
      39.99439
     ],
     [
      32.66307,
      39.99332
     ],
     [
      32.66318,
      39.99327
     ],
     [
      32.66363,
      39.99326
     ],
     [
      32.66367,
      39.99328
     ],
     [
      32.66379,
      39.99512
     ],
     [
      32.66213,
      39.99439
     ]
    ]
   ]
  ]
 }
}
