{
 "type": "Feature",
 "properties": {
  "isim": "Natural Konutları",
  "kaynak": "TKGM Parsel Sorgu (CBS) verisine dayalıdır; bilgilendirme amaçlıdır, resmi kadastro belgesi yerine geçmez.",
  "adalar": [
   "62660/2"
  ]
 },
 "geometry": {
  "type": "MultiPolygon",
  "coordinates": [
   [
    [
     [
      32.66465,
      39.98734
     ],
     [
      32.66584,
      39.98842
     ],
     [
      32.66599,
      39.98859
     ],
     [
      32.66503,
      39.9888
     ],
     [
      32.66501,
      39.98863
     ],
     [
      32.66495,
      39.98852
     ],
     [
      32.66488,
      39.98841
     ],
     [
      32.6648,
      39.98831
     ],
     [
      32.66471,
      39.98822
     ],
     [
      32.66461,
      39.98814
     ],
     [
      32.66409,
      39.98773
     ],
     [
      32.66409,
      39.98767
     ],
     [
      32.66419,
      39.98758
     ],
     [
      32.66423,
      39.98751
     ],
     [
      32.66422,
      39.98741
     ],
     [
      32.66465,
      39.98734
     ]
    ]
   ]
  ]
 }
}