{
 "type": "Feature",
 "properties": {
  "isim": "Nover WestLife",
  "kaynak": "TKGM Parsel Sorgu (CBS) verisine dayalıdır; bilgilendirme amaçlıdır, resmi kadastro belgesi yerine geçmez.",
  "adalar": [
   "62661/1"
  ]
 },
 "geometry": {
  "type": "MultiPolygon",
  "coordinates": [
   [
    [
     [
      32.66309,
      39.98721
     ],
     [
      32.66379,
      39.98776
     ],
     [
      32.66337,
      39.9881
     ],
     [
      32.66291,
      39.9881
     ],
     [
      32.66246,
      39.98775
     ],
     [
      32.66309,
      39.98721
     ]
    ]
   ]
  ]
 }
}
