{
 "type": "Feature",
 "properties": {
  "isim": "Ütopya Konutları",
  "kaynak": "TKGM Parsel Sorgu (CBS) verisine dayalıdır; bilgilendirme amaçlıdır, resmi kadastro belgesi yerine geçmez.",
  "adalar": [
   "62676/1"
  ]
 },
 "geometry": {
  "type": "MultiPolygon",
  "coordinates": [
   [
    [
     [
      32.65989,
      39.98492
     ],
     [
      32.65982,
      39.98495
     ],
     [
      32.6597,
      39.98501
     ],
     [
      32.65956,
      39.98505
     ],
     [
      32.65947,
      39.98506
     ],
     [
      32.65938,
      39.98507
     ],
     [
      32.6592,
      39.98507
     ],
     [
      32.65828,
      39.98491
     ],
     [
      32.65824,
      39.9849
     ],
     [
      32.65821,
      39.98489
     ],
     [
      32.65818,
      39.98487
     ],
     [
      32.65815,
      39.98486
     ],
     [
      32.65812,
      39.98484
     ],
     [
      32.65809,
      39.98482
     ],
     [
      32.65807,
      39.9848
     ],
     [
      32.65805,
      39.98478
     ],
     [
      32.65796,
      39.98466
     ],
     [
      32.65793,
      39.98463
     ],
     [
      32.65792,
      39.9846
     ],
     [
      32.6579,
      39.98457
     ],
     [
      32.65789,
      39.98453
     ],
     [
      32.65789,
      39.9845
     ],
     [
      32.65789,
      39.98446
     ],
     [
      32.65789,
      39.98443
     ],
     [
      32.65793,
      39.98428
     ],
     [
      32.65803,
      39.98423
     ],
     [
      32.65944,
      39.98446
     ],
     [
      32.65989,
      39.9848
     ],
     [
      32.65989,
      39.98492
     ]
    ]
   ]
  ]
 }
}