{
 "type": "Feature",
 "properties": {
  "isim": "Wind Göksu",
  "kaynak": "TKGM Parsel Sorgu (CBS) verisine dayalıdır; bilgilendirme amaçlıdır, resmi kadastro belgesi yerine geçmez.",
  "adalar": [
   "62659/2"
  ]
 },
 "geometry": {
  "type": "MultiPolygon",
  "coordinates": [
   [
    [
     [
      32.6647,
      39.98837
     ],
     [
      32.66478,
      39.98846
     ],
     [
      32.66484,
      39.98856
     ],
     [
      32.66489,
      39.98866
     ],
     [
      32.66496,
      39.98913
     ],
     [
      32.66392,
      39.98927
     ],
     [
      32.66391,
      39.98918
     ],
     [
      32.66389,
      39.9891
     ],
     [
      32.66386,
      39.98902
     ],
     [
      32.66383,
      39.98894
     ],
     [
      32.66378,
      39.98887
     ],
     [
      32.66376,
      39.98884
     ],
     [
      32.6647,
      39.98837
     ]
    ]
   ]
  ]
 }
}