{
 "type": "Feature",
 "properties": {
  "isim": "Zirveden Batı",
  "kaynak": "TKGM Parsel Sorgu (CBS) verisine dayalıdır; bilgilendirme amaçlıdır, resmi kadastro belgesi yerine geçmez.",
  "adalar": [
   "63261/1"
  ]
 },
 "geometry": {
  "type": "MultiPolygon",
  "coordinates": [
   [
    [
     [
      32.66305,
      39.99789
     ],
     [
      32.66298,
      39.99779
     ],
     [
      32.66312,
      39.9973
     ],
     [
      32.6632,
      39.9971
     ],
     [
      32.66435,
      39.99748
     ],
     [
      32.66448,
      39.99728
     ],
     [
      32.66534,
      39.99757
     ],
     [
      32.66559,
      39.99765
     ],
     [
      32.66507,
      39.99856
     ],
     [
      32.66305,
      39.99789
     ]
    ]
   ]
  ]
 }
}
