{
 "type": "Feature",
 "properties": {
  "isim": "Akonur Sitesi",
  "kaynak": "TKGM Parsel Sorgu (CBS) verisine dayalıdır; bilgilendirme amaçlıdır, resmi kadastro belgesi yerine geçmez.",
  "adalar": [
   "46195/1"
  ]
 },
 "geometry": {
  "type": "MultiPolygon",
  "coordinates": [
   [
    [
     [
      32.62305,
      40.00965
     ],
     [
      32.62302,
      40.01001
     ],
     [
      32.62228,
      40.00998
     ],
     [
      32.6217,
      40.00995
     ],
     [
      32.62112,
      40.00992
     ],
     [
      32.62053,
      40.00989
     ],
     [
      32.62037,
      40.00947
     ],
     [
      32.62022,
      40.00908
     ],
     [
      32.62075,
      40.00911
     ],
     [
      32.62134,
      40.00915
     ],
     [
      32.62192,
      40.00918
     ],
     [
      32.6225,
      40.00922
     ],
     [
      32.62309,
      40.00926
     ],
     [
      32.62305,
      40.00965
     ]
    ]
   ]
  ]
 }
}