{
 "type": "Feature",
 "properties": {
  "isim": "Alkon Sitesi",
  "kaynak": "TKGM Parsel Sorgu (CBS) verisine dayalıdır; bilgilendirme amaçlıdır, resmi kadastro belgesi yerine geçmez.",
  "adalar": [
   "46214/1"
  ]
 },
 "geometry": {
  "type": "MultiPolygon",
  "coordinates": [
   [
    [
     [
      32.62057,
      40.00456
     ],
     [
      32.62122,
      40.00446
     ],
     [
      32.6218,
      40.00438
     ],
     [
      32.62186,
      40.00437
     ],
     [
      32.62192,
      40.00438
     ],
     [
      32.6224,
      40.00464
     ],
     [
      32.62295,
      40.00494
     ],
     [
      32.6229,
      40.005
     ],
     [
      32.62255,
      40.00538
     ],
     [
      32.62222,
      40.00575
     ],
     [
      32.62167,
      40.00558
     ],
     [
      32.62102,
      40.00537
     ],
     [
      32.62043,
      40.00536
     ],
     [
      32.62046,
      40.00509
     ],
     [
      32.62049,
      40.00464
     ],
     [
      32.62057,
      40.00456
     ]
    ]
   ]
  ]
 }
}