{
 "type": "Feature",
 "properties": {
  "isim": "Anemon Sitesi",
  "kaynak": "TKGM Parsel Sorgu (CBS) verisine dayalıdır; bilgilendirme amaçlıdır, resmi kadastro belgesi yerine geçmez.",
  "adalar": [
   "46424/1"
  ]
 },
 "geometry": {
  "type": "MultiPolygon",
  "coordinates": [
   [
    [
     [
      32.61792,
      40.0074
     ],
     [
      32.61805,
      40.00612
     ],
     [
      32.61956,
      40.00622
     ],
     [
      32.61936,
      40.00751
     ],
     [
      32.61792,
      40.0074
     ]
    ]
   ]
  ]
 }
}