{
 "type": "Feature",
 "properties": {
  "isim": "Ataşehir Eryaman Konutları",
  "kaynak": "TKGM Parsel Sorgu (CBS) verisine dayalıdır; bilgilendirme amaçlıdır, resmi kadastro belgesi yerine geçmez.",
  "adalar": [
   "46412/1"
  ]
 },
 "geometry": {
  "type": "MultiPolygon",
  "coordinates": [
   [
    [
     [
      32.61469,
      40.01071
     ],
     [
      32.61489,
      40.00998
     ],
     [
      32.61508,
      40.00988
     ],
     [
      32.61551,
      40.00983
     ],
     [
      32.61565,
      40.00979
     ],
     [
      32.61577,
      40.00974
     ],
     [
      32.61588,
      40.00969
     ],
     [
      32.616,
      40.00963
     ],
     [
      32.61667,
      40.00915
     ],
     [
      32.61677,
      40.00916
     ],
     [
      32.61733,
      40.00961
     ],
     [
      32.61733,
      40.00967
     ],
     [
      32.61731,
      40.00974
     ],
     [
      32.61676,
      40.01012
     ],
     [
      32.61669,
      40.0108
     ],
     [
      32.61473,
      40.01074
     ],
     [
      32.61469,
      40.01071
     ]
    ]
   ]
  ]
 }
}