{
 "type": "Feature",
 "properties": {
  "isim": "Aydınkent Sitesi",
  "kaynak": "TKGM Parsel Sorgu (CBS) verisine dayalıdır; bilgilendirme amaçlıdır, resmi kadastro belgesi yerine geçmez.",
  "adalar": [
   "46191/1"
  ]
 },
 "geometry": {
  "type": "MultiPolygon",
  "coordinates": [
   [
    [
     [
      32.62437,
      40.01241
     ],
     [
      32.62366,
      40.01238
     ],
     [
      32.62296,
      40.01235
     ],
     [
      32.623,
      40.01189
     ],
     [
      32.62303,
      40.01144
     ],
     [
      32.62307,
      40.01099
     ],
     [
      32.62311,
      40.01094
     ],
     [
      32.62375,
      40.01096
     ],
     [
      32.62433,
      40.01097
     ],
     [
      32.62438,
      40.01102
     ],
     [
      32.62438,
      40.01151
     ],
     [
      32.62438,
      40.01196
     ],
     [
      32.62437,
      40.01241
     ]
    ]
   ]
  ]
 }
}