{
 "type": "Feature",
 "properties": {
  "isim": "Başkent Sitesi",
  "kaynak": "TKGM Parsel Sorgu (CBS) verisine dayalıdır; bilgilendirme amaçlıdır, resmi kadastro belgesi yerine geçmez.",
  "adalar": [
   "45832/1"
  ]
 },
 "geometry": {
  "type": "MultiPolygon",
  "coordinates": [
   [
    [
     [
      32.61039,
      40.00547
     ],
     [
      32.6103,
      40.00551
     ],
     [
      32.6095,
      40.00534
     ],
     [
      32.60996,
      40.00383
     ],
     [
      32.61076,
      40.004
     ],
     [
      32.61082,
      40.00405
     ],
     [
      32.61039,
      40.00547
     ]
    ]
   ]
  ]
 }
}