{
 "type": "Feature",
 "properties": {
  "isim": "Belören Manzara Evleri",
  "kaynak": "TKGM Parsel Sorgu (CBS) verisine dayalıdır; bilgilendirme amaçlıdır, resmi kadastro belgesi yerine geçmez.",
  "adalar": [
   "44780/2"
  ]
 },
 "geometry": {
  "type": "MultiPolygon",
  "coordinates": [
   [
    [
     [
      32.59616,
      40.00181
     ],
     [
      32.59576,
      40.00091
     ],
     [
      32.59652,
      40.00075
     ],
     [
      32.59707,
      40.00148
     ],
     [
      32.59705,
      40.00158
     ],
     [
      32.59616,
      40.00181
     ]
    ]
   ]
  ]
 }
}
