{
 "type": "Feature",
 "properties": {
  "isim": "Çağdaş Onur Sitesi",
  "kaynak": "TKGM Parsel Sorgu (CBS) verisine dayalıdır; bilgilendirme amaçlıdır, resmi kadastro belgesi yerine geçmez.",
  "adalar": [
   "45834/3"
  ]
 },
 "geometry": {
  "type": "MultiPolygon",
  "coordinates": [
   [
    [
     [
      32.60786,
      40.00422
     ],
     [
      32.60844,
      40.00383
     ],
     [
      32.60855,
      40.00353
     ],
     [
      32.60894,
      40.00361
     ],
     [
      32.60861,
      40.00468
     ],
     [
      32.60776,
      40.00452
     ],
     [
      32.60786,
      40.00422
     ]
    ]
   ]
  ]
 }
}
