{
 "type": "Feature",
 "properties": {
  "isim": "Çağlar Belde Sitesi",
  "kaynak": "TKGM Parsel Sorgu (CBS) verisine dayalıdır; bilgilendirme amaçlıdır, resmi kadastro belgesi yerine geçmez.",
  "adalar": [
   "44763/4"
  ]
 },
 "geometry": {
  "type": "MultiPolygon",
  "coordinates": [
   [
    [
     [
      32.59751,
      40.00297
     ],
     [
      32.59662,
      40.00178
     ],
     [
      32.59712,
      40.00165
     ],
     [
      32.59721,
      40.00167
     ],
     [
      32.59798,
      40.00269
     ],
     [
      32.59796,
      40.0028
     ],
     [
      32.59751,
      40.00297
     ]
    ]
   ]
  ]
 }
}