{
 "type": "Feature",
 "properties": {
  "isim": "Çiğdem Sitesi",
  "kaynak": "TKGM Parsel Sorgu (CBS) verisine dayalıdır; bilgilendirme amaçlıdır, resmi kadastro belgesi yerine geçmez.",
  "adalar": [
   "45835/1"
  ]
 },
 "geometry": {
  "type": "MultiPolygon",
  "coordinates": [
   [
    [
     [
      32.60714,
      40.00486
     ],
     [
      32.60649,
      40.00472
     ],
     [
      32.60634,
      40.00453
     ],
     [
      32.60667,
      40.00319
     ],
     [
      32.60675,
      40.00315
     ],
     [
      32.60763,
      40.00334
     ],
     [
      32.60714,
      40.00486
     ]
    ]
   ]
  ]
 }
}
