{
 "type": "Feature",
 "properties": {
  "isim": "Doğasu Elmaslar Evleri",
  "kaynak": "TKGM Parsel Sorgu (CBS) verisine dayalıdır; bilgilendirme amaçlıdır, resmi kadastro belgesi yerine geçmez.",
  "adalar": [
   "44756/1"
  ]
 },
 "geometry": {
  "type": "MultiPolygon",
  "coordinates": [
   [
    [
     [
      32.60524,
      40.00442
     ],
     [
      32.60555,
      40.00321
     ],
     [
      32.60639,
      40.00334
     ],
     [
      32.60611,
      40.00449
     ],
     [
      32.60587,
      40.00455
     ],
     [
      32.60524,
      40.00442
     ]
    ]
   ]
  ]
 }
}