{
 "type": "Feature",
 "properties": {
  "isim": "Gold Stone Evleri",
  "kaynak": "TKGM Parsel Sorgu (CBS) verisine dayalıdır; bilgilendirme amaçlıdır, resmi kadastro belgesi yerine geçmez.",
  "adalar": [
   "46411/1"
  ]
 },
 "geometry": {
  "type": "MultiPolygon",
  "coordinates": [
   [
    [
     [
      32.61661,
      40.0121
     ],
     [
      32.61586,
      40.0121
     ],
     [
      32.61437,
      40.01181
     ],
     [
      32.61463,
      40.01092
     ],
     [
      32.61469,
      40.01083
     ],
     [
      32.61669,
      40.01089
     ],
     [
      32.61661,
      40.0121
     ]
    ]
   ]
  ]
 }
}
