{
 "type": "Feature",
 "properties": {
  "isim": "Güldede Sitesi",
  "kaynak": "TKGM Parsel Sorgu (CBS) verisine dayalıdır; bilgilendirme amaçlıdır, resmi kadastro belgesi yerine geçmez.",
  "adalar": [
   "44754/3"
  ]
 },
 "geometry": {
  "type": "MultiPolygon",
  "coordinates": [
   [
    [
     [
      32.6023,
      40.00275
     ],
     [
      32.60313,
      40.00231
     ],
     [
      32.60377,
      40.00197
     ],
     [
      32.60407,
      40.0023
     ],
     [
      32.60257,
      40.00309
     ],
     [
      32.6023,
      40.00275
     ]
    ]
   ]
  ]
 }
}