{
 "type": "Feature",
 "properties": {
  "isim": "Hürev Yapı Kooperatifi",
  "kaynak": "TKGM Parsel Sorgu (CBS) verisine dayalıdır; bilgilendirme amaçlıdır, resmi kadastro belgesi yerine geçmez.",
  "adalar": [
   "44774/3"
  ]
 },
 "geometry": {
  "type": "MultiPolygon",
  "coordinates": [
   [
    [
     [
      32.60138,
      39.99931
     ],
     [
      32.60194,
      39.99994
     ],
     [
      32.60192,
      40.00003
     ],
     [
      32.60066,
      40.00065
     ],
     [
      32.60056,
      40.00064
     ],
     [
      32.60004,
      39.99998
     ],
     [
      32.60138,
      39.99931
     ]
    ]
   ]
  ]
 }
}
