{
 "type": "Feature",
 "properties": {
  "isim": "Mavi Bayrak Sitesi",
  "kaynak": "TKGM Parsel Sorgu (CBS) verisine dayalıdır; bilgilendirme amaçlıdır, resmi kadastro belgesi yerine geçmez.",
  "adalar": [
   "44773/3"
  ]
 },
 "geometry": {
  "type": "MultiPolygon",
  "coordinates": [
   [
    [
     [
      32.60101,
      39.99888
     ],
     [
      32.59969,
      39.99954
     ],
     [
      32.59929,
      39.99903
     ],
     [
      32.59924,
      39.99895
     ],
     [
      32.59921,
      39.99887
     ],
     [
      32.5992,
      39.99879
     ],
     [
      32.59922,
      39.99872
     ],
     [
      32.59936,
      39.99849
     ],
     [
      32.60013,
      39.99801
     ],
     [
      32.60026,
      39.99802
     ],
     [
      32.60101,
      39.99888
     ]
    ]
   ]
  ]
 }
}
