{
 "type": "Feature",
 "properties": {
  "isim": "Özkardeşler Sitesi",
  "kaynak": "TKGM Parsel Sorgu (CBS) verisine dayalıdır; bilgilendirme amaçlıdır, resmi kadastro belgesi yerine geçmez.",
  "adalar": [
   "46212/2"
  ]
 },
 "geometry": {
  "type": "MultiPolygon",
  "coordinates": [
   [
    [
     [
      32.62221,
      40.00591
     ],
     [
      32.62305,
      40.00636
     ],
     [
      32.62349,
      40.00587
     ],
     [
      32.62387,
      40.00544
     ],
     [
      32.62442,
      40.00575
     ],
     [
      32.62443,
      40.00579
     ],
     [
      32.62401,
      40.00626
     ],
     [
      32.62367,
      40.00663
     ],
     [
      32.62334,
      40.007
     ],
     [
      32.62268,
      40.00695
     ],
     [
      32.62209,
      40.0069
     ],
     [
      32.62151,
      40.00686
     ],
     [
      32.62147,
      40.00674
     ],
     [
      32.62221,
      40.00591
     ]
    ]
   ]
  ]
 }
}