{
 "type": "Feature",
 "properties": {
  "isim": "Panorama Gold",
  "kaynak": "TKGM Parsel Sorgu (CBS) verisine dayalıdır; bilgilendirme amaçlıdır, resmi kadastro belgesi yerine geçmez.",
  "adalar": [
   "44765/1"
  ]
 },
 "geometry": {
  "type": "MultiPolygon",
  "coordinates": [
   [
    [
     [
      32.5989,
      40.00096
     ],
     [
      32.59996,
      40.00043
     ],
     [
      32.60006,
      40.00044
     ],
     [
      32.60072,
      40.00128
     ],
     [
      32.6007,
      40.00138
     ],
     [
      32.59969,
      40.00192
     ],
     [
      32.59956,
      40.00191
     ],
     [
      32.59888,
      40.00107
     ],
     [
      32.5989,
      40.00096
     ]
    ]
   ]
  ]
 }
}
