{
 "type": "Feature",
 "properties": {
  "isim": "Panorama Garden",
  "kaynak": "TKGM Parsel Sorgu (CBS) verisine dayalıdır; bilgilendirme amaçlıdır, resmi kadastro belgesi yerine geçmez.",
  "adalar": [
   "44779/1"
  ]
 },
 "geometry": {
  "type": "MultiPolygon",
  "coordinates": [
   [
    [
     [
      32.5986,
      40.00099
     ],
     [
      32.59738,
      40.00147
     ],
     [
      32.59724,
      40.00144
     ],
     [
      32.59649,
      40.00044
     ],
     [
      32.59652,
      40.00037
     ],
     [
      32.59782,
      40.00009
     ],
     [
      32.59792,
      40.00012
     ],
     [
      32.59862,
      40.00093
     ],
     [
      32.5986,
      40.00099
     ]
    ]
   ]
  ]
 }
}
