{
 "type": "Feature",
 "properties": {
  "isim": "Paşa Evleri",
  "kaynak": "TKGM Parsel Sorgu (CBS) verisine dayalıdır; bilgilendirme amaçlıdır, resmi kadastro belgesi yerine geçmez.",
  "adalar": [
   "44753/1"
  ]
 },
 "geometry": {
  "type": "MultiPolygon",
  "coordinates": [
   [
    [
     [
      32.60462,
      40.00291
     ],
     [
      32.60479,
      40.0031
     ],
     [
      32.60481,
      40.0032
     ],
     [
      32.60468,
      40.00352
     ],
     [
      32.60459,
      40.0037
     ],
     [
      32.60443,
      40.00392
     ],
     [
      32.6042,
      40.00418
     ],
     [
      32.60411,
      40.00419
     ],
     [
      32.60376,
      40.00412
     ],
     [
      32.60369,
      40.0041
     ],
     [
      32.60353,
      40.00401
     ],
     [
      32.6031,
      40.00371
     ],
     [
      32.60462,
      40.00291
     ]
    ]
   ]
  ]
 }
}
