{
 "type": "Feature",
 "properties": {
  "isim": "Rüyakent Sitesi",
  "kaynak": "TKGM Parsel Sorgu (CBS) verisine dayalıdır; bilgilendirme amaçlıdır, resmi kadastro belgesi yerine geçmez.",
  "adalar": [
   "44768/3"
  ]
 },
 "geometry": {
  "type": "MultiPolygon",
  "coordinates": [
   [
    [
     [
      32.60134,
      39.99909
     ],
     [
      32.6027,
      39.99842
     ],
     [
      32.60361,
      39.99945
     ],
     [
      32.60294,
      40.00018
     ],
     [
      32.60255,
      40.00038
     ],
     [
      32.60245,
      40.00037
     ],
     [
      32.60184,
      39.99967
     ],
     [
      32.60134,
      39.99909
     ]
    ]
   ]
  ]
 }
}