{
 "type": "Feature",
 "properties": {
  "isim": "Şelale Sitesi",
  "kaynak": "TKGM Parsel Sorgu (CBS) verisine dayalıdır; bilgilendirme amaçlıdır, resmi kadastro belgesi yerine geçmez.",
  "adalar": [
   "46196/4"
  ]
 },
 "geometry": {
  "type": "MultiPolygon",
  "coordinates": [
   [
    [
     [
      32.62453,
      40.00809
     ],
     [
      32.62448,
      40.00848
     ],
     [
      32.62328,
      40.0084
     ],
     [
      32.62332,
      40.00804
     ],
     [
      32.62336,
      40.00801
     ],
     [
      32.62404,
      40.00805
     ],
     [
      32.62453,
      40.00809
     ]
    ]
   ]
  ]
 }
}
