{
 "type": "Feature",
 "properties": {
  "isim": "Şenser Sitesi",
  "kaynak": "TKGM Parsel Sorgu (CBS) verisine dayalıdır; bilgilendirme amaçlıdır, resmi kadastro belgesi yerine geçmez.",
  "adalar": [
   "44759/1"
  ]
 },
 "geometry": {
  "type": "MultiPolygon",
  "coordinates": [
   [
    [
     [
      32.60496,
      40.00038
     ],
     [
      32.60332,
      40.00123
     ],
     [
      32.60324,
      40.00122
     ],
     [
      32.60272,
      40.00064
     ],
     [
      32.60276,
      40.00055
     ],
     [
      32.60315,
      40.00034
     ],
     [
      32.60404,
      39.99937
     ],
     [
      32.60411,
      39.99937
     ],
     [
      32.60499,
      40.00031
     ],
     [
      32.60496,
      40.00038
     ]
    ]
   ]
  ]
 }
}