{
  "type": "Feature",
  "properties": {
    "isim": "Age Sitesi (46494 Ada, 2 Parsel)",
    "kaynak": "TKGM Parsel Sorgu ekran görüntüsünden türetilmiş tahmini sınır (gerçek kadastro verisi değil)"
  },
  "geometry": {
    "type": "Polygon",
    "coordinates": [
      [
        [
          32.632519,
          39.986017
        ],
        [
          32.632058,
          39.985762
        ],
        [
          32.631715,
          39.984433
        ],
        [
          32.63275,
          39.983298
        ],
        [
          32.633917,
          39.983311
        ],
        [
          32.634019,
          39.983391
        ],
        [
          32.63389,
          39.984455
        ],
        [
          32.633219,
          39.98442
        ],
        [
          32.633222,
          39.984499
        ],
        [
          32.633321,
          39.984499
        ],
        [
          32.633327,
          39.984441
        ],
        [
          32.633885,
          39.984478
        ],
        [
          32.633842,
          39.984737
        ],
        [
          32.632656,
          39.986001
        ],
        [
          32.632519,
          39.986017
        ]
      ]
    ]
  }
}