{
  "type": "Feature",
  "properties": {
    "isim": "Camlı Klima Blokları",
    "kaynak": "TKGM Parsel Sorgu ekran görüntüsünden türetilmiş tahmini sınır (gerçek kadastro verisi değil)",
    "adalar": [
      "17632/1",
      "17621/1",
      "17622/1",
      "17623/1",
      "17629/1",
      "17630/1",
      "17631/1"
    ]
  },
  "geometry": {
    "type": "MultiPolygon",
    "coordinates": [
      [
        [
          [
            32.620184,
            39.987984
          ],
          [
            32.619527,
            39.987533
          ],
          [
            32.619085,
            39.988215
          ],
          [
            32.619841,
            39.988507
          ],
          [
            32.620184,
            39.987984
          ]
        ]
      ],
      [
        [
          [
            32.619154,
            39.991005
          ],
          [
            32.618589,
            39.990791
          ],
          [
            32.618088,
            39.990931
          ],
          [
            32.617916,
            39.991285
          ],
          [
            32.618789,
            39.991598
          ],
          [
            32.619154,
            39.991005
          ]
        ]
      ],
      [
        [
          [
            32.620042,
            39.991334
          ],
          [
            32.619249,
            39.991042
          ],
          [
            32.618895,
            39.991624
          ],
          [
            32.619701,
            39.991906
          ],
          [
            32.620042,
            39.991334
          ]
        ]
      ],
      [
        [
          [
            32.62097,
            39.992247
          ],
          [
            32.621013,
            39.992212
          ],
          [
            32.620873,
            39.991634
          ],
          [
            32.620258,
            39.991422
          ],
          [
            32.619917,
            39.991984
          ],
          [
            32.620278,
            39.992118
          ],
          [
            32.62097,
            39.992247
          ]
        ]
      ],
      [
        [
          [
            32.618761,
            39.990201
          ],
          [
            32.61801,
            39.989912
          ],
          [
            32.617605,
            39.990562
          ],
          [
            32.617637,
            39.990634
          ],
          [
            32.618009,
            39.990767
          ],
          [
            32.618489,
            39.990636
          ],
          [
            32.618761,
            39.990201
          ]
        ]
      ],
      [
        [
          [
            32.619173,
            39.989435
          ],
          [
            32.618562,
            39.989211
          ],
          [
            32.618439,
            39.989242
          ],
          [
            32.618096,
            39.989785
          ],
          [
            32.618851,
            39.990067
          ],
          [
            32.619202,
            39.989515
          ],
          [
            32.619173,
            39.989435
          ]
        ]
      ],
      [
        [
          [
            32.619744,
            39.988664
          ],
          [
            32.618989,
            39.988383
          ],
          [
            32.617998,
            39.989798
          ],
          [
            32.61935,
            39.989288
          ],
          [
            32.619744,
            39.988664
          ]
        ]
      ]
    ]
  }
}