{
 "type": "Feature",
 "properties": {
  "isim": "Haznedaroğlu Blokları",
  "kaynak": "TKGM Parsel Sorgu (CBS) verisine dayalıdır; bilgilendirme amaçlıdır, resmi kadastro belgesi yerine geçmez.",
  "adalar": [
   "17633/1",
   "17634/1",
   "17635/1",
   "17636/1",
   "17637/1",
   "17639/1"
  ]
 },
 "geometry": {
  "type": "MultiPolygon",
  "coordinates": [
   [
    [
     [
      32.6224,
      39.98734
     ],
     [
      32.62176,
      39.98755
     ],
     [
      32.62133,
      39.98681
     ],
     [
      32.62197,
      39.98662
     ],
     [
      32.6224,
      39.98734
     ]
    ]
   ],
   [
    [
     [
      32.62187,
      39.98835
     ],
     [
      32.62157,
      39.98781
     ],
     [
      32.62249,
      39.9875
     ],
     [
      32.62282,
      39.98803
     ],
     [
      32.62187,
      39.98835
     ]
    ]
   ],
   [
    [
     [
      32.62371,
      39.98754
     ],
     [
      32.62304,
      39.98776
     ],
     [
      32.62273,
      39.98717
     ],
     [
      32.62336,
      39.98698
     ],
     [
      32.62382,
      39.98698
     ],
     [
      32.62384,
      39.98702
     ],
     [
      32.62371,
      39.98754
     ]
    ]
   ],
   [
    [
     [
      32.62233,
      39.98641
     ],
     [
      32.62286,
      39.98625
     ],
     [
      32.62328,
      39.98624
     ],
     [
      32.62338,
      39.98683
     ],
     [
      32.62266,
      39.98704
     ],
     [
      32.62233,
      39.98641
     ]
    ]
   ],
   [
    [
     [
      32.62438,
      39.98692
     ],
     [
      32.62359,
      39.98681
     ],
     [
      32.62359,
      39.98622
     ],
     [
      32.62389,
      39.98621
     ],
     [
      32.62452,
      39.9863
     ],
     [
      32.62438,
      39.98692
     ]
    ]
   ],
   [
    [
     [
      32.62453,
      39.98769
     ],
     [
      32.62393,
      39.9876
     ],
     [
      32.62408,
      39.98702
     ],
     [
      32.62514,
      39.98716
     ],
     [
      32.62515,
      39.98722
     ],
     [
      32.62453,
      39.98769
     ]
    ]
   ]
  ]
 }
}