{
 "type": "Feature",
 "properties": {
  "isim": "Kur Sitesi C1B - 2K",
  "kaynak": "TKGM Parsel Sorgu (CBS) verisine dayalıdır; bilgilendirme amaçlıdır, resmi kadastro belgesi yerine geçmez.",
  "adalar": [
   "46495/2"
  ]
 },
 "geometry": {
  "type": "MultiPolygon",
  "coordinates": [
   [
    [
     [
      32.63414,
      39.98169
     ],
     [
      32.63416,
      39.98173
     ],
     [
      32.63415,
      39.98209
     ],
     [
      32.63406,
      39.98288
     ],
     [
      32.63304,
      39.98287
     ],
     [
      32.63306,
      39.98231
     ],
     [
      32.63291,
      39.98231
     ],
     [
      32.63291,
      39.98226
     ],
     [
      32.63278,
      39.98226
     ],
     [
      32.63278,
      39.98236
     ],
     [
      32.633,
      39.98236
     ],
     [
      32.63299,
      39.98287
     ],
     [
      32.63231,
      39.98286
     ],
     [
      32.63163,
      39.98253
     ],
     [
      32.6316,
      39.98173
     ],
     [
      32.63406,
      39.98166
     ],
     [
      32.63414,
      39.98169
     ]
    ]
   ]
  ]
 }
}