{
 "type": "Feature",
 "properties": {
  "isim": "Kur Sitesi",
  "kaynak": "TKGM Parsel Sorgu (CBS) verisine dayalıdır; bilgilendirme amaçlıdır, resmi kadastro belgesi yerine geçmez.",
  "adalar": [
   "46496/2"
  ]
 },
 "geometry": {
  "type": "MultiPolygon",
  "coordinates": [
   [
    [
     [
      32.62891,
      39.9826
     ],
     [
      32.62888,
      39.98185
     ],
     [
      32.62894,
      39.98181
     ],
     [
      32.63119,
      39.98174
     ],
     [
      32.63121,
      39.98244
     ],
     [
      32.63024,
      39.98254
     ],
     [
      32.63,
      39.98255
     ],
     [
      32.62999,
      39.98243
     ],
     [
      32.62987,
      39.98243
     ],
     [
      32.62987,
      39.98256
     ],
     [
      32.62891,
      39.9826
     ]
    ]
   ]
  ]
 }
}