{
 "type": "Feature",
 "properties": {
  "isim": "Metromall Sitesi",
  "kaynak": "TKGM Parsel Sorgu (CBS) verisine dayalıdır; bilgilendirme amaçlıdır, resmi kadastro belgesi yerine geçmez.",
  "adalar": [
   "46510/1"
  ]
 },
 "geometry": {
  "type": "MultiPolygon",
  "coordinates": [
   [
    [
     [
      32.61213,
      39.98413
     ],
     [
      32.61202,
      39.98417
     ],
     [
      32.61229,
      39.98473
     ],
     [
      32.61117,
      39.98538
     ],
     [
      32.61106,
      39.98536
     ],
     [
      32.61068,
      39.9846
     ],
     [
      32.61057,
      39.98463
     ],
     [
      32.60946,
      39.98261
     ],
     [
      32.60944,
      39.98251
     ],
     [
      32.60948,
      39.98221
     ],
     [
      32.61142,
      39.98218
     ],
     [
      32.61144,
      39.98267
     ],
     [
      32.61213,
      39.98413
     ]
    ]
   ]
  ]
 }
}