{
 "type": "Feature",
 "properties": {
  "isim": "Öztaş Sitesi",
  "kaynak": "TKGM Parsel Sorgu (CBS) verisine dayalıdır; bilgilendirme amaçlıdır, resmi kadastro belgesi yerine geçmez.",
  "adalar": [
   "17652/1",
   "17653/1",
   "17654/1",
   "17659/1",
   "17660/1",
   "17661/1"
  ]
 },
 "geometry": {
  "type": "MultiPolygon",
  "coordinates": [
   [
    [
     [
      32.62845,
      39.99164
     ],
     [
      32.62791,
      39.99171
     ],
     [
      32.62783,
      39.9917
     ],
     [
      32.62738,
      39.99139
     ],
     [
      32.62795,
      39.99096
     ],
     [
      32.62829,
      39.99091
     ],
     [
      32.62845,
      39.99164
     ]
    ]
   ],
   [
    [
     [
      32.62929,
      39.99153
     ],
     [
      32.62853,
      39.99163
     ],
     [
      32.62837,
      39.9909
     ],
     [
      32.62909,
      39.99081
     ],
     [
      32.62913,
      39.99083
     ],
     [
      32.62929,
      39.99153
     ]
    ]
   ],
   [
    [
     [
      32.63026,
      39.9914
     ],
     [
      32.62952,
      39.9915
     ],
     [
      32.62937,
      39.99082
     ],
     [
      32.6294,
      39.99077
     ],
     [
      32.6301,
      39.99068
     ],
     [
      32.63026,
      39.9914
     ]
    ]
   ],
   [
    [
     [
      32.62905,
      39.99009
     ],
     [
      32.6291,
      39.99064
     ],
     [
      32.62905,
      39.99068
     ],
     [
      32.62811,
      39.9908
     ],
     [
      32.628,
      39.99072
     ],
     [
      32.62816,
      39.99011
     ],
     [
      32.62822,
      39.99008
     ],
     [
      32.62905,
      39.99009
     ]
    ]
   ],
   [
    [
     [
      32.62681,
      39.99049
     ],
     [
      32.62783,
      39.99066
     ],
     [
      32.62779,
      39.99082
     ],
     [
      32.6272,
      39.99127
     ],
     [
      32.62668,
      39.99092
     ],
     [
      32.62681,
      39.99049
     ]
    ]
   ],
   [
    [
     [
      32.62799,
      39.99009
     ],
     [
      32.62785,
      39.9906
     ],
     [
      32.62682,
      39.99043
     ],
     [
      32.62697,
      39.98989
     ],
     [
      32.62795,
      39.99005
     ],
     [
      32.62799,
      39.99009
     ]
    ]
   ]
  ]
 }
}