{
 "type": "Feature",
 "properties": {
  "isim": "STFA Blokları",
  "kaynak": "TKGM Parsel Sorgu (CBS) verisine dayalıdır; bilgilendirme amaçlıdır, resmi kadastro belgesi yerine geçmez.",
  "adalar": [
   "17666/1",
   "17672/1",
   "17673/1",
   "17674/1",
   "17675/1"
  ]
 },
 "geometry": {
  "type": "MultiPolygon",
  "coordinates": [
   [
    [
     [
      32.6329,
      39.98875
     ],
     [
      32.63215,
      39.98873
     ],
     [
      32.63207,
      39.98868
     ],
     [
      32.63209,
      39.98805
     ],
     [
      32.63291,
      39.98807
     ],
     [
      32.6329,
      39.98875
     ]
    ]
   ],
   [
    [
     [
      32.62987,
      39.98792
     ],
     [
      32.62969,
      39.98725
     ],
     [
      32.62974,
      39.98719
     ],
     [
      32.63046,
      39.98707
     ],
     [
      32.63066,
      39.98782
     ],
     [
      32.63063,
      39.98786
     ],
     [
      32.62995,
      39.98796
     ],
     [
      32.62987,
      39.98792
     ]
    ]
   ],
   [
    [
     [
      32.63089,
      39.98778
     ],
     [
      32.63069,
      39.98703
     ],
     [
      32.63137,
      39.98692
     ],
     [
      32.63159,
      39.98771
     ],
     [
      32.63095,
      39.98781
     ],
     [
      32.63089,
      39.98778
     ]
    ]
   ],
   [
    [
     [
      32.63167,
      39.9877
     ],
     [
      32.63145,
      39.98691
     ],
     [
      32.63203,
      39.98682
     ],
     [
      32.6325,
      39.98709
     ],
     [
      32.63193,
      39.98766
     ],
     [
      32.63167,
      39.9877
     ]
    ]
   ],
   [
    [
     [
      32.63209,
      39.98799
     ],
     [
      32.6321,
      39.98779
     ],
     [
      32.63269,
      39.9872
     ],
     [
      32.63293,
      39.98733
     ],
     [
      32.63291,
      39.98801
     ],
     [
      32.63209,
      39.98799
     ]
    ]
   ]
  ]
 }
}