{
 "type": "Feature",
 "properties": {
  "isim": "Tunahan Sitesi",
  "kaynak": "TKGM Parsel Sorgu (CBS) verisine dayalıdır; bilgilendirme amaçlıdır, resmi kadastro belgesi yerine geçmez.",
  "adalar": [
   "46508/1"
  ]
 },
 "geometry": {
  "type": "MultiPolygon",
  "coordinates": [
   [
    [
     [
      32.61349,
      39.98213
     ],
     [
      32.61754,
      39.98204
     ],
     [
      32.61757,
      39.98261
     ],
     [
      32.61748,
      39.98333
     ],
     [
      32.61745,
      39.98336
     ],
     [
      32.6174,
      39.98338
     ],
     [
      32.61658,
      39.98334
     ],
     [
      32.61643,
      39.98332
     ],
     [
      32.6163,
      39.98332
     ],
     [
      32.61616,
      39.98332
     ],
     [
      32.61603,
      39.98334
     ],
     [
      32.61445,
      39.98364
     ],
     [
      32.61432,
      39.98367
     ],
     [
      32.61417,
      39.9837
     ],
     [
      32.614,
      39.98375
     ],
     [
      32.61377,
      39.98383
     ],
     [
      32.61348,
      39.98332
     ],
     [
      32.61341,
      39.98269
     ],
     [
      32.61349,
      39.98213
     ]
    ]
   ]
  ]
 }
}