{
 "type": "Feature",
 "properties": {
  "isim": "Yüksel Blokları",
  "kaynak": "TKGM Parsel Sorgu (CBS) verisine dayalıdır; bilgilendirme amaçlıdır, resmi kadastro belgesi yerine geçmez.",
  "adalar": [
   "17649/1",
   "17650/1",
   "17651/1",
   "17662/1",
   "17669/1",
   "17670/1",
   "17671/1"
  ]
 },
 "geometry": {
  "type": "MultiPolygon",
  "coordinates": [
   [
    [
     [
      32.62666,
      39.98994
     ],
     [
      32.62656,
      39.98999
     ],
     [
      32.62593,
      39.98988
     ],
     [
      32.62586,
      39.9898
     ],
     [
      32.62603,
      39.98921
     ],
     [
      32.62683,
      39.98934
     ],
     [
      32.62666,
      39.98994
     ]
    ]
   ],
   [
    [
     [
      32.62687,
      39.98916
     ],
     [
      32.62607,
      39.98903
     ],
     [
      32.62627,
      39.98832
     ],
     [
      32.62634,
      39.98829
     ],
     [
      32.62706,
      39.98851
     ],
     [
      32.62687,
      39.98916
     ]
    ]
   ],
   [
    [
     [
      32.62509,
      39.98886
     ],
     [
      32.62525,
      39.98827
     ],
     [
      32.62599,
      39.98824
     ],
     [
      32.6261,
      39.98829
     ],
     [
      32.6259,
      39.989
     ],
     [
      32.62509,
      39.98886
     ]
    ]
   ],
   [
    [
     [
      32.62805,
      39.98986
     ],
     [
      32.628,
      39.98988
     ],
     [
      32.62702,
      39.98972
     ],
     [
      32.62716,
      39.98923
     ],
     [
      32.62723,
      39.9892
     ],
     [
      32.62814,
      39.98935
     ],
     [
      32.62818,
      39.98939
     ],
     [
      32.62805,
      39.98986
     ]
    ]
   ],
   [
    [
     [
      32.62816,
      39.98921
     ],
     [
      32.62727,
      39.98906
     ],
     [
      32.62721,
      39.98901
     ],
     [
      32.62735,
      39.98852
     ],
     [
      32.62837,
      39.98869
     ],
     [
      32.62824,
      39.98919
     ],
     [
      32.62816,
      39.98921
     ]
    ]
   ],
   [
    [
     [
      32.62741,
      39.98834
     ],
     [
      32.62745,
      39.98815
     ],
     [
      32.62748,
      39.98807
     ],
     [
      32.62751,
      39.98798
     ],
     [
      32.62755,
      39.98788
     ],
     [
      32.62761,
      39.98777
     ],
     [
      32.62776,
      39.98766
     ],
     [
      32.62849,
      39.98825
     ],
     [
      32.62842,
      39.98851
     ],
     [
      32.62741,
      39.98834
     ]
    ]
   ],
   [
    [
     [
      32.62853,
      39.98818
     ],
     [
      32.62782,
      39.98762
     ],
     [
      32.62792,
      39.98754
     ],
     [
      32.62803,
      39.98749
     ],
     [
      32.62815,
      39.98745
     ],
     [
      32.62831,
      39.98742
     ],
     [
      32.62876,
      39.98734
     ],
     [
      32.62896,
      39.98808
     ],
     [
      32.62893,
      39.98812
     ],
     [
      32.62853,
      39.98818
     ]
    ]
   ]
  ]
 }
}