{
 "type": "Feature",
 "properties": {
  "isim": "Admira Göksu Konutları",
  "kaynak": "TKGM Parsel Sorgu (CBS) verisine dayalıdır; bilgilendirme amaçlıdır, resmi kadastro belgesi yerine geçmez.",
  "adalar": [
   "63396/1"
  ]
 },
 "geometry": {
  "type": "MultiPolygon",
  "coordinates": [
   [
    [
     [
      32.64612,
      40.0025
     ],
     [
      32.64606,
      40.00245
     ],
     [
      32.64601,
      40.00239
     ],
     [
      32.64594,
      40.00234
     ],
     [
      32.64588,
      40.00229
     ],
     [
      32.64581,
      40.00224
     ],
     [
      32.64574,
      40.00219
     ],
     [
      32.64567,
      40.00215
     ],
     [
      32.6456,
      40.00211
     ],
     [
      32.64585,
      40.00134
     ],
     [
      32.64606,
      40.00131
     ],
     [
      32.64671,
      40.00237
     ],
     [
      32.6463,
      40.00252
     ],
     [
      32.64612,
      40.0025
     ]
    ]
   ]
  ]
 }
}