{
 "type": "Feature",
 "properties": {
  "isim": "Alina Konutları",
  "kaynak": "TKGM Parsel Sorgu (CBS) verisine dayalıdır; bilgilendirme amaçlıdır, resmi kadastro belgesi yerine geçmez.",
  "adalar": [
   "63391/5"
  ]
 },
 "geometry": {
  "type": "MultiPolygon",
  "coordinates": [
   [
    [
     [
      32.64239,
      39.99999
     ],
     [
      32.64194,
      40.00035
     ],
     [
      32.64088,
      39.99956
     ],
     [
      32.64121,
      39.99948
     ],
     [
      32.64123,
      39.9995
     ],
     [
      32.64125,
      39.99952
     ],
     [
      32.64127,
      39.99953
     ],
     [
      32.64129,
      39.99954
     ],
     [
      32.64132,
      39.99955
     ],
     [
      32.64135,
      39.99955
     ],
     [
      32.64138,
      39.99955
     ],
     [
      32.6414,
      39.99955
     ],
     [
      32.64143,
      39.99954
     ],
     [
      32.64145,
      39.99953
     ],
     [
      32.64148,
      39.99952
     ],
     [
      32.6415,
      39.99951
     ],
     [
      32.64151,
      39.99949
     ],
     [
      32.64153,
      39.99947
     ],
     [
      32.64154,
      39.99945
     ],
     [
      32.64154,
      39.99943
     ],
     [
      32.64154,
      39.99941
     ],
     [
      32.64154,
      39.99939
     ],
     [
      32.64153,
      39.99937
     ],
     [
      32.64152,
      39.99935
     ],
     [
      32.64156,
      39.99937
     ],
     [
      32.64239,
      39.99999
     ]
    ]
   ]
  ]
 }
}