{
 "type": "Feature",
 "properties": {
  "isim": "Arissa Göksu",
  "kaynak": "TKGM Parsel Sorgu (CBS) verisine dayalıdır; bilgilendirme amaçlıdır, resmi kadastro belgesi yerine geçmez.",
  "adalar": [
   "63932/1"
  ]
 },
 "geometry": {
  "type": "MultiPolygon",
  "coordinates": [
   [
    [
     [
      32.64659,
      39.99884
     ],
     [
      32.64397,
      39.9986
     ],
     [
      32.64396,
      39.99856
     ],
     [
      32.64395,
      39.99853
     ],
     [
      32.64395,
      39.99849
     ],
     [
      32.64395,
      39.99845
     ],
     [
      32.64396,
      39.99842
     ],
     [
      32.64396,
      39.99838
     ],
     [
      32.64397,
      39.99835
     ],
     [
      32.64398,
      39.99831
     ],
     [
      32.64401,
      39.99826
     ],
     [
      32.64404,
      39.99817
     ],
     [
      32.64407,
      39.99808
     ],
     [
      32.64409,
      39.99798
     ],
     [
      32.6441,
      39.99795
     ],
     [
      32.64728,
      39.99824
     ],
     [
      32.64724,
      39.99829
     ],
     [
      32.6472,
      39.99834
     ],
     [
      32.64714,
      39.99839
     ],
     [
      32.64709,
      39.99843
     ],
     [
      32.64659,
      39.99884
     ]
    ]
   ]
  ]
 }
}