{
 "type": "Feature",
 "properties": {
  "isim": "Bella Garden",
  "kaynak": "TKGM Parsel Sorgu (CBS) verisine dayalıdır; bilgilendirme amaçlıdır, resmi kadastro belgesi yerine geçmez.",
  "adalar": [
   "63385/3"
  ]
 },
 "geometry": {
  "type": "MultiPolygon",
  "coordinates": [
   [
    [
     [
      32.63985,
      40.00425
     ],
     [
      32.63986,
      40.00431
     ],
     [
      32.63989,
      40.00443
     ],
     [
      32.63992,
      40.00455
     ],
     [
      32.63995,
      40.00466
     ],
     [
      32.63999,
      40.00477
     ],
     [
      32.63856,
      40.00532
     ],
     [
      32.63857,
      40.00523
     ],
     [
      32.63857,
      40.00511
     ],
     [
      32.63855,
      40.005
     ],
     [
      32.6385,
      40.00489
     ],
     [
      32.63844,
      40.0048
     ],
     [
      32.63985,
      40.00425
     ]
    ]
   ]
  ]
 }
}