{
 "type": "Feature",
 "properties": {
  "isim": "Bordo Loca",
  "kaynak": "TKGM Parsel Sorgu (CBS) verisine dayalıdır; bilgilendirme amaçlıdır, resmi kadastro belgesi yerine geçmez.",
  "adalar": [
   "63400/1"
  ]
 },
 "geometry": {
  "type": "MultiPolygon",
  "coordinates": [
   [
    [
     [
      32.65336,
      40.003
     ],
     [
      32.6529,
      40.00293
     ],
     [
      32.65286,
      40.00292
     ],
     [
      32.65283,
      40.00291
     ],
     [
      32.65279,
      40.0029
     ],
     [
      32.65275,
      40.00289
     ],
     [
      32.65272,
      40.00287
     ],
     [
      32.65269,
      40.00286
     ],
     [
      32.65266,
      40.00284
     ],
     [
      32.65263,
      40.00282
     ],
     [
      32.65252,
      40.00273
     ],
     [
      32.65244,
      40.00266
     ],
     [
      32.65237,
      40.00259
     ],
     [
      32.6523,
      40.00253
     ],
     [
      32.65223,
      40.00245
     ],
     [
      32.65217,
      40.00238
     ],
     [
      32.65216,
      40.00236
     ],
     [
      32.65212,
      40.00231
     ],
     [
      32.65207,
      40.00223
     ],
     [
      32.65202,
      40.00215
     ],
     [
      32.65198,
      40.00207
     ],
     [
      32.65194,
      40.00199
     ],
     [
      32.65189,
      40.00189
     ],
     [
      32.65187,
      40.00183
     ],
     [
      32.65307,
      40.00139
     ],
     [
      32.65385,
      40.00169
     ],
     [
      32.65336,
      40.003
     ]
    ]
   ]
  ]
 }
}