{
 "type": "Feature",
 "properties": {
  "isim": "Göksu Manzara Evleri",
  "kaynak": "TKGM Parsel Sorgu (CBS) verisine dayalıdır; bilgilendirme amaçlıdır, resmi kadastro belgesi yerine geçmez.",
  "adalar": [
   "63379/7"
  ]
 },
 "geometry": {
  "type": "MultiPolygon",
  "coordinates": [
   [
    [
     [
      32.6465,
      40.00342
     ],
     [
      32.6465,
      40.00337
     ],
     [
      32.64649,
      40.0033
     ],
     [
      32.64648,
      40.00322
     ],
     [
      32.64647,
      40.00314
     ],
     [
      32.64645,
      40.00307
     ],
     [
      32.64643,
      40.00302
     ],
     [
      32.64737,
      40.00285
     ],
     [
      32.64741,
      40.00296
     ],
     [
      32.64743,
      40.00306
     ],
     [
      32.64739,
      40.00329
     ],
     [
      32.64735,
      40.00344
     ],
     [
      32.64733,
      40.00351
     ],
     [
      32.6465,
      40.00342
     ]
    ]
   ]
  ]
 }
}