{
 "type": "Feature",
 "properties": {
  "isim": "Göksupark Konutları",
  "kaynak": "TKGM Parsel Sorgu (CBS) verisine dayalıdır; bilgilendirme amaçlıdır, resmi kadastro belgesi yerine geçmez.",
  "adalar": [
   "48147/1"
  ]
 },
 "geometry": {
  "type": "MultiPolygon",
  "coordinates": [
   [
    [
     [
      32.64745,
      39.98326
     ],
     [
      32.64743,
      39.98484
     ],
     [
      32.64735,
      39.98489
     ],
     [
      32.64735,
      39.9855
     ],
     [
      32.64741,
      39.98556
     ],
     [
      32.64733,
      39.9876
     ],
     [
      32.64723,
      39.98767
     ],
     [
      32.64573,
      39.98772
     ],
     [
      32.64568,
      39.98703
     ],
     [
      32.64566,
      39.98703
     ],
     [
      32.64557,
      39.98563
     ],
     [
      32.64563,
      39.98558
     ],
     [
      32.64551,
      39.98327
     ],
     [
      32.64547,
      39.98327
     ],
     [
      32.64534,
      39.98318
     ],
     [
      32.64533,
      39.98274
     ],
     [
      32.64551,
      39.98252
     ],
     [
      32.6457,
      39.98249
     ],
     [
      32.64586,
      39.98249
     ],
     [
      32.64635,
      39.98249
     ],
     [
      32.64661,
      39.98248
     ],
     [
      32.64694,
      39.98248
     ],
     [
      32.64711,
      39.9825
     ],
     [
      32.64725,
      39.98252
     ],
     [
      32.64757,
      39.98275
     ],
     [
      32.64758,
      39.98318
     ],
     [
      32.64745,
      39.98326
     ]
    ]
   ]
  ]
 }
}