{
 "type": "Feature",
 "properties": {
  "isim": "Green Life Göksu Konutları",
  "kaynak": "TKGM Parsel Sorgu (CBS) verisine dayalıdır; bilgilendirme amaçlıdır, resmi kadastro belgesi yerine geçmez.",
  "adalar": [
   "63352/2"
  ]
 },
 "geometry": {
  "type": "MultiPolygon",
  "coordinates": [
   [
    [
     [
      32.65202,
      40.00851
     ],
     [
      32.65046,
      40.0084
     ],
     [
      32.65025,
      40.00815
     ],
     [
      32.65044,
      40.00806
     ],
     [
      32.65046,
      40.00804
     ],
     [
      32.65048,
      40.00803
     ],
     [
      32.6505,
      40.00802
     ],
     [
      32.65052,
      40.00801
     ],
     [
      32.65054,
      40.00799
     ],
     [
      32.65056,
      40.00798
     ],
     [
      32.65058,
      40.00796
     ],
     [
      32.6506,
      40.00795
     ],
     [
      32.65061,
      40.00794
     ],
     [
      32.65208,
      40.00804
     ],
     [
      32.65202,
      40.00851
     ]
    ]
   ]
  ]
 }
}