{
 "type": "Feature",
 "properties": {
  "isim": "Gsv Spor Sitesi",
  "kaynak": "TKGM Parsel Sorgu (CBS) verisine dayalıdır; bilgilendirme amaçlıdır, resmi kadastro belgesi yerine geçmez.",
  "adalar": [
   "46465/1"
  ]
 },
 "geometry": {
  "type": "MultiPolygon",
  "coordinates": [
   [
    [
     [
      32.64278,
      39.9826
     ],
     [
      32.6428,
      39.98254
     ],
     [
      32.64292,
      39.98246
     ],
     [
      32.64307,
      39.98245
     ],
     [
      32.64326,
      39.98245
     ],
     [
      32.64429,
      39.98252
     ],
     [
      32.64469,
      39.98276
     ],
     [
      32.64477,
      39.98308
     ],
     [
      32.64481,
      39.98339
     ],
     [
      32.64492,
      39.98502
     ],
     [
      32.64283,
      39.98502
     ],
     [
      32.64275,
      39.98323
     ],
     [
      32.64278,
      39.9826
     ]
    ]
   ]
  ]
 }
}