{
 "type": "Feature",
 "properties": {
  "isim": "Havuzlu Bahçe Konutları",
  "kaynak": "TKGM Parsel Sorgu (CBS) verisine dayalıdır; bilgilendirme amaçlıdır, resmi kadastro belgesi yerine geçmez.",
  "adalar": [
   "48145/1"
  ]
 },
 "geometry": {
  "type": "MultiPolygon",
  "coordinates": [
   [
    [
     [
      32.64282,
      39.98903
     ],
     [
      32.64166,
      39.98956
     ],
     [
      32.64149,
      39.98961
     ],
     [
      32.64138,
      39.98963
     ],
     [
      32.64131,
      39.98961
     ],
     [
      32.64126,
      39.98959
     ],
     [
      32.64122,
      39.98955
     ],
     [
      32.64117,
      39.98943
     ],
     [
      32.64111,
      39.98927
     ],
     [
      32.64107,
      39.9891
     ],
     [
      32.64103,
      39.98894
     ],
     [
      32.641,
      39.98866
     ],
     [
      32.64098,
      39.98816
     ],
     [
      32.64101,
      39.98799
     ],
     [
      32.64106,
      39.98782
     ],
     [
      32.64114,
      39.98764
     ],
     [
      32.64124,
      39.98748
     ],
     [
      32.6413,
      39.98747
     ],
     [
      32.64185,
      39.98766
     ],
     [
      32.64202,
      39.9878
     ],
     [
      32.6421,
      39.98791
     ],
     [
      32.64247,
      39.98844
     ],
     [
      32.64282,
      39.98899
     ],
     [
      32.64282,
      39.98903
     ]
    ]
   ]
  ]
 }
}