{
 "type": "Feature",
 "properties": {
  "isim": "Kaşmir Göl Evleri",
  "kaynak": "TKGM Parsel Sorgu (CBS) verisine dayalıdır; bilgilendirme amaçlıdır, resmi kadastro belgesi yerine geçmez.",
  "adalar": [
   "63932/2"
  ]
 },
 "geometry": {
  "type": "MultiPolygon",
  "coordinates": [
   [
    [
     [
      32.64399,
      39.99639
     ],
     [
      32.64395,
      39.99629
     ],
     [
      32.64387,
      39.99609
     ],
     [
      32.64374,
      39.99576
     ],
     [
      32.64347,
      39.9951
     ],
     [
      32.64344,
      39.99502
     ],
     [
      32.64342,
      39.99493
     ],
     [
      32.6434,
      39.99485
     ],
     [
      32.64338,
      39.99477
     ],
     [
      32.64337,
      39.9947
     ],
     [
      32.64337,
      39.99454
     ],
     [
      32.64354,
      39.9936
     ],
     [
      32.64356,
      39.9934
     ],
     [
      32.64356,
      39.99249
     ],
     [
      32.64361,
      39.99244
     ],
     [
      32.64475,
      39.99234
     ],
     [
      32.6448,
      39.99237
     ],
     [
      32.64492,
      39.99324
     ],
     [
      32.64492,
      39.99326
     ],
     [
      32.64493,
      39.99328
     ],
     [
      32.64494,
      39.99329
     ],
     [
      32.64494,
      39.99331
     ],
     [
      32.64495,
      39.99332
     ],
     [
      32.64504,
      39.99349
     ],
     [
      32.64505,
      39.9935
     ],
     [
      32.64506,
      39.99352
     ],
     [
      32.64507,
      39.99353
     ],
     [
      32.64508,
      39.99355
     ],
     [
      32.64509,
      39.99356
     ],
     [
      32.6451,
      39.99358
     ],
     [
      32.64511,
      39.99359
     ],
     [
      32.64513,
      39.99361
     ],
     [
      32.64563,
      39.99414
     ],
     [
      32.64567,
      39.99418
     ],
     [
      32.6457,
      39.99423
     ],
     [
      32.64573,
      39.99428
     ],
     [
      32.64576,
      39.99432
     ],
     [
      32.64578,
      39.99437
     ],
     [
      32.64579,
      39.99442
     ],
     [
      32.6458,
      39.99447
     ],
     [
      32.64581,
      39.99453
     ],
     [
      32.64581,
      39.99458
     ],
     [
      32.64581,
      39.99463
     ],
     [
      32.6458,
      39.99468
     ],
     [
      32.64565,
      39.99539
     ],
     [
      32.64564,
      39.99545
     ],
     [
      32.64563,
      39.99551
     ],
     [
      32.64563,
      39.99557
     ],
     [
      32.64564,
      39.99564
     ],
     [
      32.64565,
      39.9957
     ],
     [
      32.64566,
      39.99576
     ],
     [
      32.64568,
      39.99582
     ],
     [
      32.6457,
      39.99588
     ],
     [
      32.64573,
      39.99594
     ],
     [
      32.64576,
      39.996
     ],
     [
      32.6458,
      39.99605
     ],
     [
      32.64584,
      39.99611
     ],
     [
      32.64588,
      39.99616
     ],
     [
      32.64593,
      39.99621
     ],
     [
      32.64598,
      39.99626
     ],
     [
      32.64604,
      39.9963
     ],
     [
      32.6461,
      39.99634
     ],
     [
      32.64707,
      39.99699
     ],
     [
      32.64712,
      39.99703
     ],
     [
      32.64717,
      39.99707
     ],
     [
      32.64722,
      39.99712
     ],
     [
      32.64726,
      39.99717
     ],
     [
      32.6473,
      39.99722
     ],
     [
      32.64734,
      39.99727
     ],
     [
      32.64737,
      39.99732
     ],
     [
      32.6474,
      39.99738
     ],
     [
      32.64743,
      39.99743
     ],
     [
      32.64745,
      39.99749
     ],
     [
      32.64746,
      39.99755
     ],
     [
      32.64747,
      39.99761
     ],
     [
      32.64748,
      39.99767
     ],
     [
      32.64748,
      39.99773
     ],
     [
      32.64747,
      39.99778
     ],
     [
      32.64747,
      39.99784
     ],
     [
      32.64745,
      39.9979
     ],
     [
      32.64744,
      39.99796
     ],
     [
      32.64741,
      39.99802
     ],
     [
      32.64739,
      39.99807
     ],
     [
      32.64736,
      39.99812
     ],
     [
      32.64733,
      39.99818
     ],
     [
      32.64728,
      39.99824
     ],
     [
      32.6441,
      39.99795
     ],
     [
      32.64411,
      39.99789
     ],
     [
      32.64413,
      39.9978
     ],
     [
      32.64414,
      39.9977
     ],
     [
      32.64415,
      39.99761
     ],
     [
      32.64415,
      39.99752
     ],
     [
      32.64415,
      39.99742
     ],
     [
      32.64415,
      39.99733
     ],
     [
      32.64413,
      39.99708
     ],
     [
      32.64412,
      39.99698
     ],
     [
      32.64411,
      39.99688
     ],
     [
      32.64409,
      39.99678
     ],
     [
      32.64407,
      39.99668
     ],
     [
      32.64405,
      39.99659
     ],
     [
      32.64402,
      39.99649
     ],
     [
      32.64399,
      39.99639
     ]
    ]
   ]
  ]
 }
}