{
 "type": "Feature",
 "properties": {
  "isim": "Lilyum Sitesi",
  "kaynak": "TKGM Parsel Sorgu (CBS) verisine dayalıdır; bilgilendirme amaçlıdır, resmi kadastro belgesi yerine geçmez.",
  "adalar": [
   "63360/4"
  ]
 },
 "geometry": {
  "type": "MultiPolygon",
  "coordinates": [
   [
    [
     [
      32.64112,
      40.00832
     ],
     [
      32.64077,
      40.00788
     ],
     [
      32.6417,
      40.00744
     ],
     [
      32.6419,
      40.00747
     ],
     [
      32.64217,
      40.00782
     ],
     [
      32.64112,
      40.00832
     ]
    ]
   ]
  ]
 }
}