{
 "type": "Feature",
 "properties": {
  "isim": "Liva Göksu",
  "kaynak": "TKGM Parsel Sorgu (CBS) verisine dayalıdır; bilgilendirme amaçlıdır, resmi kadastro belgesi yerine geçmez.",
  "adalar": [
   "63368/3"
  ]
 },
 "geometry": {
  "type": "MultiPolygon",
  "coordinates": [
   [
    [
     [
      32.64138,
      40.00683
     ],
     [
      32.64167,
      40.00719
     ],
     [
      32.64163,
      40.00734
     ],
     [
      32.64073,
      40.00777
     ],
     [
      32.64037,
      40.00732
     ],
     [
      32.64036,
      40.00731
     ],
     [
      32.64138,
      40.00683
     ]
    ]
   ]
  ]
 }
}