{
 "type": "Feature",
 "properties": {
  "isim": "Mercan Smart House",
  "kaynak": "TKGM Parsel Sorgu (CBS) verisine dayalıdır; bilgilendirme amaçlıdır, resmi kadastro belgesi yerine geçmez.",
  "adalar": [
   "63404/2"
  ]
 },
 "geometry": {
  "type": "MultiPolygon",
  "coordinates": [
   [
    [
     [
      32.64583,
      39.9994
     ],
     [
      32.64593,
      39.99941
     ],
     [
      32.646,
      39.99942
     ],
     [
      32.64607,
      39.99943
     ],
     [
      32.64614,
      39.99944
     ],
     [
      32.6462,
      39.99946
     ],
     [
      32.64626,
      39.99948
     ],
     [
      32.64633,
      39.99951
     ],
     [
      32.64638,
      39.99954
     ],
     [
      32.64644,
      39.99957
     ],
     [
      32.6465,
      39.9996
     ],
     [
      32.64655,
      39.99964
     ],
     [
      32.64659,
      39.99967
     ],
     [
      32.64664,
      39.99972
     ],
     [
      32.64668,
      39.99976
     ],
     [
      32.64673,
      39.99982
     ],
     [
      32.64558,
      40.00042
     ],
     [
      32.64556,
      40.00038
     ],
     [
      32.64553,
      40.00034
     ],
     [
      32.6455,
      40.0003
     ],
     [
      32.64546,
      40.00027
     ],
     [
      32.64542,
      40.00023
     ],
     [
      32.64538,
      40.0002
     ],
     [
      32.64536,
      40.00018
     ],
     [
      32.64583,
      39.9994
     ]
    ]
   ]
  ]
 }
}