{
 "type": "Feature",
 "properties": {
  "isim": "Neovadi Konutları",
  "kaynak": "TKGM Parsel Sorgu (CBS) verisine dayalıdır; bilgilendirme amaçlıdır, resmi kadastro belgesi yerine geçmez.",
  "adalar": [
   "63376/5"
  ]
 },
 "geometry": {
  "type": "MultiPolygon",
  "coordinates": [
   [
    [
     [
      32.64729,
      40.00712
     ],
     [
      32.64867,
      40.00694
     ],
     [
      32.64862,
      40.00757
     ],
     [
      32.64747,
      40.00742
     ],
     [
      32.64729,
      40.00712
     ]
    ]
   ]
  ]
 }
}