{
 "type": "Feature",
 "properties": {
  "isim": "Oyak Göksupark",
  "kaynak": "TKGM Parsel Sorgu (CBS) verisine dayalıdır; bilgilendirme amaçlıdır, resmi kadastro belgesi yerine geçmez.",
  "adalar": [
   "63357/2"
  ]
 },
 "geometry": {
  "type": "MultiPolygon",
  "coordinates": [
   [
    [
     [
      32.65397,
      39.99689
     ],
     [
      32.65369,
      39.99741
     ],
     [
      32.65359,
      39.99745
     ],
     [
      32.6532,
      39.99732
     ],
     [
      32.65301,
      39.99768
     ],
     [
      32.65296,
      39.9977
     ],
     [
      32.65286,
      39.99773
     ],
     [
      32.65276,
      39.99776
     ],
     [
      32.65266,
      39.99778
     ],
     [
      32.65256,
      39.99781
     ],
     [
      32.65246,
      39.99783
     ],
     [
      32.65236,
      39.99784
     ],
     [
      32.65001,
      39.99823
     ],
     [
      32.64992,
      39.99802
     ],
     [
      32.6499,
      39.99797
     ],
     [
      32.64989,
      39.99792
     ],
     [
      32.64988,
      39.99787
     ],
     [
      32.64988,
      39.99782
     ],
     [
      32.64988,
      39.99777
     ],
     [
      32.64988,
      39.99772
     ],
     [
      32.64989,
      39.99767
     ],
     [
      32.6499,
      39.99762
     ],
     [
      32.64992,
      39.99757
     ],
     [
      32.64994,
      39.99752
     ],
     [
      32.64997,
      39.99748
     ],
     [
      32.65,
      39.99743
     ],
     [
      32.65004,
      39.99739
     ],
     [
      32.65036,
      39.99702
     ],
     [
      32.6507,
      39.99692
     ],
     [
      32.65112,
      39.99678
     ],
     [
      32.65152,
      39.9965
     ],
     [
      32.65177,
      39.99612
     ],
     [
      32.65184,
      39.9957
     ],
     [
      32.65172,
      39.99533
     ],
     [
      32.65195,
      39.99518
     ],
     [
      32.6524,
      39.99486
     ],
     [
      32.65224,
      39.99455
     ],
     [
      32.65265,
      39.99443
     ],
     [
      32.65268,
      39.99445
     ],
     [
      32.65273,
      39.99448
     ],
     [
      32.65279,
      39.99451
     ],
     [
      32.65284,
      39.99455
     ],
     [
      32.65288,
      39.99458
     ],
     [
      32.65292,
      39.99462
     ],
     [
      32.65296,
      39.99467
     ],
     [
      32.65299,
      39.99471
     ],
     [
      32.65302,
      39.99476
     ],
     [
      32.65305,
      39.9948
     ],
     [
      32.65408,
      39.99692
     ],
     [
      32.65397,
      39.99689
     ]
    ]
   ]
  ]
 }
}