{
 "type": "Feature",
 "properties": {
  "isim": "Park Evo Konutları",
  "kaynak": "TKGM Parsel Sorgu (CBS) verisine dayalıdır; bilgilendirme amaçlıdır, resmi kadastro belgesi yerine geçmez.",
  "adalar": [
   "63380/2"
  ]
 },
 "geometry": {
  "type": "MultiPolygon",
  "coordinates": [
   [
    [
     [
      32.64628,
      40.00373
     ],
     [
      32.64626,
      40.00378
     ],
     [
      32.64523,
      40.0037
     ],
     [
      32.64523,
      40.00366
     ],
     [
      32.64522,
      40.00361
     ],
     [
      32.6452,
      40.00355
     ],
     [
      32.64518,
      40.0035
     ],
     [
      32.64516,
      40.00345
     ],
     [
      32.64513,
      40.0034
     ],
     [
      32.6451,
      40.00335
     ],
     [
      32.64509,
      40.00333
     ],
     [
      32.64505,
      40.00329
     ],
     [
      32.6462,
      40.00291
     ],
     [
      32.64623,
      40.00296
     ],
     [
      32.64625,
      40.00303
     ],
     [
      32.64628,
      40.0031
     ],
     [
      32.64629,
      40.00317
     ],
     [
      32.64631,
      40.00324
     ],
     [
      32.64632,
      40.00331
     ],
     [
      32.64632,
      40.00338
     ],
     [
      32.64632,
      40.00345
     ],
     [
      32.64632,
      40.00352
     ],
     [
      32.64631,
      40.00359
     ],
     [
      32.64629,
      40.00366
     ],
     [
      32.64628,
      40.00373
     ]
    ]
   ]
  ]
 }
}