{
 "type": "Feature",
 "properties": {
  "isim": "Şelale Evleri Sitesi",
  "kaynak": "TKGM Parsel Sorgu (CBS) verisine dayalıdır; bilgilendirme amaçlıdır, resmi kadastro belgesi yerine geçmez.",
  "adalar": [
   "46466/1"
  ]
 },
 "geometry": {
  "type": "MultiPolygon",
  "coordinates": [
   [
    [
     [
      32.64067,
      39.98379
     ],
     [
      32.64014,
      39.98276
     ],
     [
      32.64016,
      39.98269
     ],
     [
      32.64034,
      39.98261
     ],
     [
      32.64059,
      39.98253
     ],
     [
      32.64079,
      39.98249
     ],
     [
      32.64101,
      39.98244
     ],
     [
      32.64118,
      39.98242
     ],
     [
      32.64155,
      39.98238
     ],
     [
      32.64162,
      39.98242
     ],
     [
      32.64186,
      39.98267
     ],
     [
      32.6419,
      39.98272
     ],
     [
      32.64195,
      39.9829
     ],
     [
      32.64199,
      39.98306
     ],
     [
      32.64202,
      39.98322
     ],
     [
      32.64203,
      39.98336
     ],
     [
      32.64203,
      39.98362
     ],
     [
      32.64196,
      39.98371
     ],
     [
      32.64067,
      39.98379
     ]
    ]
   ]
  ]
 }
}