{
 "type": "Feature",
 "properties": {
  "isim": "Sude Konutları",
  "kaynak": "TKGM Parsel Sorgu (CBS) verisine dayalıdır; bilgilendirme amaçlıdır, resmi kadastro belgesi yerine geçmez.",
  "adalar": [
   "48056/1"
  ]
 },
 "geometry": {
  "type": "MultiPolygon",
  "coordinates": [
   [
    [
     [
      32.63844,
      39.98718
     ],
     [
      32.6383,
      39.98537
     ],
     [
      32.63831,
      39.98512
     ],
     [
      32.63832,
      39.98495
     ],
     [
      32.63838,
      39.98493
     ],
     [
      32.63902,
      39.98504
     ],
     [
      32.6396,
      39.98515
     ],
     [
      32.63963,
      39.98517
     ],
     [
      32.63942,
      39.98722
     ],
     [
      32.6394,
      39.98723
     ],
     [
      32.63937,
      39.98724
     ],
     [
      32.63848,
      39.98731
     ],
     [
      32.63846,
      39.98729
     ],
     [
      32.63844,
      39.98718
     ]
    ]
   ]
  ]
 }
}