{
 "type": "Feature",
 "properties": {
  "isim": "Doktorlar Sitesi",
  "kaynak": "TKGM Parsel Sorgu (CBS) verisine dayalıdır; bilgilendirme amaçlıdır, resmi kadastro belgesi yerine geçmez.",
  "adalar": [
   "19509/1"
  ]
 },
 "geometry": {
  "type": "MultiPolygon",
  "coordinates": [
   [
    [
     [
      32.60937,
      39.99871
     ],
     [
      32.60924,
      39.9988
     ],
     [
      32.6077,
      39.9988
     ],
     [
      32.60768,
      39.99879
     ],
     [
      32.60765,
      39.99879
     ],
     [
      32.60763,
      39.99878
     ],
     [
      32.6076,
      39.99877
     ],
     [
      32.60758,
      39.99875
     ],
     [
      32.60756,
      39.99874
     ],
     [
      32.60725,
      39.9984
     ],
     [
      32.60743,
      39.9983
     ],
     [
      32.60937,
      39.9983
     ],
     [
      32.60937,
      39.99871
     ]
    ]
   ]
  ]
 }
}
