{
 "type": "Feature",
 "properties": {
  "isim": "Elit Nar Çiçeği",
  "kaynak": "TKGM Parsel Sorgu (CBS) verisine dayalıdır; bilgilendirme amaçlıdır, resmi kadastro belgesi yerine geçmez.",
  "adalar": [
   "46237/1"
  ]
 },
 "geometry": {
  "type": "MultiPolygon",
  "coordinates": [
   [
    [
     [
      32.61768,
      39.99981
     ],
     [
      32.6173,
      39.99954
     ],
     [
      32.61684,
      39.99923
     ],
     [
      32.61684,
      39.99919
     ],
     [
      32.61731,
      39.99877
     ],
     [
      32.61778,
      39.99834
     ],
     [
      32.61783,
      39.99833
     ],
     [
      32.61819,
      39.99852
     ],
     [
      32.6187,
      39.99878
     ],
     [
      32.6187,
      39.99882
     ],
     [
      32.61849,
      39.99906
     ],
     [
      32.61811,
      39.99943
     ],
     [
      32.61773,
      39.9998
     ],
     [
      32.61768,
      39.99981
     ]
    ]
   ]
  ]
 }
}
