{
 "type": "Feature",
 "properties": {
  "isim": "Erkaraca Sitesi",
  "kaynak": "TKGM Parsel Sorgu (CBS) verisine dayalıdır; bilgilendirme amaçlıdır, resmi kadastro belgesi yerine geçmez.",
  "adalar": [
   "46230/1"
  ]
 },
 "geometry": {
  "type": "MultiPolygon",
  "coordinates": [
   [
    [
     [
      32.61912,
      40.0008
     ],
     [
      32.61957,
      40.00036
     ],
     [
      32.61993,
      40.00001
     ],
     [
      32.62008,
      39.99997
     ],
     [
      32.62067,
      39.99997
     ],
     [
      32.62071,
      40.00002
     ],
     [
      32.62051,
      40.00046
     ],
     [
      32.62035,
      40.0008
     ],
     [
      32.62031,
      40.00086
     ],
     [
      32.61986,
      40.00125
     ],
     [
      32.61978,
      40.00125
     ],
     [
      32.61947,
      40.00104
     ],
     [
      32.61912,
      40.0008
     ]
    ]
   ]
  ]
 }
}