{
 "type": "Feature",
 "properties": {
  "isim": "Eylül Sitesi",
  "kaynak": "TKGM Parsel Sorgu (CBS) verisine dayalıdır; bilgilendirme amaçlıdır, resmi kadastro belgesi yerine geçmez.",
  "adalar": [
   "46234/1"
  ]
 },
 "geometry": {
  "type": "MultiPolygon",
  "coordinates": [
   [
    [
     [
      32.61922,
      39.99824
     ],
     [
      32.61881,
      39.9987
     ],
     [
      32.61876,
      39.99871
     ],
     [
      32.61831,
      39.99848
     ],
     [
      32.6179,
      39.99826
     ],
     [
      32.6179,
      39.99823
     ],
     [
      32.61836,
      39.99781
     ],
     [
      32.61883,
      39.99738
     ],
     [
      32.61888,
      39.99738
     ],
     [
      32.61913,
      39.9975
     ],
     [
      32.61957,
      39.99772
     ],
     [
      32.61962,
      39.9978
     ],
     [
      32.61922,
      39.99824
     ]
    ]
   ]
  ]
 }
}
