{
 "type": "Feature",
 "properties": {
  "isim": "Özenkent 2 Villaları",
  "kaynak": "TKGM Parsel Sorgu (CBS) verisine dayalıdır; bilgilendirme amaçlıdır, resmi kadastro belgesi yerine geçmez.",
  "adalar": [
   "19531/1"
  ]
 },
 "geometry": {
  "type": "MultiPolygon",
  "coordinates": [
   [
    [
     [
      32.61166,
      39.99884
     ],
     [
      32.61082,
      39.99884
     ],
     [
      32.61082,
      39.99752
     ],
     [
      32.61094,
      39.99743
     ],
     [
      32.61156,
      39.99743
     ],
     [
      32.61167,
      39.99749
     ],
     [
      32.61166,
      39.99884
     ]
    ]
   ]
  ]
 }
}
