{
 "type": "Feature",
 "properties": {
  "isim": "Seda Terasevler",
  "kaynak": "TKGM Parsel Sorgu (CBS) verisine dayalıdır; bilgilendirme amaçlıdır, resmi kadastro belgesi yerine geçmez.",
  "adalar": [
   "19529/1"
  ]
 },
 "geometry": {
  "type": "MultiPolygon",
  "coordinates": [
   [
    [
     [
      32.61181,
      39.9954
     ],
     [
      32.61179,
      39.99541
     ],
     [
      32.61177,
      39.99543
     ],
     [
      32.61175,
      39.99544
     ],
     [
      32.61173,
      39.99546
     ],
     [
      32.61172,
      39.99548
     ],
     [
      32.61171,
      39.9955
     ],
     [
      32.6117,
      39.99552
     ],
     [
      32.61169,
      39.99554
     ],
     [
      32.61168,
      39.99557
     ],
     [
      32.61168,
      39.99559
     ],
     [
      32.61168,
      39.99577
     ],
     [
      32.61083,
      39.99577
     ],
     [
      32.61083,
      39.99489
     ],
     [
      32.61111,
      39.99469
     ],
     [
      32.61271,
      39.9947
     ],
     [
      32.6127,
      39.99535
     ],
     [
      32.61201,
      39.99535
     ],
     [
      32.61198,
      39.99535
     ],
     [
      32.61195,
      39.99535
     ],
     [
      32.61192,
      39.99536
     ],
     [
      32.61189,
      39.99536
     ],
     [
      32.61186,
      39.99537
     ],
     [
      32.61184,
      39.99538
     ],
     [
      32.61181,
      39.9954
     ]
    ]
   ]
  ]
 }
}
