{
 "type": "Feature",
 "properties": {
  "isim": "Serenköy Sitesi",
  "kaynak": "TKGM Parsel Sorgu (CBS) verisine dayalıdır; bilgilendirme amaçlıdır, resmi kadastro belgesi yerine geçmez.",
  "adalar": [
   "19533/1"
  ]
 },
 "geometry": {
  "type": "MultiPolygon",
  "coordinates": [
   [
    [
     [
      32.61379,
      39.99853
     ],
     [
      32.61399,
      39.99867
     ],
     [
      32.61383,
      39.99882
     ],
     [
      32.6137,
      39.99886
     ],
     [
      32.61283,
      39.99886
     ],
     [
      32.61283,
      39.99833
     ],
     [
      32.61295,
      39.99828
     ],
     [
      32.61307,
      39.99822
     ],
     [
      32.61319,
      39.99819
     ],
     [
      32.61331,
      39.99818
     ],
     [
      32.61342,
      39.99819
     ],
     [
      32.61354,
      39.99822
     ],
     [
      32.61366,
      39.99826
     ],
     [
      32.61379,
      39.99835
     ],
     [
      32.61379,
      39.99853
     ]
    ]
   ]
  ]
 }
}