{
 "type": "Feature",
 "properties": {
  "isim": "Turaykent Sitesi",
  "kaynak": "TKGM Parsel Sorgu (CBS) verisine dayalıdır; bilgilendirme amaçlıdır, resmi kadastro belgesi yerine geçmez.",
  "adalar": [
   "19526/1"
  ]
 },
 "geometry": {
  "type": "MultiPolygon",
  "coordinates": [
   [
    [
     [
      32.61521,
      39.99575
     ],
     [
      32.61515,
      39.99571
     ],
     [
      32.6151,
      39.99568
     ],
     [
      32.61504,
      39.99564
     ],
     [
      32.61499,
      39.99561
     ],
     [
      32.61493,
      39.99558
     ],
     [
      32.61487,
      39.99555
     ],
     [
      32.61485,
      39.99555
     ],
     [
      32.61463,
      39.99544
     ],
     [
      32.61459,
      39.99542
     ],
     [
      32.61456,
      39.99541
     ],
     [
      32.61452,
      39.9954
     ],
     [
      32.61448,
      39.99539
     ],
     [
      32.61444,
      39.99538
     ],
     [
      32.61441,
      39.99537
     ],
     [
      32.61485,
      39.99479
     ],
     [
      32.61491,
      39.99481
     ],
     [
      32.61502,
      39.99486
     ],
     [
      32.61513,
      39.99491
     ],
     [
      32.61523,
      39.99495
     ],
     [
      32.61533,
      39.995
     ],
     [
      32.61543,
      39.99506
     ],
     [
      32.61553,
      39.99511
     ],
     [
      32.61563,
      39.99516
     ],
     [
      32.61573,
      39.99521
     ],
     [
      32.61577,
      39.99524
     ],
     [
      32.61521,
      39.99575
     ]
    ]
   ]
  ]
 }
}