{
 "type": "Feature",
 "properties": {
  "isim": "Şehr-i Huzur Prestij Konutları",
  "kaynak": "TKGM Parsel Sorgu (CBS) verisine dayalıdır; bilgilendirme amaçlıdır, resmi kadastro belgesi yerine geçmez.",
  "adalar": [
   "45923/1"
  ]
 },
 "geometry": {
  "type": "MultiPolygon",
  "coordinates": [
   [
    [
     [
      32.60979,
      39.97502
     ],
     [
      32.60851,
      39.97503
     ],
     [
      32.60852,
      39.97474
     ],
     [
      32.60979,
      39.97474
     ],
     [
      32.60979,
      39.97502
     ]
    ]
   ]
  ]
 }
}