{
 "type": "Feature",
 "properties": {
  "isim": "Asm Golt Sitesi",
  "kaynak": "TKGM Parsel Sorgu (CBS) verisine dayalıdır; bilgilendirme amaçlıdır, resmi kadastro belgesi yerine geçmez.",
  "adalar": [
   "45926/2"
  ]
 },
 "geometry": {
  "type": "MultiPolygon",
  "coordinates": [
   [
    [
     [
      32.60924,
      39.97241
     ],
     [
      32.60984,
      39.97241
     ],
     [
      32.60983,
      39.97286
     ],
     [
      32.60968,
      39.97295
     ],
     [
      32.60922,
      39.97294
     ],
     [
      32.60924,
      39.97241
     ]
    ]
   ]
  ]
 }
}