{
 "type": "Feature",
 "properties": {
  "isim": "Eryaman Evleri",
  "kaynak": "TKGM Parsel Sorgu (CBS) verisine dayalıdır; bilgilendirme amaçlıdır, resmi kadastro belgesi yerine geçmez.",
  "adalar": [
   "46533/1"
  ]
 },
 "geometry": {
  "type": "MultiPolygon",
  "coordinates": [
   [
    [
     [
      32.62318,
      39.97651
     ],
     [
      32.62547,
      39.97657
     ],
     [
      32.62591,
      39.97791
     ],
     [
      32.62419,
      39.97825
     ],
     [
      32.62406,
      39.97827
     ],
     [
      32.62393,
      39.97828
     ],
     [
      32.6238,
      39.97828
     ],
     [
      32.62368,
      39.97828
     ],
     [
      32.62356,
      39.97826
     ],
     [
      32.62271,
      39.97812
     ],
     [
      32.62249,
      39.97807
     ],
     [
      32.62234,
      39.97801
     ],
     [
      32.62219,
      39.97793
     ],
     [
      32.62203,
      39.97783
     ],
     [
      32.622,
      39.97778
     ],
     [
      32.622,
      39.97774
     ],
     [
      32.62202,
      39.97768
     ],
     [
      32.62284,
      39.97675
     ],
     [
      32.62318,
      39.97651
     ]
    ]
   ]
  ]
 }
}
