{
 "type": "Feature",
 "properties": {
  "isim": "İlke Sitesi",
  "kaynak": "TKGM Parsel Sorgu (CBS) verisine dayalıdır; bilgilendirme amaçlıdır, resmi kadastro belgesi yerine geçmez.",
  "adalar": [
   "46529/2"
  ]
 },
 "geometry": {
  "type": "MultiPolygon",
  "coordinates": [
   [
    [
     [
      32.62731,
      39.97962
     ],
     [
      32.62727,
      39.9796
     ],
     [
      32.62725,
      39.97956
     ],
     [
      32.62724,
      39.97827
     ],
     [
      32.62727,
      39.97822
     ],
     [
      32.62731,
      39.97818
     ],
     [
      32.62766,
      39.97793
     ],
     [
      32.62773,
      39.97789
     ],
     [
      32.62842,
      39.9777
     ],
     [
      32.6285,
      39.97771
     ],
     [
      32.62856,
      39.97773
     ],
     [
      32.62862,
      39.97776
     ],
     [
      32.62865,
      39.9778
     ],
     [
      32.62901,
      39.97902
     ],
     [
      32.62904,
      39.97964
     ],
     [
      32.62758,
      39.97967
     ],
     [
      32.62731,
      39.97962
     ]
    ]
   ]
  ]
 }
}