{
 "type": "Feature",
 "properties": {
  "isim": "Bayrak Sitesi",
  "kaynak": "TKGM Parsel Sorgu (CBS) verisine dayalıdır; bilgilendirme amaçlıdır, resmi kadastro belgesi yerine geçmez.",
  "adalar": [
   "46517/1"
  ]
 },
 "geometry": {
  "type": "MultiPolygon",
  "coordinates": [
   [
    [
     [
      32.62122,
      39.97966
     ],
     [
      32.62258,
      39.97936
     ],
     [
      32.62263,
      39.97935
     ],
     [
      32.62268,
      39.97936
     ],
     [
      32.62277,
      39.97946
     ],
     [
      32.62284,
      39.97956
     ],
     [
      32.62289,
      39.97966
     ],
     [
      32.62295,
      39.97979
     ],
     [
      32.62308,
      39.98015
     ],
     [
      32.62311,
      39.98027
     ],
     [
      32.62311,
      39.98037
     ],
     [
      32.62309,
      39.98088
     ],
     [
      32.62306,
      39.98091
     ],
     [
      32.62302,
      39.98093
     ],
     [
      32.62297,
      39.98094
     ],
     [
      32.6213,
      39.981
     ],
     [
      32.62125,
      39.98099
     ],
     [
      32.62123,
      39.98094
     ],
     [
      32.62122,
      39.97966
     ]
    ]
   ]
  ]
 }
}