{
 "type": "Feature",
 "properties": {
  "isim": "Çağrıkent Sitesi",
  "kaynak": "TKGM Parsel Sorgu (CBS) verisine dayalıdır; bilgilendirme amaçlıdır, resmi kadastro belgesi yerine geçmez.",
  "adalar": [
   "18679/1"
  ],
  "paylasimli": true
 },
 "geometry": {
  "type": "MultiPolygon",
  "coordinates": [
   [
    [
     [
      32.6048,
      39.98065
     ],
     [
      32.60401,
      39.98067
     ],
     [
      32.60394,
      39.98065
     ],
     [
      32.60387,
      39.98061
     ],
     [
      32.60383,
      39.98057
     ],
     [
      32.6038,
      39.98052
     ],
     [
      32.60379,
      39.98045
     ],
     [
      32.60391,
      39.97994
     ],
     [
      32.60481,
      39.97994
     ],
     [
      32.6048,
      39.98065
     ]
    ]
   ]
  ]
 }
}