{
 "type": "Feature",
 "properties": {
  "isim": "Referans Ankara",
  "kaynak": "TKGM Parsel Sorgu (CBS) verisine dayalıdır; bilgilendirme amaçlıdır, resmi kadastro belgesi yerine geçmez.",
  "adalar": [
   "48507/1"
  ]
 },
 "geometry": {
  "type": "MultiPolygon",
  "coordinates": [
   [
    [
     [
      32.61044,
      39.97865
     ],
     [
      32.61132,
      39.97857
     ],
     [
      32.61152,
      39.97824
     ],
     [
      32.61137,
      39.9775
     ],
     [
      32.612,
      39.97749
     ],
     [
      32.61441,
      39.97742
     ],
     [
      32.61441,
      39.97799
     ],
     [
      32.61443,
      39.97809
     ],
     [
      32.61447,
      39.9782
     ],
     [
      32.6149,
      39.97873
     ],
     [
      32.61483,
      39.97886
     ],
     [
      32.61094,
      39.97914
     ],
     [
      32.61084,
      39.9791
     ],
     [
      32.61044,
      39.97865
     ]
    ]
   ]
  ]
 }
}