{"type": "Feature", "properties": {"isim": "Alarko Blokları", "kaynak": "TKGM Parsel Sorgu (CBS) verisine dayalıdır; bilgilendirme amaçlıdır, resmi kadastro belgesi yerine geçmez.", "adalar": ["17361/1", "17362/1", "17363/1", "17364/1", "17365/1", "17366/1", "17367/1", "17368/1"]}, "geometry": {"type": "MultiPolygon", "coordinates": [[[[32.6287, 39.9931], [32.62787, 39.99314], [32.62787, 39.99308], [32.62793, 39.99281], [32.62827, 39.99245], [32.62884, 39.99235], [32.62893, 39.99286], [32.6287, 39.9931]]], [[[32.62884, 39.99373], [32.62821, 39.99407], [32.62809, 39.99394], [32.62804, 39.99386], [32.62799, 39.99375], [32.62794, 39.99364], [32.62792, 39.99353], [32.62788, 39.9932], [32.62866, 39.99316], [32.62865, 39.99328], [32.62866, 39.9934], [32.6287, 39.99351], [32.62875, 39.99362], [32.62884, 39.99373]]], [[[32.62948, 39.99447], [32.62945, 39.99456], [32.62896, 39.99481], [32.62885, 39.9948], [32.6286, 39.99451], [32.62834, 39.99422], [32.62897, 39.99388], [32.62923, 39.99417], [32.62948, 39.99447]]], [[[32.63028, 39.99538], [32.62966, 39.99571], [32.62936, 39.99537], [32.62905, 39.99502], [32.62968, 39.9947], [32.62998, 39.99504], [32.63028, 39.99538]]], [[[32.63093, 39.99612], [32.63091, 39.99622], [32.63045, 39.99646], [32.63027, 39.99641], [32.62979, 39.99586], [32.63042, 39.99554], [32.63093, 39.99612]]], [[[32.63162, 39.99692], [32.63101, 39.99725], [32.63054, 39.99672], [32.63055, 39.99657], [32.63099, 39.99634], [32.63113, 39.99636], [32.63162, 39.99692]]], [[[32.63192, 39.99787], [32.63138, 39.99766], [32.63114, 39.9974], [32.63179, 39.99705], [32.63196, 39.99711], [32.63213, 39.99716], [32.63231, 39.99721], [32.63192, 39.99787]]], [[[32.63295, 39.99807], [32.6325, 39.9981], [32.632, 39.9979], [32.6322, 39.99756], [32.63239, 39.99723], [32.63255, 39.99726], [32.6327, 39.99728], [32.63286, 39.9973], [32.63299, 39.99731], [32.63297, 39.99769], [32.63295, 39.99807]]]]}}