{"type": "Feature", "properties": {"isim": "Eston Blokları", "kaynak": "TKGM Parsel Sorgu (CBS) verisine dayalıdır; bilgilendirme amaçlıdır, resmi kadastro belgesi yerine geçmez.", "adalar": ["17338/1", "17339/1", "17340/1", "17342/1"]}, "geometry": {"type": "MultiPolygon", "coordinates": [[[[32.62481, 39.99346], [32.6241, 39.99351], [32.62405, 39.99312], [32.62401, 39.99273], [32.62473, 39.99267], [32.62477, 39.99307], [32.62481, 39.99346]]], [[[32.62392, 39.99353], [32.62356, 39.99356], [32.62276, 39.99295], [32.62295, 39.99281], [32.62384, 39.99274], [32.62388, 39.99313], [32.62392, 39.99353]]], [[[32.6234, 39.99369], [32.62336, 39.99399], [32.62283, 39.99395], [32.62229, 39.99391], [32.62238, 39.99323], [32.62259, 39.99308], [32.623, 39.99339], [32.6234, 39.99369]]], [[[32.62319, 39.99522], [32.62308, 39.9953], [32.62224, 39.99524], [32.62214, 39.99515], [32.6222, 39.99469], [32.62273, 39.99473], [32.62325, 39.99477], [32.62319, 39.99522]]]]}}