{"type": "Feature", "properties": {"isim": "Eston 1 Blokları", "kaynak": "TKGM Parsel Sorgu (CBS) verisine dayalıdır; bilgilendirme amaçlıdır, resmi kadastro belgesi yerine geçmez.", "adalar": ["17328/1", "17329/1", "17330/1", "17331/1", "17332/1"]}, "geometry": {"type": "MultiPolygon", "coordinates": [[[[32.63038, 39.99785], [32.63003, 39.99831], [32.62929, 39.9983], [32.6293, 39.9976], [32.6294, 39.99746], [32.62989, 39.99766], [32.63038, 39.99785]]], [[[32.63075, 39.99735], [32.63042, 39.9978], [32.62994, 39.9976], [32.62945, 39.99741], [32.62957, 39.99724], [32.63031, 39.99686], [32.63075, 39.99735]]], [[[32.62974, 39.99694], [32.6293, 39.99717], [32.6289, 39.99671], [32.62934, 39.99648], [32.62978, 39.99625], [32.63018, 39.99671], [32.62974, 39.99694]]], [[[32.62973, 39.9962], [32.62929, 39.99643], [32.62885, 39.99666], [32.62846, 39.99621], [32.6289, 39.99598], [32.62934, 39.99575], [32.62973, 39.9962]]], [[[32.62877, 39.99584], [32.62833, 39.99607], [32.62793, 39.99562], [32.62837, 39.99539], [32.62881, 39.99515], [32.62921, 39.99561], [32.62877, 39.99584]]]]}}