{
 "type": "Feature",
 "properties": {
  "isim": "Genç Efes Sitesi",
  "kaynak": "TKGM Parsel Sorgu (CBS) verisine dayalıdır; bilgilendirme amaçlıdır, resmi kadastro belgesi yerine geçmez.",
  "adalar": [
   "46569/1"
  ]
 },
 "geometry": {
  "type": "MultiPolygon",
  "coordinates": [
   [
    [
     [
      32.63317,
      39.99732
     ],
     [
      32.63318,
      39.99728
     ],
     [
      32.63323,
      39.99727
     ],
     [
      32.63329,
      39.99725
     ],
     [
      32.6334,
      39.99722
     ],
     [
      32.6335,
      39.99718
     ],
     [
      32.6336,
      39.99713
     ],
     [
      32.63385,
      39.997
     ],
     [
      32.63417,
      39.99683
     ],
     [
      32.63432,
      39.99686
     ],
     [
      32.63462,
      39.99723
     ],
     [
      32.63461,
      39.99733
     ],
     [
      32.63439,
      39.99747
     ],
     [
      32.63425,
      39.99757
     ],
     [
      32.63396,
      39.99777
     ],
     [
      32.63386,
      39.99782
     ],
     [
      32.63375,
      39.99788
     ],
     [
      32.63364,
      39.99793
     ],
     [
      32.63354,
      39.99797
     ],
     [
      32.63341,
      39.998
     ],
     [
      32.6333,
      39.99803
     ],
     [
      32.63318,
      39.99804
     ],
     [
      32.63312,
      39.99803
     ],
     [
      32.63317,
      39.99732
     ]
    ]
   ]
  ]
 }
}