{
 "type": "Feature",
 "properties": {
  "isim": "İçtaş Blokları",
  "kaynak": "TKGM Parsel Sorgu (CBS) verisine dayalıdır; bilgilendirme amaçlıdır, resmi kadastro belgesi yerine geçmez.",
  "adalar": [
   "17346/1",
   "17347/1",
   "17348/1",
   "17349/1",
   "17350/1"
  ]
 },
 "geometry": {
  "type": "MultiPolygon",
  "coordinates": [
   [
    [
     [
      32.62459,
      39.9967
     ],
     [
      32.62457,
      39.99731
     ],
     [
      32.62366,
      39.9973
     ],
     [
      32.62361,
      39.99728
     ],
     [
      32.62357,
      39.99725
     ],
     [
      32.62354,
      39.99723
     ],
     [
      32.62347,
      39.99669
     ],
     [
      32.62403,
      39.99669
     ],
     [
      32.62459,
      39.9967
     ]
    ]
   ],
   [
    [
     [
      32.62562,
      39.99691
     ],
     [
      32.62561,
      39.99732
     ],
     [
      32.62492,
      39.99731
     ],
     [
      32.62492,
      39.99691
     ],
     [
      32.62493,
      39.9965
     ],
     [
      32.62563,
      39.99651
     ],
     [
      32.62562,
      39.99691
     ]
    ]
   ],
   [
    [
     [
      32.62658,
      39.99652
     ],
     [
      32.62657,
      39.99693
     ],
     [
      32.62656,
      39.99733
     ],
     [
      32.62585,
      39.99732
     ],
     [
      32.62586,
      39.99692
     ],
     [
      32.62587,
      39.99651
     ],
     [
      32.62658,
      39.99652
     ]
    ]
   ],
   [
    [
     [
      32.62785,
      39.99672
     ],
     [
      32.62783,
      39.99734
     ],
     [
      32.6273,
      39.99734
     ],
     [
      32.62678,
      39.99733
     ],
     [
      32.6268,
      39.99672
     ],
     [
      32.62732,
      39.99672
     ],
     [
      32.62785,
      39.99672
     ]
    ]
   ],
   [
    [
     [
      32.62897,
      39.99704
     ],
     [
      32.62897,
      39.99725
     ],
     [
      32.62882,
      39.99736
     ],
     [
      32.62848,
      39.99735
     ],
     [
      32.62792,
      39.99735
     ],
     [
      32.62793,
      39.99692
     ],
     [
      32.62794,
      39.99649
     ],
     [
      32.62831,
      39.99629
     ],
     [
      32.62864,
      39.99666
     ],
     [
      32.62897,
      39.99704
     ]
    ]
   ]
  ]
 }
}
