{
 "type": "Feature",
 "properties": {
  "isim": "İnci Park Evleri",
  "kaynak": "TKGM Parsel Sorgu (CBS) verisine dayalıdır; bilgilendirme amaçlıdır, resmi kadastro belgesi yerine geçmez.",
  "adalar": [
   "46222/1"
  ]
 },
 "geometry": {
  "type": "MultiPolygon",
  "coordinates": [
   [
    [
     [
      32.62513,
      40.00063
     ],
     [
      32.62475,
      40.0011
     ],
     [
      32.62444,
      40.00149
     ],
     [
      32.62414,
      40.00187
     ],
     [
      32.62365,
      40.0016
     ],
     [
      32.62328,
      40.00139
     ],
     [
      32.62325,
      40.00133
     ],
     [
      32.62349,
      40.00102
     ],
     [
      32.62384,
      40.00055
     ],
     [
      32.6242,
      40.00009
     ],
     [
      32.62431,
      40.00003
     ],
     [
      32.62468,
      40.00004
     ],
     [
      32.62515,
      40.00005
     ],
     [
      32.62513,
      40.00063
     ]
    ]
   ]
  ]
 }
}
