{
 "type": "Feature",
 "properties": {
  "isim": "Liderkent",
  "kaynak": "TKGM Parsel Sorgu (CBS) verisine dayalıdır; bilgilendirme amaçlıdır, resmi kadastro belgesi yerine geçmez.",
  "adalar": [
   "46274/1"
  ]
 },
 "geometry": {
  "type": "MultiPolygon",
  "coordinates": [
   [
    [
     [
      32.63332,
      39.999
     ],
     [
      32.63161,
      39.99929
     ],
     [
      32.63164,
      39.99891
     ],
     [
      32.63168,
      39.99878
     ],
     [
      32.63173,
      39.99869
     ],
     [
      32.6318,
      39.9986
     ],
     [
      32.63189,
      39.99849
     ],
     [
      32.63198,
      39.99843
     ],
     [
      32.63211,
      39.99837
     ],
     [
      32.63229,
      39.99834
     ],
     [
      32.63247,
      39.99833
     ],
     [
      32.63253,
      39.99832
     ],
     [
      32.63279,
      39.9983
     ],
     [
      32.63309,
      39.99829
     ],
     [
      32.63331,
      39.99827
     ],
     [
      32.63339,
      39.99826
     ],
     [
      32.63332,
      39.999
     ]
    ]
   ]
  ]
 }
}