{"type": "Feature", "properties": {"isim": "Onur Sitesi", "kaynak": "TKGM Parsel Sorgu (CBS) verisine dayalıdır; bilgilendirme amaçlıdır, resmi kadastro belgesi yerine geçmez.", "adalar": ["46215/5"]}, "geometry": {"type": "Polygon", "coordinates": [[[32.62093, 40.00298], [32.62107, 40.00297], [32.62108, 40.00302], [32.62116, 40.00301], [32.62115, 40.00297], [32.62188, 40.00317], [32.62131, 40.00428], [32.62123, 40.00432], [32.62055, 40.00442], [32.6205, 40.0044], [32.62038, 40.00383], [32.62109, 40.00375], [32.62093, 40.00298]]]}}