{
 "type": "Feature",
 "properties": {
  "isim": "Sümeyra Sitesi",
  "kaynak": "TKGM Parsel Sorgu (CBS) verisine dayalıdır; bilgilendirme amaçlıdır, resmi kadastro belgesi yerine geçmez.",
  "adalar": [
   "46224/1"
  ]
 },
 "geometry": {
  "type": "MultiPolygon",
  "coordinates": [
   [
    [
     [
      32.62611,
      40.0011
     ],
     [
      32.62608,
      40.00116
     ],
     [
      32.62604,
      40.00122
     ],
     [
      32.62587,
      40.00143
     ],
     [
      32.62539,
      40.00119
     ],
     [
      32.62495,
      40.00098
     ],
     [
      32.62522,
      40.00064
     ],
     [
      32.62523,
      40.00005
     ],
     [
      32.62569,
      40.00005
     ],
     [
      32.6261,
      40.00006
     ],
     [
      32.62616,
      40.00011
     ],
     [
      32.62614,
      40.00056
     ],
     [
      32.62612,
      40.00101
     ],
     [
      32.62611,
      40.0011
     ]
    ]
   ]
  ]
 }
}