{"type": "Feature", "properties": {"isim": "Sutek Blokları", "kaynak": "TKGM Parsel Sorgu (CBS) verisine dayalıdır; bilgilendirme amaçlıdır, resmi kadastro belgesi yerine geçmez.", "adalar": ["17352/1", "17353/1", "17354/1"]}, "geometry": {"type": "MultiPolygon", "coordinates": [[[[32.62761, 39.99549], [32.62707, 39.99577], [32.62682, 39.99574], [32.62643, 39.99529], [32.62711, 39.99493], [32.62761, 39.99549]]], [[[32.62701, 39.99481], [32.62633, 39.99517], [32.62584, 39.99461], [32.62652, 39.99425], [32.62701, 39.99481]]], [[[32.62639, 39.9941], [32.62571, 39.99446], [32.62524, 39.99393], [32.62533, 39.99356], [32.6257, 39.99353], [32.6258, 39.99354], [32.62588, 39.99357], [32.62596, 39.99362], [32.62639, 39.9941]]]]}}