{
 "type": "Feature",
 "properties": {
  "isim": "Tekser Blokları",
  "kaynak": "TKGM Parsel Sorgu (CBS) verisine dayalıdır; bilgilendirme amaçlıdır, resmi kadastro belgesi yerine geçmez.",
  "adalar": [
   "17322/1",
   "17323/1",
   "17324/1",
   "17325/1",
   "17326/1",
   "17327/1"
  ]
 },
 "geometry": {
  "type": "MultiPolygon",
  "coordinates": [
   [
    [
     [
      32.62411,
      39.99825
     ],
     [
      32.62412,
      39.99784
     ],
     [
      32.62413,
      39.99744
     ],
     [
      32.62483,
      39.99744
     ],
     [
      32.62483,
      39.99785
     ],
     [
      32.62482,
      39.99825
     ],
     [
      32.62411,
      39.99825
     ]
    ]
   ],
   [
    [
     [
      32.6256,
      39.99786
     ],
     [
      32.6256,
      39.99826
     ],
     [
      32.6249,
      39.99825
     ],
     [
      32.62491,
      39.99786
     ],
     [
      32.62492,
      39.99745
     ],
     [
      32.62561,
      39.99745
     ],
     [
      32.6256,
      39.99786
     ]
    ]
   ],
   [
    [
     [
      32.62654,
      39.99787
     ],
     [
      32.62654,
      39.99827
     ],
     [
      32.62583,
      39.99826
     ],
     [
      32.62584,
      39.99786
     ],
     [
      32.62585,
      39.99746
     ],
     [
      32.62655,
      39.99747
     ],
     [
      32.62654,
      39.99787
     ]
    ]
   ],
   [
    [
     [
      32.62734,
      39.99747
     ],
     [
      32.62733,
      39.99788
     ],
     [
      32.62732,
      39.99828
     ],
     [
      32.62662,
      39.99827
     ],
     [
      32.62663,
      39.99787
     ],
     [
      32.62664,
      39.99747
     ],
     [
      32.62734,
      39.99747
     ]
    ]
   ],
   [
    [
     [
      32.62828,
      39.99749
     ],
     [
      32.62827,
      39.99789
     ],
     [
      32.62826,
      39.99829
     ],
     [
      32.62756,
      39.99828
     ],
     [
      32.62757,
      39.99788
     ],
     [
      32.62758,
      39.99748
     ],
     [
      32.62828,
      39.99749
     ]
    ]
   ],
   [
    [
     [
      32.62908,
      39.99758
     ],
     [
      32.62906,
      39.99794
     ],
     [
      32.62905,
      39.9983
     ],
     [
      32.62834,
      39.99829
     ],
     [
      32.62835,
      39.99789
     ],
     [
      32.62836,
      39.99749
     ],
     [
      32.62897,
      39.99749
     ],
     [
      32.62908,
      39.99758
     ]
    ]
   ]
  ]
 }
}