{
 "type": "Feature",
 "properties": {
  "isim": "Turkuaz Sitesi",
  "kaynak": "TKGM Parsel Sorgu (CBS) verisine dayalıdır; bilgilendirme amaçlıdır, resmi kadastro belgesi yerine geçmez.",
  "adalar": [
   "46273/3"
  ]
 },
 "geometry": {
  "type": "MultiPolygon",
  "coordinates": [
   [
    [
     [
      32.63507,
      39.9985
     ],
     [
      32.63505,
      39.99859
     ],
     [
      32.63503,
      39.99863
     ],
     [
      32.63492,
      39.99868
     ],
     [
      32.63407,
      39.99885
     ],
     [
      32.63412,
      39.99833
     ],
     [
      32.63416,
      39.99792
     ],
     [
      32.63444,
      39.99774
     ],
     [
      32.63491,
      39.99742
     ],
     [
      32.63498,
      39.99743
     ],
     [
      32.63505,
      39.9975
     ],
     [
      32.63506,
      39.99798
     ],
     [
      32.63507,
      39.9985
     ]
    ]
   ]
  ]
 }
}