{
 "type": "Feature",
 "properties": {
  "isim": "Umut Sitesi",
  "kaynak": "TKGM Parsel Sorgu (CBS) verisine dayalıdır; bilgilendirme amaçlıdır, resmi kadastro belgesi yerine geçmez.",
  "adalar": [
   "46488/2"
  ]
 },
 "geometry": {
  "type": "MultiPolygon",
  "coordinates": [
   [
    [
     [
      32.63366,
      39.99372
     ],
     [
      32.63365,
      39.99365
     ],
     [
      32.63374,
      39.99365
     ],
     [
      32.63374,
      39.99357
     ],
     [
      32.63364,
      39.99357
     ],
     [
      32.63364,
      39.99351
     ],
     [
      32.63365,
      39.99341
     ],
     [
      32.63368,
      39.99329
     ],
     [
      32.63371,
      39.9932
     ],
     [
      32.63377,
      39.99311
     ],
     [
      32.63433,
      39.99227
     ],
     [
      32.63441,
      39.99223
     ],
     [
      32.63542,
      39.99218
     ],
     [
      32.63547,
      39.99221
     ],
     [
      32.63547,
      39.99432
     ],
     [
      32.63541,
      39.99435
     ],
     [
      32.63366,
      39.99372
     ]
    ]
   ]
  ]
 }
}
