{"type": "Feature", "properties": {"isim": "Yardımcı Blokları", "kaynak": "TKGM Parsel Sorgu (CBS) verisine dayalıdır; bilgilendirme amaçlıdır, resmi kadastro belgesi yerine geçmez.", "adalar": ["17321/1", "17343/1", "17344/1", "17345/1", "17358/1"]}, "geometry": {"type": "MultiPolygon", "coordinates": [[[[32.62395, 39.99784], [32.62394, 39.99824], [32.62306, 39.99823], [32.6228, 39.99805], [32.62317, 39.99774], [32.62355, 39.99743], [32.62395, 39.99743], [32.62395, 39.99784]]], [[[32.62318, 39.99567], [32.62324, 39.99621], [32.62272, 39.99625], [32.62219, 39.99628], [32.62212, 39.99575], [32.62318, 39.99567]]], [[[32.62333, 39.99694], [32.6228, 39.99697], [32.62227, 39.997], [32.62221, 39.99646], [32.62274, 39.99643], [32.62326, 39.99639], [32.62333, 39.99694]]], [[[32.62337, 39.99731], [32.62301, 39.99761], [32.62263, 39.99792], [32.62235, 39.99773], [32.62228, 39.99707], [32.62281, 39.99703], [32.62333, 39.997], [32.62337, 39.99731]]], [[[32.62418, 39.99647], [32.62345, 39.99646], [32.6234, 39.99607], [32.62336, 39.99568], [32.62368, 39.99568], [32.6242, 39.99569], [32.62419, 39.99608], [32.62418, 39.99647]]]]}}