{
 "type": "Feature",
 "properties": {
  "isim": "Yeşil Vadim Sitesi",
  "kaynak": "TKGM Parsel Sorgu (CBS) verisine dayalıdır; bilgilendirme amaçlıdır, resmi kadastro belgesi yerine geçmez.",
  "adalar": [
   "46216/1"
  ]
 },
 "geometry": {
  "type": "MultiPolygon",
  "coordinates": [
   [
    [
     [
      32.62208,
      40.00278
     ],
     [
      32.62191,
      40.00311
     ],
     [
      32.62113,
      40.0029
     ],
     [
      32.62021,
      40.00301
     ],
     [
      32.62013,
      40.00263
     ],
     [
      32.62006,
      40.00228
     ],
     [
      32.62011,
      40.00214
     ],
     [
      32.6205,
      40.00185
     ],
     [
      32.62061,
      40.00179
     ],
     [
      32.62072,
      40.00175
     ],
     [
      32.62083,
      40.00173
     ],
     [
      32.62096,
      40.00173
     ],
     [
      32.62108,
      40.00174
     ],
     [
      32.62124,
      40.00178
     ],
     [
      32.6213,
      40.00181
     ],
     [
      32.62184,
      40.00212
     ],
     [
      32.62221,
      40.00233
     ],
     [
      32.62227,
      40.00243
     ],
     [
      32.62208,
      40.00278
     ]
    ]
   ]
  ]
 }
}
