{
 "type": "Feature",
 "properties": {
  "isim": "Yeşil Aşiyan Sitesi",
  "kaynak": "TKGM Parsel Sorgu (CBS) verisine dayalıdır; bilgilendirme amaçlıdır, resmi kadastro belgesi yerine geçmez.",
  "adalar": [
   "46489/1"
  ]
 },
 "geometry": {
  "type": "MultiPolygon",
  "coordinates": [
   [
    [
     [
      32.63215,
      39.99372
     ],
     [
      32.63128,
      39.99349
     ],
     [
      32.63087,
      39.9931
     ],
     [
      32.63086,
      39.99243
     ],
     [
      32.634,
      39.99224
     ],
     [
      32.63408,
      39.99228
     ],
     [
      32.63408,
      39.99233
     ],
     [
      32.63361,
      39.99306
     ],
     [
      32.63354,
      39.99316
     ],
     [
      32.63351,
      39.99325
     ],
     [
      32.63348,
      39.99338
     ],
     [
      32.63347,
      39.99349
     ],
     [
      32.63347,
      39.9936
     ],
     [
      32.63342,
      39.99363
     ],
     [
      32.63215,
      39.99372
     ]
    ]
   ]
  ]
 }
}
