{
 "type": "Feature",
 "properties": {
  "isim": "Batımahal Başpınar",
  "kaynak": "TKGM Parsel Sorgu (CBS) verisine dayalıdır; bilgilendirme amaçlıdır, resmi kadastro belgesi yerine geçmez.",
  "adalar": [
   "63280/2"
  ]
 },
 "geometry": {
  "type": "MultiPolygon",
  "coordinates": [
   [
    [
     [
      32.66026,
      40.00142
     ],
     [
      32.66033,
      40.00046
     ],
     [
      32.6604,
      40.00041
     ],
     [
      32.66231,
      40.00029
     ],
     [
      32.66239,
      40.00036
     ],
     [
      32.66251,
      40.0011
     ],
     [
      32.66263,
      40.00141
     ],
     [
      32.66026,
      40.00142
     ]
    ]
   ]
  ]
 }
}