{
 "type": "Feature",
 "properties": {
  "isim": "Bordo Göl Evleri",
  "kaynak": "TKGM Parsel Sorgu (CBS) verisine dayalıdır; bilgilendirme amaçlıdır, resmi kadastro belgesi yerine geçmez.",
  "adalar": [
   "63376/6"
  ]
 },
 "geometry": {
  "type": "MultiPolygon",
  "coordinates": [
   [
    [
     [
      32.6468,
      40.00631
     ],
     [
      32.64654,
      40.00616
     ],
     [
      32.64619,
      40.00597
     ],
     [
      32.64675,
      40.00509
     ],
     [
      32.64723,
      40.00514
     ],
     [
      32.64728,
      40.00515
     ],
     [
      32.64733,
      40.00516
     ],
     [
      32.64738,
      40.00517
     ],
     [
      32.64744,
      40.0052
     ],
     [
      32.64747,
      40.00521
     ],
     [
      32.64751,
      40.00523
     ],
     [
      32.64755,
      40.00526
     ],
     [
      32.64759,
      40.00529
     ],
     [
      32.64762,
      40.00532
     ],
     [
      32.64765,
      40.00535
     ],
     [
      32.64785,
      40.00559
     ],
     [
      32.6468,
      40.00631
     ]
    ]
   ]
  ]
 }
}
