{
 "type": "Feature",
 "properties": {
  "isim": "Çağ Life Sitesi",
  "kaynak": "TKGM Parsel Sorgu (CBS) verisine dayalıdır; bilgilendirme amaçlıdır, resmi kadastro belgesi yerine geçmez.",
  "adalar": [
   "63387/2"
  ]
 },
 "geometry": {
  "type": "MultiPolygon",
  "coordinates": [
   [
    [
     [
      32.64199,
      40.00356
     ],
     [
      32.64197,
      40.00365
     ],
     [
      32.64195,
      40.00374
     ],
     [
      32.64194,
      40.00382
     ],
     [
      32.64194,
      40.00391
     ],
     [
      32.64194,
      40.004
     ],
     [
      32.64195,
      40.00409
     ],
     [
      32.64196,
      40.00418
     ],
     [
      32.64187,
      40.00428
     ],
     [
      32.64119,
      40.00443
     ],
     [
      32.64115,
      40.00384
     ],
     [
      32.64112,
      40.00326
     ],
     [
      32.64204,
      40.00339
     ],
     [
      32.64201,
      40.00347
     ],
     [
      32.64199,
      40.00356
     ]
    ]
   ]
  ]
 }
}