{"type": "Feature", "properties": {"isim": "Duru Life Konutları", "kaynak": "TKGM Parsel Sorgu (CBS) verisine dayalıdır; bilgilendirme amaçlıdır, resmi kadastro belgesi yerine geçmez.", "adalar": ["63268/3"]}, "geometry": {"type": "Polygon", "coordinates": [[[32.65977, 39.99327], [32.65973, 39.99247], [32.65969, 39.99176], [32.66044, 39.99173], [32.6605, 39.99178], [32.66051, 39.99228], [32.6606, 39.99248], [32.66063, 39.99261], [32.66062, 39.99274], [32.66057, 39.99288], [32.66055, 39.99291], [32.66044, 39.993], [32.66038, 39.99307], [32.66035, 39.99315], [32.66033, 39.99322], [32.66029, 39.99325], [32.65977, 39.99327]]]}}