{
 "type": "Feature",
 "properties": {
  "isim": "Göksu Hisar Evleri",
  "kaynak": "TKGM Parsel Sorgu (CBS) verisine dayalıdır; bilgilendirme amaçlıdır, resmi kadastro belgesi yerine geçmez.",
  "adalar": [
   "63929/3"
  ]
 },
 "geometry": {
  "type": "MultiPolygon",
  "coordinates": [
   [
    [
     [
      32.63166,
      40.01139
     ],
     [
      32.63141,
      40.01131
     ],
     [
      32.63159,
      40.01091
     ],
     [
      32.63179,
      40.01062
     ],
     [
      32.63368,
      40.01086
     ],
     [
      32.63368,
      40.01092
     ],
     [
      32.6337,
      40.01098
     ],
     [
      32.63371,
      40.01101
     ],
     [
      32.63373,
      40.01103
     ],
     [
      32.63374,
      40.01105
     ],
     [
      32.63376,
      40.01107
     ],
     [
      32.63379,
      40.01109
     ],
     [
      32.63391,
      40.01118
     ],
     [
      32.63392,
      40.01127
     ],
     [
      32.63386,
      40.01133
     ],
     [
      32.63381,
      40.01138
     ],
     [
      32.63376,
      40.01144
     ],
     [
      32.63166,
      40.01143
     ],
     [
      32.63166,
      40.01139
     ]
    ]
   ]
  ]
 }
}