{
 "type": "Feature",
 "properties": {
  "isim": "Lenora Göksu",
  "kaynak": "TKGM Parsel Sorgu (CBS) verisine dayalıdır; bilgilendirme amaçlıdır, resmi kadastro belgesi yerine geçmez.",
  "adalar": [
   "63377/3"
  ]
 },
 "geometry": {
  "type": "MultiPolygon",
  "coordinates": [
   [
    [
     [
      32.64897,
      40.00497
     ],
     [
      32.64898,
      40.00502
     ],
     [
      32.649,
      40.00508
     ],
     [
      32.64902,
      40.00514
     ],
     [
      32.64905,
      40.0052
     ],
     [
      32.64908,
      40.00525
     ],
     [
      32.64909,
      40.00527
     ],
     [
      32.64822,
      40.0057
     ],
     [
      32.64798,
      40.00542
     ],
     [
      32.64795,
      40.00538
     ],
     [
      32.64792,
      40.00533
     ],
     [
      32.6479,
      40.00529
     ],
     [
      32.64788,
      40.00525
     ],
     [
      32.64897,
      40.00497
     ]
    ]
   ]
  ]
 }
}