{
 "type": "Feature",
 "properties": {
  "isim": "Mabeyn Başpınar",
  "kaynak": "TKGM Parsel Sorgu (CBS) verisine dayalıdır; bilgilendirme amaçlıdır, resmi kadastro belgesi yerine geçmez.",
  "adalar": [
   "63276/1"
  ]
 },
 "geometry": {
  "type": "MultiPolygon",
  "coordinates": [
   [
    [
     [
      32.66293,
      39.99874
     ],
     [
      32.663,
      39.99871
     ],
     [
      32.66401,
      39.99904
     ],
     [
      32.66404,
      39.9999
     ],
     [
      32.66303,
      39.99997
     ],
     [
      32.66297,
      39.99992
     ],
     [
      32.66293,
      39.99874
     ]
    ]
   ]
  ]
 }
}