{
 "type": "Feature",
 "properties": {
  "isim": "Merdin Sitesi",
  "kaynak": "TKGM Parsel Sorgu (CBS) verisine dayalıdır; bilgilendirme amaçlıdır, resmi kadastro belgesi yerine geçmez.",
  "adalar": [
   "63352/5"
  ]
 },
 "geometry": {
  "type": "MultiPolygon",
  "coordinates": [
   [
    [
     [
      32.65161,
      40.00599
     ],
     [
      32.65231,
      40.00604
     ],
     [
      32.65223,
      40.00671
     ],
     [
      32.65153,
      40.00667
     ],
     [
      32.65161,
      40.00599
     ]
    ]
   ]
  ]
 }
}
