{
 "type": "Feature",
 "properties": {
  "isim": "Nil My Home",
  "kaynak": "TKGM Parsel Sorgu (CBS) verisine dayalıdır; bilgilendirme amaçlıdır, resmi kadastro belgesi yerine geçmez.",
  "adalar": [
   "63368/6"
  ]
 },
 "geometry": {
  "type": "MultiPolygon",
  "coordinates": [
   [
    [
     [
      32.63942,
      40.00644
     ],
     [
      32.63951,
      40.00621
     ],
     [
      32.64037,
      40.0058
     ],
     [
      32.64059,
      40.00585
     ],
     [
      32.64093,
      40.00626
     ],
     [
      32.64138,
      40.00683
     ],
     [
      32.64036,
      40.00731
     ],
     [
      32.6399,
      40.00674
     ],
     [
      32.63966,
      40.00685
     ],
     [
      32.63966,
      40.00683
     ],
     [
      32.63964,
      40.00679
     ],
     [
      32.63962,
      40.00675
     ],
     [
      32.6396,
      40.00672
     ],
     [
      32.63942,
      40.00644
     ]
    ]
   ]
  ]
 }
}