{
 "type": "Feature",
 "properties": {
  "isim": "Öniz Nirvana",
  "kaynak": "TKGM Parsel Sorgu (CBS) verisine dayalıdır; bilgilendirme amaçlıdır, resmi kadastro belgesi yerine geçmez.",
  "adalar": [
   "63339/4"
  ]
 },
 "geometry": {
  "type": "MultiPolygon",
  "coordinates": [
   [
    [
     [
      32.64816,
      40.01451
     ],
     [
      32.6477,
      40.01418
     ],
     [
      32.64697,
      40.01367
     ],
     [
      32.64765,
      40.0131
     ],
     [
      32.64842,
      40.01327
     ],
     [
      32.64855,
      40.01343
     ],
     [
      32.64816,
      40.01451
     ]
    ]
   ]
  ]
 }
}