{
 "type": "Feature",
 "properties": {
  "isim": "Sky Göksu",
  "kaynak": "TKGM Parsel Sorgu (CBS) verisine dayalıdır; bilgilendirme amaçlıdır, resmi kadastro belgesi yerine geçmez.",
  "adalar": [
   "63356/2"
  ]
 },
 "geometry": {
  "type": "MultiPolygon",
  "coordinates": [
   [
    [
     [
      32.65167,
      40.00525
     ],
     [
      32.65166,
      40.00521
     ],
     [
      32.65162,
      40.00513
     ],
     [
      32.6515,
      40.00499
     ],
     [
      32.65125,
      40.00474
     ],
     [
      32.65182,
      40.00441
     ],
     [
      32.65221,
      40.0048
     ],
     [
      32.65225,
      40.00484
     ],
     [
      32.65228,
      40.00489
     ],
     [
      32.65231,
      40.00493
     ],
     [
      32.65234,
      40.00499
     ],
     [
      32.65237,
      40.00507
     ],
     [
      32.65238,
      40.00509
     ],
     [
      32.65238,
      40.00511
     ],
     [
      32.65167,
      40.00525
     ]
    ]
   ]
  ]
 }
}
