{
 "type": "Feature",
 "properties": {
  "isim": "Altaş Rezidans",
  "kaynak": "TKGM Parsel Sorgu (CBS) verisine dayalıdır; bilgilendirme amaçlıdır, resmi kadastro belgesi yerine geçmez.",
  "adalar": [
   "46362/4"
  ]
 },
 "geometry": {
  "type": "MultiPolygon",
  "coordinates": [
   [
    [
     [
      32.6572,
      39.96773
     ],
     [
      32.65632,
      39.96782
     ],
     [
      32.65621,
      39.96732
     ],
     [
      32.65624,
      39.96728
     ],
     [
      32.65627,
      39.96725
     ],
     [
      32.65631,
      39.96723
     ],
     [
      32.65636,
      39.96721
     ],
     [
      32.6572,
      39.96716
     ],
     [
      32.6572,
      39.96773
     ]
    ]
   ]
  ]
 }
}