{
 "type": "Feature",
 "properties": {
  "isim": "Bahçen Eryaman Konutları",
  "kaynak": "TKGM Parsel Sorgu (CBS) verisine dayalıdır; bilgilendirme amaçlıdır, resmi kadastro belgesi yerine geçmez.",
  "adalar": [
   "46360/3"
  ]
 },
 "geometry": {
  "type": "MultiPolygon",
  "coordinates": [
   [
    [
     [
      32.65232,
      39.96966
     ],
     [
      32.65153,
      39.96849
     ],
     [
      32.65069,
      39.96722
     ],
     [
      32.65162,
      39.9667
     ],
     [
      32.65286,
      39.96682
     ],
     [
      32.65294,
      39.96688
     ],
     [
      32.65307,
      39.96731
     ],
     [
      32.65297,
      39.96736
     ],
     [
      32.65312,
      39.96781
     ],
     [
      32.65323,
      39.96787
     ],
     [
      32.65333,
      39.96818
     ],
     [
      32.65353,
      39.96929
     ],
     [
      32.65232,
      39.96966
     ]
    ]
   ]
  ]
 }
}