{
 "type": "Feature",
 "properties": {
  "isim": "Relax Line",
  "kaynak": "TKGM Parsel Sorgu (CBS) verisine dayalıdır; bilgilendirme amaçlıdır, resmi kadastro belgesi yerine geçmez.",
  "adalar": [
   "46362/3"
  ],
  "paylasimli": true
 },
 "geometry": {
  "type": "MultiPolygon",
  "coordinates": [
   [
    [
     [
      32.65827,
      39.96762
     ],
     [
      32.6572,
      39.96773
     ],
     [
      32.6572,
      39.96716
     ],
     [
      32.65819,
      39.9671
     ],
     [
      32.65826,
      39.96715
     ],
     [
      32.65827,
      39.96762
     ]
    ]
   ]
  ]
 }
}