{"type": "Feature", "properties": {"isim": "Atatürk Sitesi", "kaynak": "TKGM Parsel Sorgu (CBS) verisine dayalıdır; bilgilendirme amaçlıdır, resmi kadastro belgesi yerine geçmez.", "adalar": ["17313/1"]}, "geometry": {"type": "Polygon", "coordinates": [[[32.63637, 39.97254], [32.6371, 39.97253], [32.63718, 39.97258], [32.63719, 39.97303], [32.63747, 39.97331], [32.63733, 39.97423], [32.63705, 39.97421], [32.63677, 39.97392], [32.63669, 39.97383], [32.63663, 39.97374], [32.63657, 39.97363], [32.63651, 39.97352], [32.63647, 39.97343], [32.63643, 39.97334], [32.63641, 39.97328], [32.63639, 39.97321], [32.63637, 39.97314], [32.63637, 39.97307], [32.63635, 39.973], [32.63637, 39.97254]]]}}