{
 "type": "Feature",
 "properties": {
  "isim": "Betontaş Blokları",
  "kaynak": "TKGM Parsel Sorgu (CBS) verisine dayalıdır; bilgilendirme amaçlıdır, resmi kadastro belgesi yerine geçmez.",
  "adalar": [
   "17317/8"
  ]
 },
 "geometry": {
  "type": "MultiPolygon",
  "coordinates": [
   [
    [
     [
      32.64344,
      39.96929
     ],
     [
      32.64358,
      39.96922
     ],
     [
      32.64378,
      39.96942
     ],
     [
      32.64431,
      39.96912
     ],
     [
      32.6442,
      39.96854
     ],
     [
      32.64401,
      39.96849
     ],
     [
      32.64373,
      39.96802
     ],
     [
      32.64287,
      39.96847
     ],
     [
      32.64294,
      39.96855
     ],
     [
      32.64281,
      39.96861
     ],
     [
      32.64273,
      39.96853
     ],
     [
      32.64275,
      39.96837
     ],
     [
      32.64322,
      39.96813
     ],
     [
      32.64329,
      39.96821
     ],
     [
      32.64364,
      39.96803
     ],
     [
      32.64357,
      39.96795
     ],
     [
      32.64423,
      39.9676
     ],
     [
      32.64438,
      39.96758
     ],
     [
      32.64472,
      39.96756
     ],
     [
      32.64495,
      39.96772
     ],
     [
      32.64498,
      39.96791
     ],
     [
      32.64486,
      39.96792
     ],
     [
      32.64492,
      39.96833
     ],
     [
      32.64506,
      39.96844
     ],
     [
      32.64507,
      39.96848
     ],
     [
      32.64424,
      39.96855
     ],
     [
      32.64435,
      39.96913
     ],
     [
      32.64365,
      39.96953
     ],
     [
      32.64344,
      39.96929
     ]
    ]
   ]
  ]
 }
}