{
 "type": "Feature",
 "properties": {
  "isim": "Doktorlar Sitesi",
  "kaynak": "TKGM Parsel Sorgu (CBS) verisine dayalıdır; bilgilendirme amaçlıdır, resmi kadastro belgesi yerine geçmez.",
  "adalar": [
   "45890/1"
  ]
 },
 "geometry": {
  "type": "MultiPolygon",
  "coordinates": [
   [
    [
     [
      32.64834,
      39.97058
     ],
     [
      32.64734,
      39.97064
     ],
     [
      32.64733,
      39.97036
     ],
     [
      32.6483,
      39.9703
     ],
     [
      32.64834,
      39.97058
     ]
    ]
   ]
  ]
 }
}