{
 "type": "Feature",
 "properties": {
  "isim": "İlbeyi Sitesi",
  "kaynak": "TKGM Parsel Sorgu (CBS) verisine dayalıdır; bilgilendirme amaçlıdır, resmi kadastro belgesi yerine geçmez.",
  "adalar": [
   "45890/2"
  ]
 },
 "geometry": {
  "type": "MultiPolygon",
  "coordinates": [
   [
    [
     [
      32.6483,
      39.9703
     ],
     [
      32.64733,
      39.97036
     ],
     [
      32.64732,
      39.97022
     ],
     [
      32.64731,
      39.97008
     ],
     [
      32.64729,
      39.96999
     ],
     [
      32.64823,
      39.96989
     ],
     [
      32.6483,
      39.9703
     ]
    ]
   ]
  ]
 }
}