{
 "type": "Feature",
 "properties": {
  "isim": "Kutlutaş Blokları",
  "kaynak": "TKGM Parsel Sorgu (CBS) verisine dayalıdır; bilgilendirme amaçlıdır, resmi kadastro belgesi yerine geçmez.",
  "adalar": [
   "17499/1",
   "17500/1",
   "17501/1",
   "17502/1",
   "17503/1",
   "17504/1",
   "17505/1",
   "17506/1",
   "17507/1",
   "17508/1",
   "17509/1",
   "17510/1",
   "17511/1"
  ]
 },
 "geometry": {
  "type": "MultiPolygon",
  "coordinates": [
   [
    [
     [
      32.64483,
      39.97653
     ],
     [
      32.64434,
      39.97665
     ],
     [
      32.64384,
      39.97678
     ],
     [
      32.6437,
      39.97674
     ],
     [
      32.64359,
      39.97617
     ],
     [
      32.64364,
      39.97604
     ],
     [
      32.6445,
      39.97588
     ],
     [
      32.64459,
      39.97592
     ],
     [
      32.64483,
      39.97653
     ]
    ]
   ],
   [
    [
     [
      32.64605,
      39.97622
     ],
     [
      32.64555,
      39.97635
     ],
     [
      32.64505,
      39.97647
     ],
     [
      32.64481,
      39.97586
     ],
     [
      32.64487,
      39.97581
     ],
     [
      32.64574,
      39.97559
     ],
     [
      32.64605,
      39.97622
     ]
    ]
   ],
   [
    [
     [
      32.64741,
      39.97574
     ],
     [
      32.64741,
      39.97588
     ],
     [
      32.64686,
      39.97602
     ],
     [
      32.64631,
      39.97616
     ],
     [
      32.646,
      39.97552
     ],
     [
      32.64685,
      39.9753
     ],
     [
      32.64741,
      39.97574
     ]
    ]
   ],
   [
    [
     [
      32.64793,
      39.97555
     ],
     [
      32.64761,
      39.97565
     ],
     [
      32.64696,
      39.97513
     ],
     [
      32.647,
      39.9747
     ],
     [
      32.6475,
      39.97473
     ],
     [
      32.64802,
      39.97477
     ],
     [
      32.64797,
      39.97515
     ],
     [
      32.64793,
      39.97555
     ]
    ]
   ],
   [
    [
     [
      32.64701,
      39.97457
     ],
     [
      32.64707,
      39.97394
     ],
     [
      32.64758,
      39.97397
     ],
     [
      32.6481,
      39.974
     ],
     [
      32.64803,
      39.97463
     ],
     [
      32.64753,
      39.9746
     ],
     [
      32.64701,
      39.97457
     ]
    ]
   ],
   [
    [
     [
      32.64815,
      39.97373
     ],
     [
      32.64763,
      39.9737
     ],
     [
      32.6471,
      39.97368
     ],
     [
      32.64716,
      39.97312
     ],
     [
      32.64727,
      39.97306
     ],
     [
      32.64776,
      39.97309
     ],
     [
      32.64826,
      39.97312
     ],
     [
      32.64815,
      39.97373
     ]
    ]
   ],
   [
    [
     [
      32.64829,
      39.97294
     ],
     [
      32.64777,
      39.97291
     ],
     [
      32.64726,
      39.97288
     ],
     [
      32.64718,
      39.97283
     ],
     [
      32.64722,
      39.97242
     ],
     [
      32.64726,
      39.97201
     ],
     [
      32.64753,
      39.97205
     ],
     [
      32.64776,
      39.9721
     ],
     [
      32.64839,
      39.97233
     ],
     [
      32.64829,
      39.97294
     ]
    ]
   ],
   [
    [
     [
      32.64701,
      39.97285
     ],
     [
      32.64692,
      39.9729
     ],
     [
      32.64645,
      39.97287
     ],
     [
      32.64619,
      39.9725
     ],
     [
      32.64593,
      39.97214
     ],
     [
      32.64608,
      39.97209
     ],
     [
      32.64621,
      39.97207
     ],
     [
      32.64642,
      39.97203
     ],
     [
      32.64665,
      39.972
     ],
     [
      32.64687,
      39.972
     ],
     [
      32.64709,
      39.972
     ],
     [
      32.64705,
      39.97243
     ],
     [
      32.64701,
      39.97285
     ]
    ]
   ],
   [
    [
     [
      32.64621,
      39.97292
     ],
     [
      32.64555,
      39.9732
     ],
     [
      32.64523,
      39.97288
     ],
     [
      32.64492,
      39.97256
     ],
     [
      32.64572,
      39.97222
     ],
     [
      32.64597,
      39.97256
     ],
     [
      32.64621,
      39.97292
     ]
    ]
   ],
   [
    [
     [
      32.64532,
      39.97333
     ],
     [
      32.64507,
      39.9735
     ],
     [
      32.64484,
      39.97367
     ],
     [
      32.64474,
      39.97366
     ],
     [
      32.64438,
      39.97342
     ],
     [
      32.64401,
      39.97317
     ],
     [
      32.64437,
      39.97288
     ],
     [
      32.64449,
      39.9728
     ],
     [
      32.64465,
      39.9727
     ],
     [
      32.64498,
      39.97301
     ],
     [
      32.64532,
      39.97333
     ]
    ]
   ],
   [
    [
     [
      32.6446,
      39.97386
     ],
     [
      32.6442,
      39.97417
     ],
     [
      32.64322,
      39.97403
     ],
     [
      32.64326,
      39.9739
     ],
     [
      32.64334,
      39.97378
     ],
     [
      32.64341,
      39.97368
     ],
     [
      32.6435,
      39.97359
     ],
     [
      32.64357,
      39.97352
     ],
     [
      32.64385,
      39.9733
     ],
     [
      32.64458,
      39.97379
     ],
     [
      32.6446,
      39.97386
     ]
    ]
   ],
   [
    [
     [
      32.64437,
      39.97498
     ],
     [
      32.64386,
      39.97505
     ],
     [
      32.64328,
      39.97512
     ],
     [
      32.64325,
      39.97497
     ],
     [
      32.64323,
      39.97478
     ],
     [
      32.64321,
      39.97456
     ],
     [
      32.6432,
      39.97441
     ],
     [
      32.64425,
      39.9744
     ],
     [
      32.64437,
      39.97498
     ]
    ]
   ],
   [
    [
     [
      32.64451,
      39.97565
     ],
     [
      32.64443,
      39.97575
     ],
     [
      32.64362,
      39.97591
     ],
     [
      32.6435,
      39.97582
     ],
     [
      32.64341,
      39.97554
     ],
     [
      32.64333,
      39.9753
     ],
     [
      32.64385,
      39.97523
     ],
     [
      32.64441,
      39.97516
     ],
     [
      32.64451,
      39.97565
     ]
    ]
   ]
  ]
 }
}
