{
 "type": "Feature",
 "properties": {
  "isim": "Mood Street",
  "kaynak": "TKGM Parsel Sorgu (CBS) verisine dayalıdır; bilgilendirme amaçlıdır, resmi kadastro belgesi yerine geçmez.",
  "adalar": [
   "45898/2"
  ]
 },
 "geometry": {
  "type": "MultiPolygon",
  "coordinates": [
   [
    [
     [
      32.6458,
      39.96615
     ],
     [
      32.64543,
      39.96613
     ],
     [
      32.64528,
      39.96613
     ],
     [
      32.64505,
      39.96613
     ],
     [
      32.64495,
      39.96544
     ],
     [
      32.64577,
      39.96539
     ],
     [
      32.6458,
      39.96615
     ]
    ]
   ]
  ]
 }
}