{
 "type": "Feature",
 "properties": {
  "isim": "Uzuner Konutları",
  "kaynak": "TKGM Parsel Sorgu (CBS) verisine dayalıdır; bilgilendirme amaçlıdır, resmi kadastro belgesi yerine geçmez.",
  "adalar": [
   "45897/4"
  ]
 },
 "geometry": {
  "type": "MultiPolygon",
  "coordinates": [
   [
    [
     [
      32.6479,
      39.96708
     ],
     [
      32.64747,
      39.96712
     ],
     [
      32.64681,
      39.96717
     ],
     [
      32.64676,
      39.9669
     ],
     [
      32.64677,
      39.9668
     ],
     [
      32.64681,
      39.96669
     ],
     [
      32.64687,
      39.96661
     ],
     [
      32.64696,
      39.96653
     ],
     [
      32.64707,
      39.96648
     ],
     [
      32.64719,
      39.96645
     ],
     [
      32.64736,
      39.96643
     ],
     [
      32.64781,
      39.96645
     ],
     [
      32.6479,
      39.96708
     ]
    ]
   ]
  ]
 }
}