{
 "type": "Feature",
 "properties": {
  "isim": "Çiçek Sitesi",
  "kaynak": "TKGM Parsel Sorgu (CBS) verisine dayalıdır; bilgilendirme amaçlıdır, resmi kadastro belgesi yerine geçmez.",
  "adalar": [
   "17471/1"
  ]
 },
 "geometry": {
  "type": "MultiPolygon",
  "coordinates": [
   [
    [
     [
      32.64938,
      39.9835
     ],
     [
      32.64935,
      39.98393
     ],
     [
      32.64933,
      39.98399
     ],
     [
      32.64931,
      39.98405
     ],
     [
      32.64926,
      39.98409
     ],
     [
      32.64918,
      39.98412
     ],
     [
      32.64833,
      39.98409
     ],
     [
      32.64827,
      39.98408
     ],
     [
      32.64822,
      39.98406
     ],
     [
      32.64818,
      39.98403
     ],
     [
      32.64816,
      39.98399
     ],
     [
      32.64817,
      39.98349
     ],
     [
      32.64876,
      39.98349
     ],
     [
      32.64938,
      39.9835
     ]
    ]
   ]
  ]
 }
}
