{
 "type": "Feature",
 "properties": {
  "isim": "Demirer Sitesi",
  "kaynak": "TKGM Parsel Sorgu (CBS) verisine dayalıdır; bilgilendirme amaçlıdır, resmi kadastro belgesi yerine geçmez.",
  "adalar": [
   "17460/1",
   "17461/1",
   "17464/1",
   "17465/1",
   "17466/1",
   "17467/1",
   "17472/1"
  ]
 },
 "geometry": {
  "type": "MultiPolygon",
  "coordinates": [
   [
    [
     [
      32.64945,
      39.98509
     ],
     [
      32.64946,
      39.98474
     ],
     [
      32.64947,
      39.9844
     ],
     [
      32.64949,
      39.98434
     ],
     [
      32.64954,
      39.98429
     ],
     [
      32.64961,
      39.98426
     ],
     [
      32.65043,
      39.98429
     ],
     [
      32.65041,
      39.98471
     ],
     [
      32.65039,
      39.98514
     ],
     [
      32.64991,
      39.98511
     ],
     [
      32.64945,
      39.98509
     ]
    ]
   ],
   [
    [
     [
      32.65062,
      39.98515
     ],
     [
      32.65064,
      39.98473
     ],
     [
      32.65066,
      39.98429
     ],
     [
      32.65071,
      39.98429
     ],
     [
      32.65082,
      39.98427
     ],
     [
      32.65095,
      39.98423
     ],
     [
      32.65107,
      39.98418
     ],
     [
      32.65111,
      39.98416
     ],
     [
      32.65148,
      39.9845
     ],
     [
      32.65184,
      39.98484
     ],
     [
      32.6513,
      39.98518
     ],
     [
      32.65062,
      39.98515
     ]
    ]
   ],
   [
    [
     [
      32.64813,
      39.98492
     ],
     [
      32.64815,
      39.98433
     ],
     [
      32.64818,
      39.98429
     ],
     [
      32.64822,
      39.98426
     ],
     [
      32.64827,
      39.98424
     ],
     [
      32.64833,
      39.98423
     ],
     [
      32.64917,
      39.98425
     ],
     [
      32.64923,
      39.98428
     ],
     [
      32.64928,
      39.98434
     ],
     [
      32.64929,
      39.9844
     ],
     [
      32.64928,
      39.98493
     ],
     [
      32.6487,
      39.98492
     ],
     [
      32.64813,
      39.98492
     ]
    ]
   ],
   [
    [
     [
      32.65337,
      39.9827
     ],
     [
      32.65286,
      39.98218
     ],
     [
      32.6533,
      39.98193
     ],
     [
      32.65372,
      39.98168
     ],
     [
      32.65425,
      39.98221
     ],
     [
      32.65378,
      39.98248
     ],
     [
      32.65337,
      39.9827
     ]
    ]
   ],
   [
    [
     [
      32.65272,
      39.98204
     ],
     [
      32.65265,
      39.98198
     ],
     [
      32.65259,
      39.98193
     ],
     [
      32.65251,
      39.98189
     ],
     [
      32.65241,
      39.98187
     ],
     [
      32.65231,
      39.98188
     ],
     [
      32.65227,
      39.98107
     ],
     [
      32.65308,
      39.98105
     ],
     [
      32.65358,
      39.98154
     ],
     [
      32.65316,
      39.98178
     ],
     [
      32.65272,
      39.98204
     ]
    ]
   ],
   [
    [
     [
      32.65219,
      39.98188
     ],
     [
      32.65142,
      39.9819
     ],
     [
      32.65139,
      39.98109
     ],
     [
      32.65215,
      39.98107
     ],
     [
      32.65219,
      39.98188
     ]
    ]
   ],
   [
    [
     [
      32.65044,
      39.98192
     ],
     [
      32.6504,
      39.98112
     ],
     [
      32.65115,
      39.9811
     ],
     [
      32.65119,
      39.9819
     ],
     [
      32.65044,
      39.98192
     ]
    ]
   ]
  ]
 }
}
