{
 "type": "Feature",
 "properties": {
  "isim": "İnci Life Residence",
  "kaynak": "TKGM Parsel Sorgu (CBS) verisine dayalıdır; bilgilendirme amaçlıdır, resmi kadastro belgesi yerine geçmez.",
  "adalar": [
   "46658/1"
  ]
 },
 "geometry": {
  "type": "MultiPolygon",
  "coordinates": [
   [
    [
     [
      32.65763,
      39.97109
     ],
     [
      32.65687,
      39.9711
     ],
     [
      32.65686,
      39.97011
     ],
     [
      32.65762,
      39.9699
     ],
     [
      32.65762,
      39.97049
     ],
     [
      32.65763,
      39.97109
     ]
    ]
   ]
  ]
 }
}
