{
 "type": "Feature",
 "properties": {
  "isim": "Kıratlı Residence",
  "kaynak": "TKGM Parsel Sorgu (CBS) verisine dayalıdır; bilgilendirme amaçlıdır, resmi kadastro belgesi yerine geçmez.",
  "adalar": [
   "46659/6"
  ]
 },
 "geometry": {
  "type": "MultiPolygon",
  "coordinates": [
   [
    [
     [
      32.65745,
      39.97248
     ],
     [
      32.65686,
      39.97246
     ],
     [
      32.65686,
      39.97187
     ],
     [
      32.65687,
      39.97128
     ],
     [
      32.65745,
      39.97127
     ],
     [
      32.65745,
      39.97188
     ],
     [
      32.65745,
      39.97248
     ]
    ]
   ]
  ]
 }
}
