{
 "type": "Feature",
 "properties": {
  "isim": "Tan Yıldızı Sitesi",
  "kaynak": "TKGM Parsel Sorgu (CBS) verisine dayalıdır; bilgilendirme amaçlıdır, resmi kadastro belgesi yerine geçmez.",
  "adalar": [
   "46662/3"
  ]
 },
 "geometry": {
  "type": "MultiPolygon",
  "coordinates": [
   [
    [
     [
      32.65502,
      39.97022
     ],
     [
      32.65489,
      39.96942
     ],
     [
      32.65544,
      39.96931
     ],
     [
      32.65552,
      39.96983
     ],
     [
      32.65558,
      39.97017
     ],
     [
      32.65502,
      39.97022
     ]
    ]
   ]
  ]
 }
}
