{
 "type": "Feature",
 "properties": {
  "isim": "10. Botanik Evleri",
  "kaynak": "TKGM Parsel Sorgu (CBS) verisine dayalıdır; bilgilendirme amaçlıdır, resmi kadastro belgesi yerine geçmez.",
  "adalar": [
   "43264/8"
  ]
 },
 "geometry": {
  "type": "MultiPolygon",
  "coordinates": [
   [
    [
     [
      32.68607,
      39.9864
     ],
     [
      32.68582,
      39.98645
     ],
     [
      32.68515,
      39.98655
     ],
     [
      32.68485,
      39.98576
     ],
     [
      32.6849,
      39.98571
     ],
     [
      32.68589,
      39.98563
     ],
     [
      32.68607,
      39.9864
     ]
    ]
   ]
  ]
 }
}
