{
 "type": "Feature",
 "properties": {
  "isim": "Ahsen Sitesi",
  "kaynak": "TKGM Parsel Sorgu (CBS) verisine dayalıdır; bilgilendirme amaçlıdır, resmi kadastro belgesi yerine geçmez.",
  "adalar": [
   "43253/3"
  ]
 },
 "geometry": {
  "type": "MultiPolygon",
  "coordinates": [
   [
    [
     [
      32.69076,
      39.98678
     ],
     [
      32.6906,
      39.98607
     ],
     [
      32.69155,
      39.98599
     ],
     [
      32.69161,
      39.98601
     ],
     [
      32.69175,
      39.98662
     ],
     [
      32.69177,
      39.98677
     ],
     [
      32.69177,
      39.98682
     ],
     [
      32.69076,
      39.98678
     ]
    ]
   ]
  ]
 }
}
