{
 "type": "Feature",
 "properties": {
  "isim": "Altın Başak Konutları",
  "kaynak": "TKGM Parsel Sorgu (CBS) verisine dayalıdır; bilgilendirme amaçlıdır, resmi kadastro belgesi yerine geçmez.",
  "adalar": [
   "62684/3"
  ]
 },
 "geometry": {
  "type": "MultiPolygon",
  "coordinates": [
   [
    [
     [
      32.66431,
      39.98238
     ],
     [
      32.66333,
      39.98221
     ],
     [
      32.66331,
      39.98171
     ],
     [
      32.6634,
      39.98164
     ],
     [
      32.66445,
      39.98161
     ],
     [
      32.66431,
      39.98238
     ]
    ]
   ]
  ]
 }
}
