{
 "type": "Feature",
 "properties": {
  "isim": "Anadolu Vizyon Konutları",
  "kaynak": "TKGM Parsel Sorgu (CBS) verisine dayalıdır; bilgilendirme amaçlıdır, resmi kadastro belgesi yerine geçmez.",
  "adalar": [
   "63265/4"
  ]
 },
 "geometry": {
  "type": "MultiPolygon",
  "coordinates": [
   [
    [
     [
      32.66192,
      39.99319
     ],
     [
      32.66163,
      39.9932
     ],
     [
      32.66157,
      39.99316
     ],
     [
      32.66155,
      39.99311
     ],
     [
      32.6615,
      39.99303
     ],
     [
      32.66144,
      39.99296
     ],
     [
      32.66135,
      39.9929
     ],
     [
      32.66126,
      39.99285
     ],
     [
      32.66115,
      39.99281
     ],
     [
      32.66103,
      39.99279
     ],
     [
      32.66101,
      39.99277
     ],
     [
      32.66091,
      39.99113
     ],
     [
      32.66097,
      39.99108
     ],
     [
      32.66179,
      39.99103
     ],
     [
      32.66184,
      39.99193
     ],
     [
      32.66187,
      39.99244
     ],
     [
      32.66192,
      39.99319
     ]
    ]
   ]
  ]
 }
}