{
 "type": "Feature",
 "properties": {
  "isim": "AP İstGate",
  "kaynak": "TKGM Parsel Sorgu (CBS) verisine dayalıdır; bilgilendirme amaçlıdır, resmi kadastro belgesi yerine geçmez.",
  "adalar": [
   "62689/2"
  ]
 },
 "geometry": {
  "type": "MultiPolygon",
  "coordinates": [
   [
    [
     [
      32.66033,
      39.97628
     ],
     [
      32.66125,
      39.97647
     ],
     [
      32.66113,
      39.9768
     ],
     [
      32.66109,
      39.97697
     ],
     [
      32.66106,
      39.97713
     ],
     [
      32.66101,
      39.97762
     ],
     [
      32.65998,
      39.97753
     ],
     [
      32.66033,
      39.97628
     ]
    ]
   ]
  ]
 }
}