{
 "type": "Feature",
 "properties": {
  "isim": "Astim Skypark",
  "kaynak": "TKGM Parsel Sorgu (CBS) verisine dayalıdır; bilgilendirme amaçlıdır, resmi kadastro belgesi yerine geçmez.",
  "adalar": [
   "43253/5"
  ]
 },
 "geometry": {
  "type": "MultiPolygon",
  "coordinates": [
   [
    [
     [
      32.68993,
      39.98765
     ],
     [
      32.69016,
      39.9875
     ],
     [
      32.69033,
      39.98729
     ],
     [
      32.69046,
      39.98705
     ],
     [
      32.69053,
      39.98677
     ],
     [
      32.69076,
      39.98678
     ],
     [
      32.69177,
      39.98682
     ],
     [
      32.69178,
      39.98694
     ],
     [
      32.69175,
      39.98713
     ],
     [
      32.6917,
      39.98729
     ],
     [
      32.69161,
      39.98746
     ],
     [
      32.69152,
      39.98759
     ],
     [
      32.69134,
      39.98776
     ],
     [
      32.69065,
      39.98817
     ],
     [
      32.6906,
      39.98816
     ],
     [
      32.68993,
      39.98765
     ]
    ]
   ]
  ]
 }
}
