{
 "type": "Feature",
 "properties": {
  "isim": "Astim Platinium",
  "kaynak": "TKGM Parsel Sorgu (CBS) verisine dayalıdır; bilgilendirme amaçlıdır, resmi kadastro belgesi yerine geçmez.",
  "adalar": [
   "43255/1"
  ]
 },
 "geometry": {
  "type": "MultiPolygon",
  "coordinates": [
   [
    [
     [
      32.68859,
      39.98305
     ],
     [
      32.68779,
      39.98304
     ],
     [
      32.68773,
      39.98298
     ],
     [
      32.68773,
      39.98274
     ],
     [
      32.68776,
      39.98271
     ],
     [
      32.6878,
      39.9827
     ],
     [
      32.68851,
      39.9823
     ],
     [
      32.68861,
      39.9823
     ],
     [
      32.68859,
      39.98305
     ]
    ]
   ]
  ]
 }
}
