{
 "type": "Feature",
 "properties": {
  "isim": "Astim Metrolife",
  "kaynak": "TKGM Parsel Sorgu (CBS) verisine dayalıdır; bilgilendirme amaçlıdır, resmi kadastro belgesi yerine geçmez.",
  "adalar": [
   "62681/1"
  ]
 },
 "geometry": {
  "type": "MultiPolygon",
  "coordinates": [
   [
    [
     [
      32.66192,
      39.98316
     ],
     [
      32.66137,
      39.98276
     ],
     [
      32.66131,
      39.98257
     ],
     [
      32.66157,
      39.98175
     ],
     [
      32.66169,
      39.98168
     ],
     [
      32.66278,
      39.98165
     ],
     [
      32.6629,
      39.98174
     ],
     [
      32.66292,
      39.98221
     ],
     [
      32.66291,
      39.98232
     ],
     [
      32.66289,
      39.98243
     ],
     [
      32.66285,
      39.98253
     ],
     [
      32.66279,
      39.98263
     ],
     [
      32.66271,
      39.98272
     ],
     [
      32.66262,
      39.9828
     ],
     [
      32.66216,
      39.98316
     ],
     [
      32.66192,
      39.98316
     ]
    ]
   ]
  ]
 }
}
