{
 "type": "Feature",
 "properties": {
  "isim": "Botanik Park Evleri",
  "kaynak": "TKGM Parsel Sorgu (CBS) verisine dayalıdır; bilgilendirme amaçlıdır, resmi kadastro belgesi yerine geçmez.",
  "adalar": [
   "43254/6"
  ]
 },
 "geometry": {
  "type": "MultiPolygon",
  "coordinates": [
   [
    [
     [
      32.69078,
      39.98485
     ],
     [
      32.69132,
      39.9848
     ],
     [
      32.69134,
      39.98486
     ],
     [
      32.69152,
      39.98565
     ],
     [
      32.6915,
      39.98567
     ],
     [
      32.69098,
      39.98572
     ],
     [
      32.69017,
      39.98579
     ],
     [
      32.68996,
      39.98492
     ],
     [
      32.69078,
      39.98485
     ]
    ]
   ]
  ]
 }
}
