{
 "type": "Feature",
 "properties": {
  "isim": "Bulvar Yaşam Konutları",
  "kaynak": "TKGM Parsel Sorgu (CBS) verisine dayalıdır; bilgilendirme amaçlıdır, resmi kadastro belgesi yerine geçmez.",
  "adalar": [
   "62692/1"
  ]
 },
 "geometry": {
  "type": "MultiPolygon",
  "coordinates": [
   [
    [
     [
      32.66331,
      39.97162
     ],
     [
      32.66331,
      39.97156
     ],
     [
      32.66374,
      39.97123
     ],
     [
      32.66389,
      39.97113
     ],
     [
      32.66451,
      39.9713
     ],
     [
      32.66435,
      39.97157
     ],
     [
      32.66436,
      39.97174
     ],
     [
      32.66403,
      39.97206
     ],
     [
      32.66331,
      39.97162
     ]
    ]
   ]
  ]
 }
}