{
 "type": "Feature",
 "properties": {
  "isim": "Çimtaş Göksu Konutları",
  "kaynak": "TKGM Parsel Sorgu (CBS) verisine dayalıdır; bilgilendirme amaçlıdır, resmi kadastro belgesi yerine geçmez.",
  "adalar": [
   "63262/5"
  ]
 },
 "geometry": {
  "type": "MultiPolygon",
  "coordinates": [
   [
    [
     [
      32.66032,
      39.99698
     ],
     [
      32.66009,
      39.99689
     ],
     [
      32.66005,
      39.99677
     ],
     [
      32.66056,
      39.99619
     ],
     [
      32.6616,
      39.99654
     ],
     [
      32.66165,
      39.99655
     ],
     [
      32.66111,
      39.99724
     ],
     [
      32.66032,
      39.99698
     ]
    ]
   ]
  ]
 }
}