{
 "type": "Feature",
 "properties": {
  "isim": "Diamond Göksu",
  "kaynak": "TKGM Parsel Sorgu (CBS) verisine dayalıdır; bilgilendirme amaçlıdır, resmi kadastro belgesi yerine geçmez.",
  "adalar": [
   "62658/2"
  ]
 },
 "geometry": {
  "type": "MultiPolygon",
  "coordinates": [
   [
    [
     [
      32.66353,
      39.98968
     ],
     [
      32.66247,
      39.98971
     ],
     [
      32.66243,
      39.98907
     ],
     [
      32.6625,
      39.98895
     ],
     [
      32.66285,
      39.98869
     ],
     [
      32.66308,
      39.98869
     ],
     [
      32.66324,
      39.98881
     ],
     [
      32.6633,
      39.98886
     ],
     [
      32.66335,
      39.98892
     ],
     [
      32.66339,
      39.98897
     ],
     [
      32.66343,
      39.98903
     ],
     [
      32.66346,
      39.98909
     ],
     [
      32.66349,
      39.98915
     ],
     [
      32.6635,
      39.98922
     ],
     [
      32.66351,
      39.98928
     ],
     [
      32.66353,
      39.98968
     ]
    ]
   ]
  ]
 }
}