{
 "type": "Feature",
 "properties": {
  "isim": "Ender Doğuş Konut Yapı",
  "kaynak": "TKGM Parsel Sorgu (CBS) verisine dayalıdır; bilgilendirme amaçlıdır, resmi kadastro belgesi yerine geçmez.",
  "adalar": [
   "43259/7"
  ]
 },
 "geometry": {
  "type": "MultiPolygon",
  "coordinates": [
   [
    [
     [
      32.68567,
      39.98155
     ],
     [
      32.68555,
      39.98162
     ],
     [
      32.68557,
      39.98183
     ],
     [
      32.68506,
      39.98175
     ],
     [
      32.68463,
      39.98167
     ],
     [
      32.68414,
      39.98159
     ],
     [
      32.68414,
      39.98155
     ],
     [
      32.68413,
      39.98128
     ],
     [
      32.68415,
      39.98099
     ],
     [
      32.68466,
      39.98118
     ],
     [
      32.68515,
      39.9804
     ],
     [
      32.6854,
      39.98063
     ],
     [
      32.68635,
      39.98116
     ],
     [
      32.68635,
      39.98118
     ],
     [
      32.68595,
      39.9814
     ],
     [
      32.68567,
      39.98155
     ]
    ]
   ]
  ]
 }
}