{
 "type": "Feature",
 "properties": {
  "isim": "Gölde Lüxe Konutları",
  "kaynak": "TKGM Parsel Sorgu (CBS) verisine dayalıdır; bilgilendirme amaçlıdır, resmi kadastro belgesi yerine geçmez.",
  "adalar": [
   "62655/2"
  ]
 },
 "geometry": {
  "type": "MultiPolygon",
  "coordinates": [
   [
    [
     [
      32.65723,
      39.98951
     ],
     [
      32.6588,
      39.98941
     ],
     [
      32.659,
      39.9895
     ],
     [
      32.65911,
      39.99052
     ],
     [
      32.65727,
      39.99064
     ],
     [
      32.65715,
      39.98951
     ],
     [
      32.65723,
      39.98951
     ]
    ]
   ]
  ]
 }
}
