{
 "type": "Feature",
 "properties": {
  "isim": "Hittown",
  "kaynak": "TKGM Parsel Sorgu (CBS) verisine dayalıdır; bilgilendirme amaçlıdır, resmi kadastro belgesi yerine geçmez.",
  "adalar": [
   "62685/1"
  ]
 },
 "geometry": {
  "type": "MultiPolygon",
  "coordinates": [
   [
    [
     [
      32.66341,
      39.9815
     ],
     [
      32.6633,
      39.98142
     ],
     [
      32.66326,
      39.98062
     ],
     [
      32.66324,
      39.98008
     ],
     [
      32.66332,
      39.98001
     ],
     [
      32.66508,
      39.97996
     ],
     [
      32.66516,
      39.98001
     ],
     [
      32.66514,
      39.98139
     ],
     [
      32.66504,
      39.98146
     ],
     [
      32.66341,
      39.9815
     ]
    ]
   ]
  ]
 }
}
