{
 "type": "Feature",
 "properties": {
  "isim": "Hotki Bulvar",
  "kaynak": "TKGM Parsel Sorgu (CBS) verisine dayalıdır; bilgilendirme amaçlıdır, resmi kadastro belgesi yerine geçmez.",
  "adalar": [
   "62677/4"
  ]
 },
 "geometry": {
  "type": "MultiPolygon",
  "coordinates": [
   [
    [
     [
      32.65955,
      39.98347
     ],
     [
      32.65942,
      39.98388
     ],
     [
      32.65813,
      39.98364
     ],
     [
      32.65825,
      39.98324
     ],
     [
      32.65836,
      39.98288
     ],
     [
      32.65844,
      39.98283
     ],
     [
      32.65961,
      39.98306
     ],
     [
      32.65965,
      39.98312
     ],
     [
      32.65955,
      39.98347
     ]
    ]
   ]
  ]
 }
}