{
 "type": "Feature",
 "properties": {
  "isim": "Huzur Park Sitesi",
  "kaynak": "TKGM Parsel Sorgu (CBS) verisine dayalıdır; bilgilendirme amaçlıdır, resmi kadastro belgesi yerine geçmez.",
  "adalar": [
   "43254/1"
  ]
 },
 "geometry": {
  "type": "MultiPolygon",
  "coordinates": [
   [
    [
     [
      32.68945,
      39.98585
     ],
     [
      32.68941,
      39.98583
     ],
     [
      32.68923,
      39.98499
     ],
     [
      32.68983,
      39.98493
     ],
     [
      32.68996,
      39.98492
     ],
     [
      32.69017,
      39.98579
     ],
     [
      32.68945,
      39.98585
     ]
    ]
   ]
  ]
 }
}