{
 "type": "Feature",
 "properties": {
  "isim": "Nar Gülü 1 Sitesi",
  "kaynak": "TKGM Parsel Sorgu (CBS) verisine dayalıdır; bilgilendirme amaçlıdır, resmi kadastro belgesi yerine geçmez.",
  "adalar": [
   "43252/2"
  ]
 },
 "geometry": {
  "type": "MultiPolygon",
  "coordinates": [
   [
    [
     [
      32.68815,
      39.98965
     ],
     [
      32.68813,
      39.98964
     ],
     [
      32.68797,
      39.98896
     ],
     [
      32.68867,
      39.98855
     ],
     [
      32.68921,
      39.98823
     ],
     [
      32.68979,
      39.98868
     ],
     [
      32.68815,
      39.98965
     ]
    ]
   ]
  ]
 }
}