{
 "type": "Feature",
 "properties": {
  "isim": "Plus Life Ankara",
  "kaynak": "TKGM Parsel Sorgu (CBS) verisine dayalıdır; bilgilendirme amaçlıdır, resmi kadastro belgesi yerine geçmez.",
  "adalar": [
   "62661/4"
  ]
 },
 "geometry": {
  "type": "MultiPolygon",
  "coordinates": [
   [
    [
     [
      32.66309,
      39.98721
     ],
     [
      32.66246,
      39.98775
     ],
     [
      32.66216,
      39.98751
     ],
     [
      32.66202,
      39.98662
     ],
     [
      32.66219,
      39.9865
     ],
     [
      32.66309,
      39.98721
     ]
    ]
   ]
  ]
 }
}
