{
 "type": "Feature",
 "properties": {
  "isim": "Vera Point",
  "kaynak": "TKGM Parsel Sorgu (CBS) verisine dayalıdır; bilgilendirme amaçlıdır, resmi kadastro belgesi yerine geçmez.",
  "adalar": [
   "62656/2"
  ]
 },
 "geometry": {
  "type": "MultiPolygon",
  "coordinates": [
   [
    [
     [
      32.65986,
      39.98934
     ],
     [
      32.66077,
      39.98929
     ],
     [
      32.66086,
      39.98935
     ],
     [
      32.66097,
      39.99039
     ],
     [
      32.65998,
      39.99045
     ],
     [
      32.65986,
      39.98934
     ]
    ]
   ]
  ]
 }
}
