{
 "type": "Feature",
 "properties": {
  "isim": "Vizyon Tower",
  "kaynak": "TKGM Parsel Sorgu (CBS) verisine dayalıdır; bilgilendirme amaçlıdır, resmi kadastro belgesi yerine geçmez.",
  "adalar": [
   "62690/2"
  ]
 },
 "geometry": {
  "type": "MultiPolygon",
  "coordinates": [
   [
    [
     [
      32.6616,
      39.9753
     ],
     [
      32.6605,
      39.97522
     ],
     [
      32.66083,
      39.97428
     ],
     [
      32.66089,
      39.97417
     ],
     [
      32.66173,
      39.97423
     ],
     [
      32.66162,
      39.97516
     ],
     [
      32.6616,
      39.9753
     ]
    ]
   ]
  ]
 }
}