{
 "type": "Feature",
 "properties": {
  "isim": "Yeşil Koru Sitesi",
  "kaynak": "TKGM Parsel Sorgu (CBS) verisine dayalıdır; bilgilendirme amaçlıdır, resmi kadastro belgesi yerine geçmez.",
  "adalar": [
   "43267/2"
  ]
 },
 "geometry": {
  "type": "MultiPolygon",
  "coordinates": [
   [
    [
     [
      32.68828,
      39.98598
     ],
     [
      32.68818,
      39.98546
     ],
     [
      32.68819,
      39.98544
     ],
     [
      32.68911,
      39.98537
     ],
     [
      32.68914,
      39.98539
     ],
     [
      32.68925,
      39.9859
     ],
     [
      32.68828,
      39.98598
     ]
    ]
   ]
  ]
 }
}