{
 "type": "Feature",
 "properties": {
  "isim": "Zen Park Plus",
  "kaynak": "TKGM Parsel Sorgu (CBS) verisine dayalıdır; bilgilendirme amaçlıdır, resmi kadastro belgesi yerine geçmez.",
  "adalar": [
   "62669/3"
  ]
 },
 "geometry": {
  "type": "MultiPolygon",
  "coordinates": [
   [
    [
     [
      32.6593,
      39.98729
     ],
     [
      32.65921,
      39.98736
     ],
     [
      32.65916,
      39.9874
     ],
     [
      32.65911,
      39.98745
     ],
     [
      32.65908,
      39.9875
     ],
     [
      32.65905,
      39.98756
     ],
     [
      32.65902,
      39.98761
     ],
     [
      32.6582,
      39.98748
     ],
     [
      32.65837,
      39.98694
     ],
     [
      32.65842,
      39.98691
     ],
     [
      32.65902,
      39.98702
     ],
     [
      32.65918,
      39.98709
     ],
     [
      32.6593,
      39.98719
     ],
     [
      32.6593,
      39.98729
     ]
    ]
   ]
  ]
 }
}