{
 "type": "Feature",
 "properties": {
  "isim": "Zen Park Göksu",
  "kaynak": "TKGM Parsel Sorgu (CBS) verisine dayalıdır; bilgilendirme amaçlıdır, resmi kadastro belgesi yerine geçmez.",
  "adalar": [
   "62672/1"
  ]
 },
 "geometry": {
  "type": "MultiPolygon",
  "coordinates": [
   [
    [
     [
      32.65799,
      39.98739
     ],
     [
      32.65708,
      39.98723
     ],
     [
      32.65703,
      39.98718
     ],
     [
      32.65717,
      39.98676
     ],
     [
      32.65728,
      39.9867
     ],
     [
      32.65815,
      39.98686
     ],
     [
      32.65819,
      39.98692
     ],
     [
      32.65805,
      39.98736
     ],
     [
      32.65799,
      39.98739
     ]
    ]
   ]
  ]
 }
}