{
 "type": "Feature",
 "properties": {
  "isim": "Aker Mücevher Evleri",
  "kaynak": "TKGM Parsel Sorgu (CBS) verisine dayalıdır; bilgilendirme amaçlıdır, resmi kadastro belgesi yerine geçmez.",
  "adalar": [
   "46408/1"
  ]
 },
 "geometry": {
  "type": "MultiPolygon",
  "coordinates": [
   [
    [
     [
      32.61184,
      40.01113
     ],
     [
      32.61105,
      40.01091
     ],
     [
      32.61108,
      40.00963
     ],
     [
      32.61181,
      40.00968
     ],
     [
      32.61187,
      40.00974
     ],
     [
      32.61184,
      40.01113
     ]
    ]
   ]
  ]
 }
}