{
 "type": "Feature",
 "properties": {
  "isim": "Dilara Sitesi",
  "kaynak": "TKGM Parsel Sorgu (CBS) verisine dayalıdır; bilgilendirme amaçlıdır, resmi kadastro belgesi yerine geçmez.",
  "adalar": [
   "46197/3"
  ]
 },
 "geometry": {
  "type": "MultiPolygon",
  "coordinates": [
   [
    [
     [
      32.62309,
      40.00917
     ],
     [
      32.62263,
      40.00914
     ],
     [
      32.62267,
      40.00873
     ],
     [
      32.62136,
      40.00865
     ],
     [
      32.62145,
      40.00787
     ],
     [
      32.62316,
      40.00799
     ],
     [
      32.6232,
      40.00803
     ],
     [
      32.62309,
      40.00917
     ]
    ]
   ]
  ]
 }
}