{
 "type": "Feature",
 "properties": {
  "isim": "Emin Güven Sitesi",
  "kaynak": "TKGM Parsel Sorgu (CBS) verisine dayalıdır; bilgilendirme amaçlıdır, resmi kadastro belgesi yerine geçmez.",
  "adalar": [
   "44754/4"
  ]
 },
 "geometry": {
  "type": "MultiPolygon",
  "coordinates": [
   [
    [
     [
      32.60313,
      40.00231
     ],
     [
      32.60251,
      40.00162
     ],
     [
      32.60315,
      40.00128
     ],
     [
      32.60377,
      40.00197
     ],
     [
      32.60313,
      40.00231
     ]
    ]
   ]
  ]
 }
}
