{
 "type": "Feature",
 "properties": {
  "isim": "Endora Plus",
  "kaynak": "TKGM Parsel Sorgu (CBS) verisine dayalıdır; bilgilendirme amaçlıdır, resmi kadastro belgesi yerine geçmez.",
  "adalar": [
   "46426/1"
  ]
 },
 "geometry": {
  "type": "MultiPolygon",
  "coordinates": [
   [
    [
     [
      32.61957,
      40.00616
     ],
     [
      32.61805,
      40.00605
     ],
     [
      32.61817,
      40.00492
     ],
     [
      32.6198,
      40.00467
     ],
     [
      32.61957,
      40.00616
     ]
    ]
   ]
  ]
 }
}