{
 "type": "Feature",
 "properties": {
  "isim": "Eser Yapı Evleri",
  "kaynak": "TKGM Parsel Sorgu (CBS) verisine dayalıdır; bilgilendirme amaçlıdır, resmi kadastro belgesi yerine geçmez.",
  "adalar": [
   "44749/1"
  ]
 },
 "geometry": {
  "type": "MultiPolygon",
  "coordinates": [
   [
    [
     [
      32.60079,
      40.00572
     ],
     [
      32.60071,
      40.0057
     ],
     [
      32.59884,
      40.00347
     ],
     [
      32.59891,
      40.00343
     ],
     [
      32.60321,
      40.00434
     ],
     [
      32.60379,
      40.00436
     ],
     [
      32.60502,
      40.00461
     ],
     [
      32.60502,
      40.0047
     ],
     [
      32.60079,
      40.00572
     ]
    ],
    [
     [
      32.6026,
      40.00427
     ],
     [
      32.60259,
      40.00433
     ],
     [
      32.60252,
      40.00432
     ],
     [
      32.60253,
      40.00426
     ],
     [
      32.6026,
      40.00427
     ]
    ],
    [
     [
      32.60196,
      40.005
     ],
     [
      32.60193,
      40.00508
     ],
     [
      32.60183,
      40.00505
     ],
     [
      32.60186,
      40.00498
     ],
     [
      32.60196,
      40.005
     ]
    ],
    [
     [
      32.59971,
      40.00366
     ],
     [
      32.5997,
      40.00372
     ],
     [
      32.59961,
      40.00372
     ],
     [
      32.59963,
      40.00365
     ],
     [
      32.59971,
      40.00366
     ]
    ]
   ]
  ]
 }
}
