{
 "type": "Feature",
 "properties": {
  "isim": "Gold Life Konutları",
  "kaynak": "TKGM Parsel Sorgu (CBS) verisine dayalıdır; bilgilendirme amaçlıdır, resmi kadastro belgesi yerine geçmez.",
  "adalar": [
   "44764/2"
  ]
 },
 "geometry": {
  "type": "MultiPolygon",
  "coordinates": [
   [
    [
     [
      32.59817,
      40.00126
     ],
     [
      32.59865,
      40.00107
     ],
     [
      32.59876,
      40.00109
     ],
     [
      32.59948,
      40.00197
     ],
     [
      32.59946,
      40.00205
     ],
     [
      32.59901,
      40.00229
     ],
     [
      32.59817,
      40.00126
     ]
    ]
   ]
  ]
 }
}
