{
 "type": "Feature",
 "properties": {
  "isim": "Hansa Sitesi",
  "kaynak": "TKGM Parsel Sorgu (CBS) verisine dayalıdır; bilgilendirme amaçlıdır, resmi kadastro belgesi yerine geçmez.",
  "adalar": [
   "44763/3"
  ]
 },
 "geometry": {
  "type": "MultiPolygon",
  "coordinates": [
   [
    [
     [
      32.59685,
      40.00292
     ],
     [
      32.5961,
      40.00192
     ],
     [
      32.59662,
      40.00178
     ],
     [
      32.59751,
      40.00297
     ],
     [
      32.59735,
      40.00303
     ],
     [
      32.59685,
      40.00292
     ]
    ]
   ]
  ]
 }
}