{
 "type": "Feature",
 "properties": {
  "isim": "Kozlar Towers",
  "kaynak": "TKGM Parsel Sorgu (CBS) verisine dayalıdır; bilgilendirme amaçlıdır, resmi kadastro belgesi yerine geçmez.",
  "adalar": [
   "44783/2"
  ]
 },
 "geometry": {
  "type": "MultiPolygon",
  "coordinates": [
   [
    [
     [
      32.59375,
      39.99781
     ],
     [
      32.59504,
      39.99819
     ],
     [
      32.5951,
      39.99825
     ],
     [
      32.59536,
      39.99888
     ],
     [
      32.59531,
      39.99894
     ],
     [
      32.59478,
      39.99883
     ],
     [
      32.59426,
      39.9987
     ],
     [
      32.59379,
      39.99858
     ],
     [
      32.59343,
      39.99847
     ],
     [
      32.59375,
      39.99781
     ]
    ]
   ]
  ]
 }
}