{"type": "Feature", "properties": {"isim": "Mavi Ladin Konut", "kaynak": "TKGM Parsel Sorgu (CBS) verisine dayalıdır; bilgilendirme amaçlıdır, resmi kadastro belgesi yerine geçmez.", "adalar": ["46199/1", "46200/1", "46201/1", "46202/1", "46203/1", "46204/1"]}, "geometry": {"type": "MultiPolygon", "coordinates": [[[[32.6199, 40.0108], [32.61942, 40.01081], [32.61905, 40.00938], [32.61954, 40.00937], [32.6199, 40.0108]]], [[[32.61875, 40.01081], [32.61805, 40.01082], [32.61734, 40.01082], [32.61732, 40.01079], [32.61734, 40.01059], [32.61735, 40.01052], [32.61736, 40.01046], [32.61784, 40.01045], [32.61854, 40.01045], [32.61924, 40.01044], [32.61934, 40.01081], [32.61875, 40.01081]]], [[[32.61807, 40.01039], [32.61736, 40.01039], [32.6174, 40.01005], [32.61744, 40.01003], [32.61782, 40.01003], [32.61792, 40.01], [32.61876, 40.00939], [32.61897, 40.00939], [32.61905, 40.00968], [32.61863, 40.00999], [32.61807, 40.01039]]], [[[32.61826, 40.00963], [32.61786, 40.00992], [32.61779, 40.00994], [32.61745, 40.00994], [32.61742, 40.00991], [32.61744, 40.00973], [32.61785, 40.00944], [32.61828, 40.00913], [32.61871, 40.00882], [32.61902, 40.00907], [32.61868, 40.00932], [32.61826, 40.00963]]], [[[32.6175, 40.00961], [32.61718, 40.00936], [32.61811, 40.00868], [32.61843, 40.00894], [32.6175, 40.00961]]], [[[32.61712, 40.00931], [32.61683, 40.00908], [32.61683, 40.00903], [32.6173, 40.00868], [32.61773, 40.00838], [32.61805, 40.00864], [32.61712, 40.00931]]]]}}