{
 "type": "Feature",
 "properties": {
  "isim": "Mutlu Sitesi",
  "kaynak": "TKGM Parsel Sorgu (CBS) verisine dayalıdır; bilgilendirme amaçlıdır, resmi kadastro belgesi yerine geçmez.",
  "adalar": [
   "46190/1"
  ]
 },
 "geometry": {
  "type": "MultiPolygon",
  "coordinates": [
   [
    [
     [
      32.62289,
      40.01173
     ],
     [
      32.62288,
      40.0119
     ],
     [
      32.62284,
      40.01235
     ],
     [
      32.62214,
      40.01232
     ],
     [
      32.62144,
      40.01229
     ],
     [
      32.62125,
      40.01179
     ],
     [
      32.62109,
      40.01136
     ],
     [
      32.62092,
      40.01093
     ],
     [
      32.62096,
      40.01089
     ],
     [
      32.62173,
      40.01091
     ],
     [
      32.62232,
      40.01092
     ],
     [
      32.6229,
      40.01094
     ],
     [
      32.62295,
      40.01098
     ],
     [
      32.62292,
      40.01145
     ],
     [
      32.62289,
      40.01173
     ]
    ]
   ]
  ]
 }
}
