{
 "type": "Feature",
 "properties": {
  "isim": "Panorama Life",
  "kaynak": "TKGM Parsel Sorgu (CBS) verisine dayalıdır; bilgilendirme amaçlıdır, resmi kadastro belgesi yerine geçmez.",
  "adalar": [
   "44775/1"
  ]
 },
 "geometry": {
  "type": "MultiPolygon",
  "coordinates": [
   [
    [
     [
      32.59948,
      39.9997
     ],
     [
      32.59993,
      40.00027
     ],
     [
      32.59991,
      40.00035
     ],
     [
      32.59884,
      40.00089
     ],
     [
      32.59871,
      40.00087
     ],
     [
      32.59807,
      40.00013
     ],
     [
      32.5981,
      40.00002
     ],
     [
      32.59938,
      39.99966
     ],
     [
      32.59948,
      39.9997
     ]
    ]
   ]
  ]
 }
}
