{
 "type": "Feature",
 "properties": {
  "isim": "Panorama Prestij",
  "kaynak": "TKGM Parsel Sorgu (CBS) verisine dayalıdır; bilgilendirme amaçlıdır, resmi kadastro belgesi yerine geçmez.",
  "adalar": [
   "44785/2"
  ]
 },
 "geometry": {
  "type": "MultiPolygon",
  "coordinates": [
   [
    [
     [
      32.59502,
      40.00291
     ],
     [
      32.59483,
      40.00262
     ],
     [
      32.59485,
      40.00256
     ],
     [
      32.59719,
      40.00306
     ],
     [
      32.59718,
      40.00308
     ],
     [
      32.5967,
      40.00326
     ],
     [
      32.59663,
      40.00324
     ],
     [
      32.59659,
      40.00317
     ],
     [
      32.59534,
      40.00292
     ],
     [
      32.59523,
      40.00295
     ],
     [
      32.59502,
      40.00291
     ]
    ]
   ]
  ]
 }
}
