{
 "type": "Feature",
 "properties": {
  "isim": "Sarı Güllük Konutları",
  "kaynak": "TKGM Parsel Sorgu (CBS) verisine dayalıdır; bilgilendirme amaçlıdır, resmi kadastro belgesi yerine geçmez.",
  "adalar": [
   "46430/1"
  ]
 },
 "geometry": {
  "type": "MultiPolygon",
  "coordinates": [
   [
    [
     [
      32.61152,
      40.00557
     ],
     [
      32.61086,
      40.00566
     ],
     [
      32.61075,
      40.00563
     ],
     [
      32.61063,
      40.00554
     ],
     [
      32.61063,
      40.00549
     ],
     [
      32.61085,
      40.00476
     ],
     [
      32.61094,
      40.00447
     ],
     [
      32.61197,
      40.00477
     ],
     [
      32.61152,
      40.00557
     ]
    ]
   ]
  ]
 }
}