{
 "type": "Feature",
 "properties": {
  "isim": "Seçkin Atasaylar Sitesi",
  "kaynak": "TKGM Parsel Sorgu (CBS) verisine dayalıdır; bilgilendirme amaçlıdır, resmi kadastro belgesi yerine geçmez.",
  "adalar": [
   "44750/2"
  ]
 },
 "geometry": {
  "type": "MultiPolygon",
  "coordinates": [
   [
    [
     [
      32.60015,
      40.00281
     ],
     [
      32.59901,
      40.00336
     ],
     [
      32.5987,
      40.00329
     ],
     [
      32.59843,
      40.00298
     ],
     [
      32.59842,
      40.00288
     ],
     [
      32.59961,
      40.00224
     ],
     [
      32.5997,
      40.00225
     ],
     [
      32.60015,
      40.00281
     ]
    ]
   ]
  ]
 }
}