{
 "type": "Feature",
 "properties": {
  "isim": "Sermina Life",
  "kaynak": "TKGM Parsel Sorgu (CBS) verisine dayalıdır; bilgilendirme amaçlıdır, resmi kadastro belgesi yerine geçmez.",
  "adalar": [
   "46419/1"
  ]
 },
 "geometry": {
  "type": "MultiPolygon",
  "coordinates": [
   [
    [
     [
      32.61703,
      40.0084
     ],
     [
      32.61549,
      40.0083
     ],
     [
      32.6158,
      40.00748
     ],
     [
      32.61594,
      40.00743
     ],
     [
      32.61826,
      40.00761
     ],
     [
      32.61839,
      40.00771
     ],
     [
      32.61721,
      40.00856
     ],
     [
      32.61703,
      40.0084
     ]
    ]
   ]
  ]
 }
}