{
 "type": "Feature",
 "properties": {
  "isim": "Şirin Güneşkent Sitesi",
  "kaynak": "TKGM Parsel Sorgu (CBS) verisine dayalıdır; bilgilendirme amaçlıdır, resmi kadastro belgesi yerine geçmez.",
  "adalar": [
   "45836/1"
  ]
 },
 "geometry": {
  "type": "MultiPolygon",
  "coordinates": [
   [
    [
     [
      32.61006,
      40.00723
     ],
     [
      32.61008,
      40.00779
     ],
     [
      32.61001,
      40.00784
     ],
     [
      32.60839,
      40.00753
     ],
     [
      32.60828,
      40.00658
     ],
     [
      32.61005,
      40.00694
     ],
     [
      32.6101,
      40.00698
     ],
     [
      32.61006,
      40.00723
     ]
    ]
   ]
  ]
 }
}