{
 "type": "Feature",
 "properties": {
  "isim": "Söğüt Bahçe Konutları",
  "kaynak": "TKGM Parsel Sorgu (CBS) verisine dayalıdır; bilgilendirme amaçlıdır, resmi kadastro belgesi yerine geçmez.",
  "adalar": [
   "44782/1"
  ]
 },
 "geometry": {
  "type": "MultiPolygon",
  "coordinates": [
   [
    [
     [
      32.59612,
      40.00023
     ],
     [
      32.59608,
      40.0003
     ],
     [
      32.59572,
      40.00029
     ],
     [
      32.5955,
      40.00026
     ],
     [
      32.59495,
      40.00019
     ],
     [
      32.5949,
      40.00018
     ],
     [
      32.59415,
      40.00005
     ],
     [
      32.59373,
      39.99995
     ],
     [
      32.59332,
      39.99984
     ],
     [
      32.59317,
      39.99978
     ],
     [
      32.59294,
      39.99922
     ],
     [
      32.59276,
      39.99841
     ],
     [
      32.59283,
      39.99837
     ],
     [
      32.59374,
      39.99866
     ],
     [
      32.59422,
      39.99879
     ],
     [
      32.59465,
      39.99889
     ],
     [
      32.59474,
      39.99892
     ],
     [
      32.59533,
      39.99903
     ],
     [
      32.59541,
      39.99909
     ],
     [
      32.59612,
      40.00023
     ]
    ]
   ]
  ]
 }
}