{
 "type": "Feature",
 "properties": {
  "isim": "Tekirdağ Park Evleri",
  "kaynak": "TKGM Parsel Sorgu (CBS) verisine dayalıdır; bilgilendirme amaçlıdır, resmi kadastro belgesi yerine geçmez.",
  "adalar": [
   "46193/1"
  ]
 },
 "geometry": {
  "type": "MultiPolygon",
  "coordinates": [
   [
    [
     [
      32.62465,
      40.00996
     ],
     [
      32.62453,
      40.0104
     ],
     [
      32.62442,
      40.01084
     ],
     [
      32.62434,
      40.01088
     ],
     [
      32.62372,
      40.01087
     ],
     [
      32.62314,
      40.01085
     ],
     [
      32.62306,
      40.01079
     ],
     [
      32.62311,
      40.01034
     ],
     [
      32.62315,
      40.0098
     ],
     [
      32.6232,
      40.00926
     ],
     [
      32.62369,
      40.00929
     ],
     [
      32.62427,
      40.00933
     ],
     [
      32.62485,
      40.00936
     ],
     [
      32.62474,
      40.00961
     ],
     [
      32.62465,
      40.00996
     ]
    ]
   ]
  ]
 }
}
