{
 "type": "Feature",
 "properties": {
  "isim": "Tuana Evleri",
  "kaynak": "TKGM Parsel Sorgu (CBS) verisine dayalıdır; bilgilendirme amaçlıdır, resmi kadastro belgesi yerine geçmez.",
  "adalar": [
   "46425/1"
  ]
 },
 "geometry": {
  "type": "MultiPolygon",
  "coordinates": [
   [
    [
     [
      32.61797,
      40.00605
     ],
     [
      32.61633,
      40.00605
     ],
     [
      32.61657,
      40.0054
     ],
     [
      32.61661,
      40.00532
     ],
     [
      32.61667,
      40.00524
     ],
     [
      32.61675,
      40.00517
     ],
     [
      32.61682,
      40.00513
     ],
     [
      32.61695,
      40.0051
     ],
     [
      32.61708,
      40.00508
     ],
     [
      32.61708,
      40.00508
     ],
     [
      32.61809,
      40.00493
     ],
     [
      32.61797,
      40.00605
     ]
    ]
   ]
  ]
 }
}