{
 "type": "Feature",
 "properties": {
  "isim": "Yaylakent Sitesi",
  "kaynak": "TKGM Parsel Sorgu (CBS) verisine dayalıdır; bilgilendirme amaçlıdır, resmi kadastro belgesi yerine geçmez.",
  "adalar": [
   "45840/1"
  ]
 },
 "geometry": {
  "type": "MultiPolygon",
  "coordinates": [
   [
    [
     [
      32.60938,
      40.01092
     ],
     [
      32.60922,
      40.011
     ],
     [
      32.60907,
      40.01099
     ],
     [
      32.60895,
      40.01094
     ],
     [
      32.60786,
      40.0094
     ],
     [
      32.60791,
      40.00935
     ],
     [
      32.60984,
      40.00939
     ],
     [
      32.60988,
      40.00944
     ],
     [
      32.60938,
      40.01092
     ]
    ]
   ]
  ]
 }
}