{
 "type": "Feature",
 "properties": {
  "isim": "Zirve Park Konutları",
  "kaynak": "TKGM Parsel Sorgu (CBS) verisine dayalıdır; bilgilendirme amaçlıdır, resmi kadastro belgesi yerine geçmez.",
  "adalar": [
   "44777/1"
  ]
 },
 "geometry": {
  "type": "MultiPolygon",
  "coordinates": [
   [
    [
     [
      32.59516,
      39.99732
     ],
     [
      32.59654,
      39.998
     ],
     [
      32.59707,
      39.99907
     ],
     [
      32.59704,
      39.99914
     ],
     [
      32.59566,
      39.99901
     ],
     [
      32.59556,
      39.99895
     ],
     [
      32.59527,
      39.99822
     ],
     [
      32.59506,
      39.99739
     ],
     [
      32.59516,
      39.99732
     ]
    ]
   ]
  ]
 }
}