{
 "type": "Feature",
 "properties": {
  "isim": "Aknergiz Sitesi",
  "kaynak": "TKGM Parsel Sorgu (CBS) verisine dayalıdır; bilgilendirme amaçlıdır, resmi kadastro belgesi yerine geçmez.",
  "adalar": [
   "18638/1"
  ]
 },
 "geometry": {
  "type": "MultiPolygon",
  "coordinates": [
   [
    [
     [
      32.605,
      39.98767
     ],
     [
      32.60499,
      39.98774
     ],
     [
      32.60442,
      39.98807
     ],
     [
      32.60434,
      39.98807
     ],
     [
      32.60388,
      39.98762
     ],
     [
      32.60388,
      39.98757
     ],
     [
      32.60451,
      39.98719
     ],
     [
      32.605,
      39.98767
     ]
    ]
   ]
  ]
 }
}