{
 "type": "Feature",
 "properties": {
  "isim": "Çağdaş - 95 Sitesi",
  "kaynak": "TKGM Parsel Sorgu (CBS) verisine dayalıdır; bilgilendirme amaçlıdır, resmi kadastro belgesi yerine geçmez.",
  "adalar": [
   "18491/1"
  ]
 },
 "geometry": {
  "type": "MultiPolygon",
  "coordinates": [
   [
    [
     [
      32.61219,
      39.99349
     ],
     [
      32.61219,
      39.99329
     ],
     [
      32.61233,
      39.99329
     ],
     [
      32.61263,
      39.99308
     ],
     [
      32.61275,
      39.99313
     ],
     [
      32.61339,
      39.99314
     ],
     [
      32.6134,
      39.99309
     ],
     [
      32.61361,
      39.99309
     ],
     [
      32.61363,
      39.99311
     ],
     [
      32.61363,
      39.99331
     ],
     [
      32.61356,
      39.9935
     ],
     [
      32.61219,
      39.99349
     ]
    ]
   ]
  ]
 }
}
