{
 "type": "Feature",
 "properties": {
  "isim": "Eryapı Sitesi",
  "kaynak": "TKGM Parsel Sorgu (CBS) verisine dayalıdır; bilgilendirme amaçlıdır, resmi kadastro belgesi yerine geçmez.",
  "adalar": [
   "18657/1"
  ]
 },
 "geometry": {
  "type": "MultiPolygon",
  "coordinates": [
   [
    [
     [
      32.60477,
      39.98424
     ],
     [
      32.60469,
      39.9843
     ],
     [
      32.60362,
      39.98437
     ],
     [
      32.60359,
      39.98409
     ],
     [
      32.6036,
      39.98405
     ],
     [
      32.60362,
      39.98401
     ],
     [
      32.60407,
      39.98361
     ],
     [
      32.60412,
      39.98357
     ],
     [
      32.60419,
      39.98356
     ],
     [
      32.60463,
      39.98354
     ],
     [
      32.60473,
      39.98358
     ],
     [
      32.60477,
      39.98424
     ]
    ]
   ]
  ]
 }
}