{
 "type": "Feature",
 "properties": {
  "isim": "Kardelen Sitesi",
  "kaynak": "TKGM Parsel Sorgu (CBS) verisine dayalıdır; bilgilendirme amaçlıdır, resmi kadastro belgesi yerine geçmez.",
  "adalar": [
   "18453/1"
  ]
 },
 "geometry": {
  "type": "MultiPolygon",
  "coordinates": [
   [
    [
     [
      32.61974,
      39.9974
     ],
     [
      32.61983,
      39.99674
     ],
     [
      32.61988,
      39.99672
     ],
     [
      32.62054,
      39.99677
     ],
     [
      32.62061,
      39.99681
     ],
     [
      32.62054,
      39.99732
     ],
     [
      32.62026,
      39.99766
     ],
     [
      32.61974,
      39.9974
     ]
    ]
   ]
  ]
 }
}