{"type": "Feature", "properties": {"isim": "Mesa Çalışanları Kooperatifi", "kaynak": "TKGM Parsel Sorgu (CBS) verisine dayalıdır; bilgilendirme amaçlıdır, resmi kadastro belgesi yerine geçmez.", "adalar": ["18506/1", "18507/1"]}, "geometry": {"type": "MultiPolygon", "coordinates": [[[[32.60988, 39.98711], [32.60986, 39.98717], [32.60931, 39.98741], [32.60924, 39.9874], [32.60882, 39.98685], [32.60946, 39.98656], [32.60988, 39.98711]]], [[[32.60903, 39.98749], [32.60901, 39.98754], [32.60856, 39.98774], [32.60833, 39.98769], [32.60799, 39.98725], [32.608, 39.98721], [32.60861, 39.98694], [32.60903, 39.98749]]]]}}