{
 "type": "Feature",
 "properties": {
  "isim": "Özügüzelkent Sitesi",
  "kaynak": "TKGM Parsel Sorgu (CBS) verisine dayalıdır; bilgilendirme amaçlıdır, resmi kadastro belgesi yerine geçmez.",
  "adalar": [
   "18664/1",
   "18665/1"
  ]
 },
 "geometry": {
  "type": "MultiPolygon",
  "coordinates": [
   [
    [
     [
      32.60832,
      39.98326
     ],
     [
      32.60828,
      39.98329
     ],
     [
      32.60761,
      39.98331
     ],
     [
      32.60755,
      39.98328
     ],
     [
      32.60752,
      39.98264
     ],
     [
      32.60836,
      39.98261
     ],
     [
      32.60832,
      39.98326
     ]
    ]
   ],
   [
    [
     [
      32.60732,
      39.98329
     ],
     [
      32.60727,
      39.98332
     ],
     [
      32.60648,
      39.98335
     ],
     [
      32.60649,
      39.98268
     ],
     [
      32.60729,
      39.98265
     ],
     [
      32.60732,
      39.98329
     ]
    ]
   ]
  ]
 }
}
