{
 "type": "Feature",
 "properties": {
  "isim": "Şahinbey Sitesi",
  "kaynak": "TKGM Parsel Sorgu (CBS) verisine dayalıdır; bilgilendirme amaçlıdır, resmi kadastro belgesi yerine geçmez.",
  "adalar": [
   "18461/1"
  ]
 },
 "geometry": {
  "type": "MultiPolygon",
  "coordinates": [
   [
    [
     [
      32.62026,
      39.99362
     ],
     [
      32.62021,
      39.99356
     ],
     [
      32.62022,
      39.99349
     ],
     [
      32.62022,
      39.99342
     ],
     [
      32.6202,
      39.99336
     ],
     [
      32.62016,
      39.9933
     ],
     [
      32.62011,
      39.99324
     ],
     [
      32.62011,
      39.99317
     ],
     [
      32.62063,
      39.99288
     ],
     [
      32.62072,
      39.99288
     ],
     [
      32.62104,
      39.99323
     ],
     [
      32.62105,
      39.99332
     ],
     [
      32.62085,
      39.99366
     ],
     [
      32.62026,
      39.99362
     ]
    ]
   ]
  ]
 }
}