{"type": "Feature", "properties": {"isim": "Şeniz Sitesi", "kaynak": "TKGM Parsel Sorgu (CBS) verisine dayalıdır; bilgilendirme amaçlıdır, resmi kadastro belgesi yerine geçmez.", "adalar": ["18516/1", "18517/1"]}, "geometry": {"type": "MultiPolygon", "coordinates": [[[[32.60787, 39.98805], [32.60731, 39.98829], [32.60725, 39.98828], [32.60683, 39.98773], [32.60743, 39.98746], [32.60787, 39.98805]]], [[[32.60704, 39.98837], [32.60703, 39.98842], [32.60644, 39.98868], [32.606, 39.98809], [32.60663, 39.98782], [32.60704, 39.98837]]]]}}